{"type":"FeatureCollection", "features": [
{"type":"Feature","geometry":{"type":"Polygon","coordinates":[[[94.5875,25.2044],[94.5851,25.2668],[94.6347,25.3952],[94.6712,25.4423],[94.5539,25.5026],[94.5847,25.6846],[94.4917,25.6087],[94.4674,25.582],[94.3948,25.429],[94.3747,25.3616],[94.326,25.2808],[94.2527,25.2289],[94.2177,25.1799],[94.2253,25.0611],[94.2741,25.1017],[94.3526,25.1277],[94.42,25.1811],[94.5875,25.2044]]]},"properties":{"AC_NO":45,"AC_NAME":"Chingai","district":"UKHRUL","PC_NO":2,"PC_NAME":"OUTER MANIPUR"}},
{"type":"Feature","geometry":{"type":"Polygon","coordinates":[[[94.4917,25.6087],[94.4268,25.5871],[94.4166,25.5366],[94.329,25.5046],[94.2186,25.4916],[94.1562,25.5511],[94.1357,25.5184],[94.1596,25.4269],[94.1818,25.414],[94.2341,25.4344],[94.3948,25.429],[94.4674,25.582],[94.4917,25.6087]]]},"properties":{"AC_NO":48,"AC_NAME":"Mao","district":"SENAPATI","PC_NO":2,"PC_NAME":"OUTER MANIPUR"}},
{"type":"Feature","geometry":{"type":"Polygon","coordinates":[[[94.1357,25.5184],[94.0481,25.5756],[93.9602,25.5507],[93.8344,25.5606],[93.7703,25.5337],[93.805,25.4634],[93.8333,25.4274],[93.9175,25.4024],[93.8876,25.3351],[93.9023,25.272],[93.8215,25.2191],[93.7728,25.1541],[93.7861,25.1211],[93.8335,25.1495],[93.9119,25.1576],[93.9611,25.1148],[93.9752,25.1806],[94.0505,25.2922],[94.0667,25.3595],[94.1378,25.3801],[94.1818,25.414],[94.1596,25.4269],[94.1357,25.5184]]]},"properties":{"AC_NO":49,"AC_NAME":"Tadubi","district":"SENAPATI","PC_NO":2,"PC_NAME":"OUTER MANIPUR"}},
{"type":"Feature","geometry":{"type":"Polygon","coordinates":[[[94.2177,25.1799],[94.2527,25.2289],[94.326,25.2808],[94.3747,25.3616],[94.3948,25.429],[94.2341,25.4344],[94.1818,25.414],[94.1378,25.3801],[94.0667,25.3595],[94.0505,25.2922],[93.9752,25.1806],[94.091,25.1372],[94.0844,25.0844],[94.1187,25.0691],[94.1322,25.1188],[94.2177,25.1799]]]},"properties":{"AC_NO":47,"AC_NAME":"Karong","district":"SENAPATI","PC_NO":2,"PC_NAME":"OUTER MANIPUR"}},
{"type":"Feature","geometry":{"type":"Polygon","coordinates":[[[93.805,25.4634],[93.7422,25.404],[93.6372,25.2637],[93.6052,25.199],[93.556,25.246],[93.5015,25.2421],[93.4276,25.2832],[93.381,25.2399],[93.3457,25.1699],[93.3322,25.0935],[93.2638,25.0493],[93.2486,24.9148],[93.1755,24.7939],[93.2323,24.7527],[93.2014,24.7015],[93.2822,24.6699],[93.3599,24.7924],[93.4043,24.8256],[93.3963,24.9252],[93.4739,25.0613],[93.4738,25.111],[93.5596,25.0986],[93.6402,25.0514],[93.7198,25.0368],[93.7244,25.002],[93.6812,24.9643],[93.6967,24.9285],[93.7993,24.9583],[93.8091,25.042],[93.7861,25.1211],[93.7728,25.1541],[93.8215,25.2191],[93.9023,25.272],[93.8876,25.3351],[93.9175,25.4024],[93.8333,25.4274],[93.805,25.4634]]]},"properties":{"AC_NO":52,"AC_NAME":"Tamei","district":"TAMENGLONG","PC_NO":2,"PC_NAME":"OUTER MANIPUR"}},
{"type":"Feature","geometry":{"type":"Polygon","coordinates":[[[94.5875,25.2044],[94.42,25.1811],[94.3526,25.1277],[94.2741,25.1017],[94.2253,25.0611],[94.2177,25.1799],[94.1322,25.1188],[94.1187,25.0691],[94.141,25.0501],[94.1719,24.9371],[94.1429,24.8661],[94.1953,24.9226],[94.2623,24.9362],[94.2915,24.9633],[94.3786,24.9703],[94.4275,25.0046],[94.6528,25.0606],[94.6483,25.0258],[94.7346,25.0197],[94.7369,25.1346],[94.606,25.1814],[94.5875,25.2044]]]},"properties":{"AC_NO":44,"AC_NAME":"Ukhrul","district":"UKHRUL","PC_NO":2,"PC_NAME":"OUTER MANIPUR"}},
{"type":"Feature","geometry":{"type":"Polygon","coordinates":[[[93.9611,25.1148],[93.9381,25.0449],[93.901,24.9814],[93.8865,24.9392],[93.8904,24.9376],[93.9466,24.9044],[93.9595,24.9578],[94.0276,24.9644],[94.0545,24.912],[94.0847,24.8871],[94.0812,24.8052],[94.0665,24.7208],[94.1265,24.7176],[94.1078,24.6366],[94.1474,24.6167],[94.2003,24.6255],[94.1823,24.6715],[94.179,24.7676],[94.1429,24.8661],[94.1719,24.9371],[94.141,25.0501],[94.1187,25.0691],[94.0844,25.0844],[94.091,25.1372],[93.9752,25.1806],[93.9611,25.1148]]]},"properties":{"AC_NO":46,"AC_NAME":"Saikul","district":"KANGPOKPI","PC_NO":2,"PC_NAME":"OUTER MANIPUR"}},
{"type":"Feature","geometry":{"type":"Polygon","coordinates":[[[93.9611,25.1148],[93.9119,25.1576],[93.8335,25.1495],[93.7861,25.1211],[93.8091,25.042],[93.9381,25.0449],[93.9611,25.1148]]]},"properties":{"AC_NO":50,"AC_NAME":"Kangpokpi","district":"KANGPOKPI","PC_NO":2,"PC_NAME":"OUTER MANIPUR"}},
{"type":"Feature","geometry":{"type":"Polygon","coordinates":[[[94.7346,25.0197],[94.6483,25.0258],[94.6528,25.0606],[94.4275,25.0046],[94.3786,24.9703],[94.2915,24.9633],[94.2623,24.9362],[94.1953,24.9226],[94.1429,24.8661],[94.179,24.7676],[94.1823,24.6715],[94.2003,24.6255],[94.2819,24.6006],[94.3729,24.5478],[94.4057,24.4821],[94.4545,24.566],[94.4966,24.5904],[94.5449,24.6688],[94.5452,24.7105],[94.605,24.7159],[94.6316,24.839],[94.6876,24.8893],[94.6966,24.9602],[94.7346,25.0197]]]},"properties":{"AC_NO":43,"AC_NAME":"Phungyar","district":"KAMJANG","PC_NO":2,"PC_NAME":"OUTER MANIPUR"}},
{"type":"Feature","geometry":{"type":"Polygon","coordinates":[[[93.7993,24.9583],[93.6967,24.9285],[93.6812,24.9643],[93.7244,25.002],[93.7198,25.0368],[93.6402,25.0514],[93.5596,25.0986],[93.4738,25.111],[93.4739,25.0613],[93.3963,24.9252],[93.4043,24.8256],[93.4443,24.8455],[93.5507,24.8078],[93.6065,24.8281],[93.6273,24.7944],[93.7501,24.7841],[93.7721,24.8493],[93.7586,24.9075],[93.7993,24.9583]]]},"properties":{"AC_NO":53,"AC_NAME":"Tamenglong","district":"TAMENGLONG","PC_NO":2,"PC_NAME":"OUTER MANIPUR"}},
{"type":"Feature","geometry":{"type":"Polygon","coordinates":[[[94.0545,24.912],[94.0276,24.9644],[93.9595,24.9578],[93.9466,24.9044],[94.0068,24.8601],[94.0367,24.8828],[94.0545,24.912]]]},"properties":{"AC_NO":1,"AC_NAME":"Khundrakpam","district":"IMPHAL EAST","PC_NO":1,"PC_NAME":"INNER MANIPUR"}},
{"type":"Feature","geometry":{"type":"Polygon","coordinates":[[[93.8091,25.042],[93.7993,24.9583],[93.7586,24.9075],[93.7721,24.8493],[93.7501,24.7841],[93.7238,24.6919],[93.7347,24.621],[93.7449,24.6356],[93.7714,24.7374],[93.8077,24.8669],[93.8476,24.9548],[93.901,24.9814],[93.9381,25.0449],[93.8091,25.042]]]},"properties":{"AC_NO":51,"AC_NAME":"Saitu","district":"KANGPOKPI","PC_NO":2,"PC_NAME":"OUTER MANIPUR"}},
{"type":"Feature","geometry":{"type":"Polygon","coordinates":[[[93.8865,24.9392],[93.901,24.9814],[93.8476,24.9548],[93.8077,24.8669],[93.8465,24.8563],[93.8662,24.8646],[93.8865,24.9392]]]},"properties":{"AC_NO":16,"AC_NAME":"Sekmai","district":"IMPHAL WEST","PC_NO":1,"PC_NAME":"INNER MANIPUR"}},
{"type":"Feature","geometry":{"type":"Polygon","coordinates":[[[93.9466,24.9044],[93.8904,24.9376],[93.9268,24.8918],[93.9659,24.8727],[94.0029,24.8538],[94.0068,24.8601],[93.9466,24.9044]]]},"properties":{"AC_NO":2,"AC_NAME":"Heingang","district":"IMPHAL EAST","PC_NO":1,"PC_NAME":"INNER MANIPUR"}},
{"type":"Feature","geometry":{"type":"Polygon","coordinates":[[[94.0812,24.8052],[94.0847,24.8871],[94.0545,24.912],[94.0367,24.8828],[94.0246,24.8378],[94.035,24.8065],[94.0812,24.8052]]]},"properties":{"AC_NO":8,"AC_NAME":"Lamlai","district":"IMPHAL EAST","PC_NO":1,"PC_NAME":"INNER MANIPUR"}},
{"type":"Feature","geometry":{"type":"Polygon","coordinates":[[[93.8865,24.9392],[93.8662,24.8646],[93.8966,24.8529],[93.9109,24.8754],[93.9268,24.8918],[93.8904,24.9376],[93.8865,24.9392]]]},"properties":{"AC_NO":17,"AC_NAME":"Lamsang","district":"IMPHAL WEST","PC_NO":1,"PC_NAME":"INNER MANIPUR"}},
{"type":"Feature","geometry":{"type":"Polygon","coordinates":[[[93.9268,24.8918],[93.9109,24.8754],[93.9604,24.8395],[93.9609,24.8398],[93.9659,24.8727],[93.9268,24.8918]]]},"properties":{"AC_NO":9,"AC_NAME":"Thangmeiband","district":"IMPHAL EAST","PC_NO":1,"PC_NAME":"INNER MANIPUR"}},
{"type":"Feature","geometry":{"type":"Polygon","coordinates":[[[94.0068,24.8601],[94.0029,24.8538],[93.9988,24.8226],[93.999,24.8021],[94.0246,24.8378],[94.0367,24.8828],[94.0068,24.8601]]]},"properties":{"AC_NO":3,"AC_NAME":"Khurai","district":"IMPHAL EAST","PC_NO":1,"PC_NAME":"INNER MANIPUR"}},
{"type":"Feature","geometry":{"type":"Polygon","coordinates":[[[93.9659,24.8727],[93.9609,24.8398],[93.9805,24.8292],[93.9988,24.8226],[94.0029,24.8538],[93.9659,24.8727]]]},"properties":{"AC_NO":15,"AC_NAME":"Wangkhei","district":"IMPHAL EAST","PC_NO":1,"PC_NAME":"INNER MANIPUR"}},
{"type":"Feature","geometry":{"type":"Polygon","coordinates":[[[93.8966,24.8529],[93.9416,24.8294],[93.9604,24.8395],[93.9109,24.8754],[93.8966,24.8529]]]},"properties":{"AC_NO":10,"AC_NAME":"Uripok","district":"IMPHAL EAST","PC_NO":1,"PC_NAME":"INNER MANIPUR"}},
{"type":"Feature","geometry":{"type":"Polygon","coordinates":[[[93.8465,24.8563],[93.8483,24.7671],[93.911,24.7415],[93.9339,24.7697],[93.934,24.7788],[93.9416,24.8294],[93.8966,24.8529],[93.8662,24.8646],[93.8465,24.8563]]]},"properties":{"AC_NO":19,"AC_NAME":"Patsoi","district":"IMPHAL WEST","PC_NO":1,"PC_NAME":"INNER MANIPUR"}},
{"type":"Feature","geometry":{"type":"Polygon","coordinates":[[[93.8077,24.8669],[93.7714,24.7374],[93.8384,24.7199],[93.8841,24.7105],[93.911,24.7415],[93.8483,24.7671],[93.8465,24.8563],[93.8077,24.8669]]]},"properties":{"AC_NO":18,"AC_NAME":"Konthoujam","district":"IMPHAL WEST","PC_NO":1,"PC_NAME":"INNER MANIPUR"}},
{"type":"Feature","geometry":{"type":"Polygon","coordinates":[[[94.0246,24.8378],[93.999,24.8021],[94.0088,24.7888],[94.0252,24.7709],[94.035,24.8065],[94.0246,24.8378]]]},"properties":{"AC_NO":4,"AC_NAME":"Khetrigao","district":"IMPHAL EAST","PC_NO":1,"PC_NAME":"INNER MANIPUR"}},
{"type":"Feature","geometry":{"type":"Polygon","coordinates":[[[94.1265,24.7176],[94.0665,24.7208],[94.0812,24.8052],[94.035,24.8065],[94.0252,24.7709],[94.0227,24.7452],[94.0608,24.6755],[94.089,24.6935],[94.1265,24.7176]]]},"properties":{"AC_NO":7,"AC_NAME":"Andro","district":"IMPHAL EAST","PC_NO":1,"PC_NAME":"INNER MANIPUR"}},
{"type":"Feature","geometry":{"type":"Polygon","coordinates":[[[93.9988,24.8226],[93.9805,24.8292],[93.9784,24.8159],[93.966,24.7767],[93.9859,24.7713],[94.0088,24.7888],[93.999,24.8021],[93.9988,24.8226]]]},"properties":{"AC_NO":14,"AC_NAME":"Yaiskul","district":"IMPHAL EAST","PC_NO":1,"PC_NAME":"INNER MANIPUR"}},
{"type":"Feature","geometry":{"type":"Polygon","coordinates":[[[93.934,24.7788],[93.9339,24.7697],[93.9325,24.759],[93.966,24.7767],[93.9784,24.8159],[93.934,24.7788]]]},"properties":{"AC_NO":12,"AC_NAME":"Keisamthong","district":"IMPHAL EAST","PC_NO":1,"PC_NAME":"INNER MANIPUR"}},
{"type":"Feature","geometry":{"type":"Polygon","coordinates":[[[93.4043,24.8256],[93.3599,24.7924],[93.2822,24.6699],[93.2014,24.7015],[93.2169,24.5936],[93.1771,24.5361],[93.22,24.4951],[93.25,24.5126],[93.2838,24.563],[93.3826,24.5691],[93.4897,24.555],[93.5681,24.5927],[93.7349,24.6175],[93.7347,24.621],[93.7238,24.6919],[93.7501,24.7841],[93.6273,24.7944],[93.6065,24.8281],[93.5507,24.8078],[93.4443,24.8455],[93.4043,24.8256]]]},"properties":{"AC_NO":54,"AC_NAME":"Nungba","district":"NONEY","PC_NO":2,"PC_NAME":"OUTER MANIPUR"}},
{"type":"Feature","geometry":{"type":"Polygon","coordinates":[[[94.0088,24.7888],[93.9859,24.7713],[93.9901,24.7489],[93.9918,24.728],[94.0227,24.7452],[94.0252,24.7709],[94.0088,24.7888]]]},"properties":{"AC_NO":5,"AC_NAME":"Thongju","district":"IMPHAL EAST","PC_NO":1,"PC_NAME":"INNER MANIPUR"}},
{"type":"Feature","geometry":{"type":"Polygon","coordinates":[[[93.966,24.7767],[93.9325,24.759],[93.939,24.7173],[93.9429,24.7194],[93.9901,24.7489],[93.9859,24.7713],[93.966,24.7767]]]},"properties":{"AC_NO":13,"AC_NAME":"Singjamei","district":"IMPHAL EAST","PC_NO":1,"PC_NAME":"INNER MANIPUR"}},
{"type":"Feature","geometry":{"type":"Polygon","coordinates":[[[93.9339,24.7697],[93.911,24.7415],[93.8841,24.7105],[93.9239,24.7043],[93.939,24.7173],[93.9325,24.759],[93.9339,24.7697]]]},"properties":{"AC_NO":21,"AC_NAME":"Naoriya Pakhanglak*","district":"IMPHAL WEST","PC_NO":1,"PC_NAME":"INNER MANIPUR"}},
{"type":"Feature","geometry":{"type":"Polygon","coordinates":[[[93.1755,24.7939],[93.1113,24.8002],[93.0862,24.7096],[93.095,24.653],[93.0708,24.6009],[93.0878,24.5725],[93.1771,24.5361],[93.2169,24.5936],[93.2014,24.7015],[93.2323,24.7527],[93.1755,24.7939]]]},"properties":{"AC_NO":40,"AC_NAME":"Jiribam","district":"PHERZAWL","PC_NO":2,"PC_NAME":"OUTER MANIPUR"}},
{"type":"Feature","geometry":{"type":"Polygon","coordinates":[[[93.9901,24.7489],[93.9429,24.7194],[93.9918,24.728],[93.9901,24.7489]]]},"properties":{"AC_NO":20,"AC_NAME":"langthabal","district":"IMPHAL EAST","PC_NO":1,"PC_NAME":"INNER MANIPUR"}},
{"type":"Feature","geometry":{"type":"Polygon","coordinates":[[[94.0608,24.6755],[94.0227,24.7452],[93.9918,24.728],[93.9857,24.6932],[94.0164,24.6677],[94.0533,24.6619],[94.0608,24.6755]]]},"properties":{"AC_NO":6,"AC_NAME":"Keirao","district":"IMPHAL EAST","PC_NO":1,"PC_NAME":"INNER MANIPUR"}},
{"type":"Feature","geometry":{"type":"Polygon","coordinates":[[[94.1474,24.6167],[94.1078,24.6366],[94.1265,24.7176],[94.089,24.6935],[94.0622,24.6576],[94.0686,24.6222],[94.112,24.586],[94.1474,24.6167]]]},"properties":{"AC_NO":33,"AC_NAME":"Heirok","district":"TENGNOUPAL","PC_NO":2,"PC_NAME":"OUTER MANIPUR"}},
{"type":"Feature","geometry":{"type":"Polygon","coordinates":[[[93.939,24.7173],[93.9239,24.7043],[93.915,24.6648],[93.8598,24.647],[93.892,24.6122],[93.9519,24.6414],[93.9857,24.6932],[93.9918,24.728],[93.9429,24.7194],[93.939,24.7173]]]},"properties":{"AC_NO":22,"AC_NAME":"Wangoi","district":"THOUBAL","PC_NO":1,"PC_NAME":"INNER MANIPUR"}},
{"type":"Feature","geometry":{"type":"Polygon","coordinates":[[[93.7714,24.7374],[93.7449,24.6356],[93.7865,24.6142],[93.8027,24.6217],[93.8161,24.6751],[93.8384,24.7199],[93.7714,24.7374]]]},"properties":{"AC_NO":25,"AC_NAME":"Oinam","district":"BISHNUPUR","PC_NO":1,"PC_NAME":"INNER MANIPUR"}},
{"type":"Feature","geometry":{"type":"Polygon","coordinates":[[[94.089,24.6935],[94.0608,24.6755],[94.0533,24.6619],[94.0622,24.6576],[94.089,24.6935]]]},"properties":{"AC_NO":32,"AC_NAME":"Wangkhem","district":"KANGPOKPI","PC_NO":1,"PC_NAME":"INNER MANIPUR"}},
{"type":"Feature","geometry":{"type":"Polygon","coordinates":[[[93.8841,24.7105],[93.8384,24.7199],[93.8161,24.6751],[93.8598,24.647],[93.915,24.6648],[93.9239,24.7043],[93.8841,24.7105]]]},"properties":{"AC_NO":24,"AC_NAME":"Nambol","district":"BISHNUPUR","PC_NO":1,"PC_NAME":"INNER MANIPUR"}},
{"type":"Feature","geometry":{"type":"Polygon","coordinates":[[[94.0164,24.6677],[93.9857,24.6932],[93.9519,24.6414],[93.964,24.6407],[94.0153,24.6612],[94.0164,24.6677]]]},"properties":{"AC_NO":30,"AC_NAME":"Lilong","district":"THOUBAL","PC_NO":1,"PC_NAME":"INNER MANIPUR"}},
{"type":"Feature","geometry":{"type":"Polygon","coordinates":[[[94.0533,24.6619],[94.0164,24.6677],[94.0153,24.6612],[94.0622,24.6576],[94.0533,24.6619]]]},"properties":{"AC_NO":31,"AC_NAME":"Thoubal","district":"THOUBAL","PC_NO":1,"PC_NAME":"INNER MANIPUR"}},
{"type":"Feature","geometry":{"type":"Polygon","coordinates":[[[94.0622,24.6576],[94.0153,24.6612],[93.964,24.6407],[93.9761,24.5907],[94.0686,24.6222],[94.0622,24.6576]]]},"properties":{"AC_NO":35,"AC_NAME":"Khangabo","district":"THOUBAL","PC_NO":2,"PC_NAME":"OUTER MANIPUR"}},
{"type":"Feature","geometry":{"type":"Polygon","coordinates":[[[93.8161,24.6751],[93.8027,24.6217],[93.887,24.5812],[93.8733,24.5517],[93.9093,24.57],[93.892,24.6122],[93.8598,24.647],[93.8161,24.6751]]]},"properties":{"AC_NO":23,"AC_NAME":"Mayang Imphal","district":"IMPHAL WEST","PC_NO":1,"PC_NAME":"INNER MANIPUR"}},
{"type":"Feature","geometry":{"type":"Polygon","coordinates":[[[94.2003,24.6255],[94.1474,24.6167],[94.112,24.586],[94.07,24.56],[94.086,24.5182],[93.9732,24.4876],[93.9631,24.4189],[94.0264,24.3775],[94.0983,24.4007],[94.1492,24.3723],[94.1428,24.2885],[94.1811,24.2396],[94.1536,24.1279],[94.1754,24.1041],[94.2545,24.0825],[94.2597,24.1653],[94.4083,24.4399],[94.4057,24.4821],[94.3729,24.5478],[94.2819,24.6006],[94.2003,24.6255]]]},"properties":{"AC_NO":42,"AC_NAME":"Tengnoupal","district":"TENGNOUPAL","PC_NO":2,"PC_NAME":"OUTER MANIPUR"}},
{"type":"Feature","geometry":{"type":"Polygon","coordinates":[[[93.9519,24.6414],[93.892,24.6122],[93.9093,24.57],[93.9719,24.5475],[93.9952,24.5628],[93.9761,24.5907],[93.964,24.6407],[93.9519,24.6414]]]},"properties":{"AC_NO":36,"AC_NAME":"Wabgai","district":"THOUBAL","PC_NO":2,"PC_NAME":"OUTER MANIPUR"}},
{"type":"Feature","geometry":{"type":"Polygon","coordinates":[[[94.112,24.586],[94.0686,24.6222],[93.9761,24.5907],[93.9952,24.5628],[94.07,24.56],[94.112,24.586]]]},"properties":{"AC_NO":34,"AC_NAME":"Wangjing Tentha","district":"THOUBAL","PC_NO":2,"PC_NAME":"OUTER MANIPUR"}},
{"type":"Feature","geometry":{"type":"Polygon","coordinates":[[[93.7449,24.6356],[93.7347,24.621],[93.7349,24.6175],[93.7307,24.5101],[93.7616,24.5091],[93.7865,24.6142],[93.7449,24.6356]]]},"properties":{"AC_NO":26,"AC_NAME":"Bishenpur","district":"BISHNUPUR","PC_NO":1,"PC_NAME":"INNER MANIPUR"}},
{"type":"Feature","geometry":{"type":"Polygon","coordinates":[[[93.7865,24.6142],[93.7616,24.5091],[93.7504,24.4372],[93.8517,24.4405],[93.8821,24.4898],[93.8733,24.5517],[93.887,24.5812],[93.8027,24.6217],[93.7865,24.6142]]]},"properties":{"AC_NO":28,"AC_NAME":"Thanga","district":"BISHNUPUR","PC_NO":1,"PC_NAME":"INNER MANIPUR"}},
{"type":"Feature","geometry":{"type":"Polygon","coordinates":[[[93.7349,24.6175],[93.5681,24.5927],[93.4897,24.555],[93.3826,24.5691],[93.3824,24.4968],[93.3643,24.4069],[93.4919,24.3635],[93.4577,24.2645],[93.5614,24.2495],[93.607,24.2756],[93.5888,24.3395],[93.6275,24.3912],[93.702,24.4228],[93.7108,24.439],[93.7307,24.5101],[93.7349,24.6175]]]},"properties":{"AC_NO":57,"AC_NAME":"Henglep","district":"CHURACHANDPUR","PC_NO":2,"PC_NAME":"OUTER MANIPUR"}},
{"type":"Feature","geometry":{"type":"Polygon","coordinates":[[[93.9732,24.4876],[94.086,24.5182],[94.07,24.56],[93.9952,24.5628],[93.9719,24.5475],[93.9732,24.4876]]]},"properties":{"AC_NO":37,"AC_NAME":"Kakching","district":"THOUBAL","PC_NO":2,"PC_NAME":"OUTER MANIPUR"}},
{"type":"Feature","geometry":{"type":"Polygon","coordinates":[[[93.9093,24.57],[93.8733,24.5517],[93.8821,24.4898],[93.8517,24.4405],[93.8462,24.3964],[93.9528,24.4083],[93.9631,24.4189],[93.9732,24.4876],[93.9719,24.5475],[93.9093,24.57]]]},"properties":{"AC_NO":38,"AC_NAME":"Hiyanglam","district":"KAKCHING","PC_NO":2,"PC_NAME":"OUTER MANIPUR"}},
{"type":"Feature","geometry":{"type":"Polygon","coordinates":[[[93.3826,24.5691],[93.2838,24.563],[93.25,24.5126],[93.258,24.4547],[93.2188,24.3802],[93.2429,24.3065],[93.2008,24.23],[93.1987,24.1864],[93.1505,24.0841],[93.2119,24.0486],[93.2503,24.0802],[93.2938,24.0489],[93.3597,24.0915],[93.3873,24.1685],[93.4577,24.2645],[93.4919,24.3635],[93.3643,24.4069],[93.3824,24.4968],[93.3826,24.5691]]]},"properties":{"AC_NO":56,"AC_NAME":"Thanlon","district":"PHERZAWL","PC_NO":2,"PC_NAME":"OUTER MANIPUR"}},
{"type":"Feature","geometry":{"type":"Polygon","coordinates":[[[93.0878,24.5725],[93.049,24.5432],[93.0068,24.2826],[93.024,24.2338],[92.991,24.1156],[93.0994,24.0432],[93.1505,24.0841],[93.1987,24.1864],[93.2008,24.23],[93.2429,24.3065],[93.2188,24.3802],[93.258,24.4547],[93.25,24.5126],[93.22,24.4951],[93.1771,24.5361],[93.0878,24.5725]]]},"properties":{"AC_NO":55,"AC_NAME":"Tipaimukh","district":"PHERZAWL","PC_NO":2,"PC_NAME":"OUTER MANIPUR"}},
{"type":"Feature","geometry":{"type":"Polygon","coordinates":[[[93.7307,24.5101],[93.7108,24.439],[93.7504,24.4372],[93.7616,24.5091],[93.7307,24.5101]]]},"properties":{"AC_NO":27,"AC_NAME":"Moirang","district":"BISHNUPUR","PC_NO":1,"PC_NAME":"INNER MANIPUR"}},
{"type":"Feature","geometry":{"type":"Polygon","coordinates":[[[93.7504,24.4372],[93.7108,24.439],[93.702,24.4228],[93.794,24.3936],[93.8399,24.3533],[93.8468,24.3135],[93.8739,24.2863],[93.8462,24.3964],[93.8517,24.4405],[93.7504,24.4372]]]},"properties":{"AC_NO":29,"AC_NAME":"Kumbi","district":"BISHNUPUR","PC_NO":1,"PC_NAME":"INNER MANIPUR"}},
{"type":"Feature","geometry":{"type":"Polygon","coordinates":[[[94.2545,24.0825],[94.1754,24.1041],[94.1536,24.1279],[94.1811,24.2396],[94.1428,24.2885],[94.1492,24.3723],[94.0983,24.4007],[94.0264,24.3775],[93.9631,24.4189],[93.9528,24.4083],[93.9083,24.3379],[93.9367,24.2904],[93.8739,24.2863],[93.8615,24.2069],[93.7808,24.1406],[93.7441,24.0026],[93.8196,23.9236],[93.8937,23.953],[94.0165,23.927],[94.049,23.8872],[94.0961,23.8892],[94.1179,23.8372],[94.1566,23.8482],[94.1697,23.9284],[94.2373,24.0354],[94.2545,24.0825]]]},"properties":{"AC_NO":41,"AC_NAME":"Chandel","district":"CHANDEL","PC_NO":2,"PC_NAME":"OUTER MANIPUR"}},
{"type":"Feature","geometry":{"type":"Polygon","coordinates":[[[93.9528,24.4083],[93.8462,24.3964],[93.8739,24.2863],[93.9367,24.2904],[93.9083,24.3379],[93.9528,24.4083]]]},"properties":{"AC_NO":39,"AC_NAME":"Sugnoo","district":"KAKCHING","PC_NO":2,"PC_NAME":"OUTER MANIPUR"}},
{"type":"Feature","geometry":{"type":"Polygon","coordinates":[[[93.607,24.2756],[93.6768,24.2343],[93.7093,24.3075],[93.794,24.3936],[93.702,24.4228],[93.6275,24.3912],[93.5888,24.3395],[93.607,24.2756]]]},"properties":{"AC_NO":59,"AC_NAME":"Saikot","district":"CHURACHANDPUR","PC_NO":2,"PC_NAME":"OUTER MANIPUR"}},
{"type":"Feature","geometry":{"type":"Polygon","coordinates":[[[93.8468,24.3135],[93.8399,24.3533],[93.794,24.3936],[93.7093,24.3075],[93.6768,24.2343],[93.7131,24.2156],[93.752,24.3108],[93.8468,24.3135]]]},"properties":{"AC_NO":58,"AC_NAME":"Churachandpur","district":"CHURACHANDPUR","PC_NO":2,"PC_NAME":"OUTER MANIPUR"}},
{"type":"Feature","geometry":{"type":"Polygon","coordinates":[[[93.607,24.2756],[93.5614,24.2495],[93.4577,24.2645],[93.3873,24.1685],[93.3597,24.0915],[93.4166,24.0719],[93.4617,23.9761],[93.5055,23.9424],[93.6085,23.9719],[93.6238,24.0114],[93.7441,24.0026],[93.7808,24.1406],[93.8615,24.2069],[93.8739,24.2863],[93.8468,24.3135],[93.752,24.3108],[93.7131,24.2156],[93.6768,24.2343],[93.607,24.2756]]]},"properties":{"AC_NO":60,"AC_NAME":"Singhat","district":"CHURACHANDPUR","PC_NO":2,"PC_NAME":"OUTER MANIPUR"}},
{"type":"Feature","geometry":{"type":"Polygon","coordinates":[[[93.9604,24.8395],[93.9416,24.8294],[93.934,24.7788],[93.9784,24.8159],[93.9805,24.8292],[93.9609,24.8398],[93.9604,24.8395]]]},"properties":{"AC_NO":11,"AC_NAME":"Sagolband","district":"IMPHAL EAST","PC_NO":1,"PC_NAME":"INNER MANIPUR"}}
]}