{"type":"FeatureCollection", "features": [
{"type":"Feature","geometry":{"type":"Polygon","coordinates":[[[94.2177,25.1799],[94.1322,25.1188],[94.1187,25.0691],[94.141,25.0501],[94.1719,24.9371],[94.1429,24.8661],[94.1953,24.9226],[94.2623,24.9362],[94.2915,24.9633],[94.3786,24.9703],[94.4275,25.0046],[94.6528,25.0606],[94.6483,25.0258],[94.7346,25.0197],[94.7369,25.1346],[94.606,25.1814],[94.5875,25.2044],[94.5851,25.2668],[94.6347,25.3952],[94.6712,25.4423],[94.5539,25.5026],[94.5847,25.6846],[94.4917,25.6087],[94.4674,25.582],[94.3948,25.429],[94.3747,25.3616],[94.326,25.2808],[94.2527,25.2289],[94.2177,25.1799]]]},"properties":{"district":"UKHRUL"}},
{"type":"Feature","geometry":{"type":"Polygon","coordinates":[[[94.4917,25.6087],[94.4268,25.5871],[94.4166,25.5366],[94.329,25.5046],[94.2186,25.4916],[94.1562,25.5511],[94.1357,25.5184],[94.0481,25.5756],[93.9602,25.5507],[93.8344,25.5606],[93.7703,25.5337],[93.805,25.4634],[93.8333,25.4274],[93.9175,25.4024],[93.8876,25.3351],[93.9023,25.272],[93.8215,25.2191],[93.7728,25.1541],[93.7861,25.1211],[93.8335,25.1495],[93.9119,25.1576],[93.9611,25.1148],[93.9752,25.1806],[94.091,25.1372],[94.0844,25.0844],[94.1187,25.0691],[94.1322,25.1188],[94.2177,25.1799],[94.2527,25.2289],[94.326,25.2808],[94.3747,25.3616],[94.3948,25.429],[94.4674,25.582],[94.4917,25.6087]]]},"properties":{"district":"SENAPATI"}},
{"type":"Feature","geometry":{"type":"Polygon","coordinates":[[[93.805,25.4634],[93.7422,25.404],[93.6372,25.2637],[93.6052,25.199],[93.556,25.246],[93.5015,25.2421],[93.4276,25.2832],[93.381,25.2399],[93.3457,25.1699],[93.3322,25.0935],[93.2638,25.0493],[93.2486,24.9148],[93.1755,24.7939],[93.2323,24.7527],[93.2014,24.7015],[93.2822,24.6699],[93.3599,24.7924],[93.4043,24.8256],[93.4443,24.8455],[93.5507,24.8078],[93.6065,24.8281],[93.6273,24.7944],[93.7501,24.7841],[93.7721,24.8493],[93.7586,24.9075],[93.7993,24.9583],[93.8091,25.042],[93.7861,25.1211],[93.7728,25.1541],[93.8215,25.2191],[93.9023,25.272],[93.8876,25.3351],[93.9175,25.4024],[93.8333,25.4274],[93.805,25.4634]]]},"properties":{"district":"TAMENGLONG"}},
{"type":"Feature","geometry":{"type":"MultiPolygon","coordinates":[[[[93.9611,25.1148],[93.9119,25.1576],[93.8335,25.1495],[93.7861,25.1211],[93.8091,25.042],[93.7993,24.9583],[93.7586,24.9075],[93.7721,24.8493],[93.7501,24.7841],[93.7238,24.6919],[93.7347,24.621],[93.7449,24.6356],[93.7714,24.7374],[93.8077,24.8669],[93.8476,24.9548],[93.901,24.9814],[93.8865,24.9392],[93.8904,24.9376],[93.9466,24.9044],[93.9595,24.9578],[94.0276,24.9644],[94.0545,24.912],[94.0847,24.8871],[94.0812,24.8052],[94.0665,24.7208],[94.1265,24.7176],[94.1078,24.6366],[94.1474,24.6167],[94.2003,24.6255],[94.1823,24.6715],[94.179,24.7676],[94.1429,24.8661],[94.1719,24.9371],[94.141,25.0501],[94.1187,25.0691],[94.0844,25.0844],[94.091,25.1372],[93.9752,25.1806],[93.9611,25.1148]]],[[[94.0608,24.6755],[94.0533,24.6619],[94.0622,24.6576],[94.089,24.6935],[94.0608,24.6755]]]]},"properties":{"district":"KANGPOKPI"}},
{"type":"Feature","geometry":{"type":"Polygon","coordinates":[[[94.1429,24.8661],[94.179,24.7676],[94.1823,24.6715],[94.2003,24.6255],[94.2819,24.6006],[94.3729,24.5478],[94.4057,24.4821],[94.4545,24.566],[94.4966,24.5904],[94.5449,24.6688],[94.5452,24.7105],[94.605,24.7159],[94.6316,24.839],[94.6876,24.8893],[94.6966,24.9602],[94.7346,25.0197],[94.6483,25.0258],[94.6528,25.0606],[94.4275,25.0046],[94.3786,24.9703],[94.2915,24.9633],[94.2623,24.9362],[94.1953,24.9226],[94.1429,24.8661]]]},"properties":{"district":"KAMJANG"}},
{"type":"Feature","geometry":{"type":"Polygon","coordinates":[[[93.9466,24.9044],[93.8904,24.9376],[93.9268,24.8918],[93.9109,24.8754],[93.8966,24.8529],[93.9416,24.8294],[93.934,24.7788],[93.9339,24.7697],[93.9325,24.759],[93.939,24.7173],[93.9429,24.7194],[93.9918,24.728],[93.9857,24.6932],[94.0164,24.6677],[94.0533,24.6619],[94.0608,24.6755],[94.089,24.6935],[94.1265,24.7176],[94.0665,24.7208],[94.0812,24.8052],[94.0847,24.8871],[94.0545,24.912],[94.0276,24.9644],[93.9595,24.9578],[93.9466,24.9044]]]},"properties":{"district":"IMPHAL EAST"}},
{"type":"Feature","geometry":{"type":"MultiPolygon","coordinates":[[[[93.901,24.9814],[93.8476,24.9548],[93.8077,24.8669],[93.7714,24.7374],[93.8384,24.7199],[93.8841,24.7105],[93.9239,24.7043],[93.939,24.7173],[93.9325,24.759],[93.9339,24.7697],[93.934,24.7788],[93.9416,24.8294],[93.8966,24.8529],[93.9109,24.8754],[93.9268,24.8918],[93.8904,24.9376],[93.8865,24.9392],[93.901,24.9814]]],[[[93.8598,24.647],[93.8161,24.6751],[93.8027,24.6217],[93.887,24.5812],[93.8733,24.5517],[93.9093,24.57],[93.892,24.6122],[93.8598,24.647]]]]},"properties":{"district":"IMPHAL WEST"}},
{"type":"Feature","geometry":{"type":"Polygon","coordinates":[[[93.2014,24.7015],[93.2169,24.5936],[93.1771,24.5361],[93.22,24.4951],[93.25,24.5126],[93.2838,24.563],[93.3826,24.5691],[93.4897,24.555],[93.5681,24.5927],[93.7349,24.6175],[93.7347,24.621],[93.7238,24.6919],[93.7501,24.7841],[93.6273,24.7944],[93.6065,24.8281],[93.5507,24.8078],[93.4443,24.8455],[93.4043,24.8256],[93.3599,24.7924],[93.2822,24.6699],[93.2014,24.7015]]]},"properties":{"district":"NONEY"}},
{"type":"Feature","geometry":{"type":"Polygon","coordinates":[[[93.1755,24.7939],[93.1113,24.8002],[93.0862,24.7096],[93.095,24.653],[93.0708,24.6009],[93.0878,24.5725],[93.049,24.5432],[93.0068,24.2826],[93.024,24.2338],[92.991,24.1156],[93.0994,24.0432],[93.1505,24.0841],[93.2119,24.0486],[93.2503,24.0802],[93.2938,24.0489],[93.3597,24.0915],[93.3873,24.1685],[93.4577,24.2645],[93.4919,24.3635],[93.3643,24.4069],[93.3824,24.4968],[93.3826,24.5691],[93.2838,24.563],[93.25,24.5126],[93.22,24.4951],[93.1771,24.5361],[93.2169,24.5936],[93.2014,24.7015],[93.2323,24.7527],[93.1755,24.7939]]]},"properties":{"district":"PHERZAWL"}},
{"type":"Feature","geometry":{"type":"Polygon","coordinates":[[[94.1265,24.7176],[94.089,24.6935],[94.0622,24.6576],[94.0686,24.6222],[94.112,24.586],[94.07,24.56],[94.086,24.5182],[93.9732,24.4876],[93.9631,24.4189],[94.0264,24.3775],[94.0983,24.4007],[94.1492,24.3723],[94.1428,24.2885],[94.1811,24.2396],[94.1536,24.1279],[94.1754,24.1041],[94.2545,24.0825],[94.2597,24.1653],[94.4083,24.4399],[94.4057,24.4821],[94.3729,24.5478],[94.2819,24.6006],[94.2003,24.6255],[94.1474,24.6167],[94.1078,24.6366],[94.1265,24.7176]]]},"properties":{"district":"TENGNOUPAL"}},
{"type":"Feature","geometry":{"type":"Polygon","coordinates":[[[93.939,24.7173],[93.9239,24.7043],[93.915,24.6648],[93.8598,24.647],[93.892,24.6122],[93.9093,24.57],[93.9719,24.5475],[93.9732,24.4876],[94.086,24.5182],[94.07,24.56],[94.112,24.586],[94.0686,24.6222],[94.0622,24.6576],[94.0533,24.6619],[94.0164,24.6677],[93.9857,24.6932],[93.9918,24.728],[93.9429,24.7194],[93.939,24.7173]]]},"properties":{"district":"THOUBAL"}},
{"type":"Feature","geometry":{"type":"Polygon","coordinates":[[[93.7449,24.6356],[93.7347,24.621],[93.7349,24.6175],[93.7307,24.5101],[93.7108,24.439],[93.702,24.4228],[93.794,24.3936],[93.8399,24.3533],[93.8468,24.3135],[93.8739,24.2863],[93.8462,24.3964],[93.8517,24.4405],[93.8821,24.4898],[93.8733,24.5517],[93.887,24.5812],[93.8027,24.6217],[93.8161,24.6751],[93.8598,24.647],[93.915,24.6648],[93.9239,24.7043],[93.8841,24.7105],[93.8384,24.7199],[93.7714,24.7374],[93.7449,24.6356]]]},"properties":{"district":"BISHNUPUR"}},
{"type":"Feature","geometry":{"type":"Polygon","coordinates":[[[93.3826,24.5691],[93.3824,24.4968],[93.3643,24.4069],[93.4919,24.3635],[93.4577,24.2645],[93.3873,24.1685],[93.3597,24.0915],[93.4166,24.0719],[93.4617,23.9761],[93.5055,23.9424],[93.6085,23.9719],[93.6238,24.0114],[93.7441,24.0026],[93.7808,24.1406],[93.8615,24.2069],[93.8739,24.2863],[93.8468,24.3135],[93.8399,24.3533],[93.794,24.3936],[93.702,24.4228],[93.7108,24.439],[93.7307,24.5101],[93.7349,24.6175],[93.5681,24.5927],[93.4897,24.555],[93.3826,24.5691]]]},"properties":{"district":"CHURACHANDPUR"}},
{"type":"Feature","geometry":{"type":"Polygon","coordinates":[[[93.8733,24.5517],[93.8821,24.4898],[93.8517,24.4405],[93.8462,24.3964],[93.8739,24.2863],[93.9367,24.2904],[93.9083,24.3379],[93.9528,24.4083],[93.9631,24.4189],[93.9732,24.4876],[93.9719,24.5475],[93.9093,24.57],[93.8733,24.5517]]]},"properties":{"district":"KAKCHING"}},
{"type":"Feature","geometry":{"type":"Polygon","coordinates":[[[93.9631,24.4189],[93.9528,24.4083],[93.9083,24.3379],[93.9367,24.2904],[93.8739,24.2863],[93.8615,24.2069],[93.7808,24.1406],[93.7441,24.0026],[93.8196,23.9236],[93.8937,23.953],[94.0165,23.927],[94.049,23.8872],[94.0961,23.8892],[94.1179,23.8372],[94.1566,23.8482],[94.1697,23.9284],[94.2373,24.0354],[94.2545,24.0825],[94.1754,24.1041],[94.1536,24.1279],[94.1811,24.2396],[94.1428,24.2885],[94.1492,24.3723],[94.0983,24.4007],[94.0264,24.3775],[93.9631,24.4189]]]},"properties":{"district":"CHANDEL"}}
]}