{"type":"FeatureCollection","features":[{"type":"Feature","geometry":{"type":"Polygon","coordinates":[[[92.8883,24.3983],[92.8229,24.3868],[92.7635,24.5212],[92.6846,24.3467],[92.612,24.2537],[92.6962,24.2125],[92.7948,24.1648],[92.8821,24.1687],[92.8615,24.3082],[92.8883,24.3983]]]},"properties":{"AC_NO":6,"AC_NAME":"Serlui (ST)","PC_NO":1,"PC_NAME":"MIZORAM (ST)","district":"KOLASIB"}},{"type":"Feature","geometry":{"type":"Polygon","coordinates":[[[93.0087,24.4118],[92.8883,24.3983],[92.8615,24.3082],[92.8821,24.1687],[92.8008,23.9273],[92.8054,23.8799],[92.829,23.8593],[92.9955,23.824],[92.9992,24.0553],[92.9715,24.1163],[93.024,24.2338],[93.0403,24.3414],[93.0087,24.4118]]]},"properties":{"AC_NO":7,"AC_NAME":"Tuivawl (ST)","PC_NO":1,"PC_NAME":"MIZORAM (ST)","district":"AIZAWL"}},{"type":"Feature","geometry":{"type":"Polygon","coordinates":[[[92.612,24.2537],[92.5296,24.1788],[92.5417,24.1435],[92.5363,24.1318],[92.6461,24.1381],[92.6962,24.2125],[92.612,24.2537]]]},"properties":{"AC_NO":5,"AC_NAME":"Kolasib (ST)","PC_NO":1,"PC_NAME":"MIZORAM (ST)","district":"KOLASIB"}},{"type":"Feature","geometry":{"type":"Polygon","coordinates":[[[92.4227,24.2549],[92.3462,24.2534],[92.2996,24.2525],[92.3319,24.1827],[92.3167,24.0719],[92.3311,23.9207],[92.2603,23.8131],[92.267,23.7359],[92.3786,23.7325],[92.4182,23.8507],[92.4214,23.962],[92.5417,24.1435],[92.5296,24.1788],[92.4654,24.1361],[92.4227,24.2549]]]},"properties":{"AC_NO":1,"AC_NAME":"Hachhek (ST)","PC_NO":1,"PC_NAME":"MIZORAM (ST)","district":"MAMIT"}},{"type":"Feature","geometry":{"type":"Polygon","coordinates":[[[92.8821,24.1687],[92.7948,24.1648],[92.6962,24.2125],[92.6461,24.1381],[92.5363,24.1318],[92.6352,24.0334],[92.64,23.8812],[92.693,23.8681],[92.8054,23.8799],[92.8008,23.9273],[92.8821,24.1687]]]},"properties":{"AC_NO":4,"AC_NAME":"Tuirial (ST)","PC_NO":1,"PC_NAME":"MIZORAM (ST)","district":"KOLASIB"}},{"type":"Feature","geometry":{"type":"Polygon","coordinates":[[[92.9715,24.1163],[92.9992,24.0553],[92.9955,23.824],[92.829,23.8593],[92.8081,23.7149],[93.0425,23.6626],[93.0412,23.7664],[93.1466,23.8112],[93.2045,24.0496],[93.1505,24.0841],[93.0994,24.0432],[92.9715,24.1163]]]},"properties":{"AC_NO":8,"AC_NAME":"Chalfilh (ST)","PC_NO":1,"PC_NAME":"MIZORAM (ST)","district":"SAITUAL"}},{"type":"Feature","geometry":{"type":"Polygon","coordinates":[[[92.5363,24.1318],[92.5417,24.1435],[92.4214,23.962],[92.4182,23.8507],[92.3786,23.7325],[92.267,23.7359],[92.2664,23.7241],[92.2915,23.6276],[92.4475,23.6846],[92.5658,23.7847],[92.6299,23.7608],[92.64,23.8812],[92.6352,24.0334],[92.5363,24.1318]]]},"properties":{"AC_NO":3,"AC_NAME":"Mamit (ST)","PC_NO":1,"PC_NAME":"MIZORAM (ST)","district":"MAMIT"}},{"type":"Feature","geometry":{"type":"Polygon","coordinates":[[[93.3262,24.0485],[93.2045,24.0496],[93.1466,23.8112],[93.0412,23.7664],[93.0425,23.6626],[93.0414,23.4114],[93.0148,23.2787],[93.0109,23.2705],[93.0535,23.275],[93.0941,23.3879],[93.1037,23.5171],[93.1532,23.5227],[93.1582,23.7339],[93.2838,23.8234],[93.369,23.933],[93.3262,24.0485]]]},"properties":{"AC_NO":21,"AC_NAME":"Lengteng (ST)","PC_NO":1,"PC_NAME":"MIZORAM (ST)","district":"CHAMPHAI"}},{"type":"Feature","geometry":{"type":"Polygon","coordinates":[[[93.369,23.933],[93.2838,23.8234],[93.1582,23.7339],[93.1532,23.5227],[93.2596,23.4472],[93.3952,23.4918],[93.4355,23.6782],[93.369,23.933]]]},"properties":{"AC_NO":23,"AC_NAME":"Champhai North (ST)","PC_NO":1,"PC_NAME":"MIZORAM (ST)","district":"CHAMPHAI"}},{"type":"Feature","geometry":{"type":"Polygon","coordinates":[[[92.829,23.8593],[92.8054,23.8799],[92.693,23.8681],[92.7234,23.8042],[92.7442,23.7366],[92.7441,23.7158],[92.7605,23.6967],[92.7609,23.6765],[92.7387,23.6464],[92.7936,23.6166],[92.8081,23.7149],[92.829,23.8593]]]},"properties":{"AC_NO":13,"AC_NAME":"Aizawl East-I","PC_NO":1,"PC_NAME":"MIZORAM (ST)","district":"AIZAWL"}},{"type":"Feature","geometry":{"type":"Polygon","coordinates":[[[92.693,23.8681],[92.64,23.8812],[92.6299,23.7608],[92.6614,23.7006],[92.6713,23.6957],[92.6637,23.731],[92.7163,23.7611],[92.7234,23.8042],[92.693,23.8681]]]},"properties":{"AC_NO":15,"AC_NAME":"Aizawl West-I (ST)","PC_NO":1,"PC_NAME":"MIZORAM (ST)","district":"AIZAWL"}},{"type":"Feature","geometry":{"type":"Polygon","coordinates":[[[92.7234,23.8042],[92.7163,23.7611],[92.7228,23.7465],[92.7442,23.7366],[92.7234,23.8042]]]},"properties":{"AC_NO":10,"AC_NAME":"Aizawl North-I (ST)","PC_NO":1,"PC_NAME":"MIZORAM (ST)","district":"AIZAWL"}},{"type":"Feature","geometry":{"type":"Polygon","coordinates":[[[92.6614,23.7006],[92.6299,23.7608],[92.5658,23.7847],[92.4475,23.6846],[92.2915,23.6276],[92.327,23.4492],[92.3934,23.2664],[92.4627,23.319],[92.4571,23.3803],[92.6695,23.3835],[92.6514,23.5188],[92.6575,23.6908],[92.6614,23.7006]]]},"properties":{"AC_NO":2,"AC_NAME":"Dampa (ST)","PC_NO":1,"PC_NAME":"MIZORAM (ST)","district":"MAMIT"}},{"type":"Feature","geometry":{"type":"Polygon","coordinates":[[[92.7228,23.7465],[92.7163,23.7611],[92.6637,23.731],[92.6868,23.7096],[92.7134,23.7153],[92.7228,23.7465]]]},"properties":{"AC_NO":12,"AC_NAME":"Aizawl North-III (S","PC_NO":1,"PC_NAME":"MIZORAM (ST)","district":"AIZAWL"}},{"type":"Feature","geometry":{"type":"Polygon","coordinates":[[[92.7442,23.7366],[92.7228,23.7465],[92.7134,23.7153],[92.7441,23.7158],[92.7442,23.7366]]]},"properties":{"AC_NO":11,"AC_NAME":"Aizawl North-II (ST","PC_NO":1,"PC_NAME":"MIZORAM (ST)","district":"AIZAWL"}},{"type":"Feature","geometry":{"type":"Polygon","coordinates":[[[92.6868,23.7096],[92.6637,23.731],[92.6713,23.6957],[92.7013,23.6889],[92.7042,23.6964],[92.6868,23.7096]]]},"properties":{"AC_NO":16,"AC_NAME":"Aizawl West-II (ST)","PC_NO":1,"PC_NAME":"MIZORAM (ST)","district":"AIZAWL"}},{"type":"Feature","geometry":{"type":"Polygon","coordinates":[[[93.0425,23.6626],[92.8081,23.7149],[92.7936,23.6166],[92.7916,23.5919],[92.8702,23.5802],[93.0414,23.4114],[93.0425,23.6626]]]},"properties":{"AC_NO":9,"AC_NAME":"Tawi (ST)","PC_NO":1,"PC_NAME":"MIZORAM (ST)","district":"SAITUAL"}},{"type":"Feature","geometry":{"type":"Polygon","coordinates":[[[92.7441,23.7158],[92.7134,23.7153],[92.6868,23.7096],[92.7042,23.6964],[92.7605,23.6967],[92.7441,23.7158]]]},"properties":{"AC_NO":14,"AC_NAME":"Aizawl East-II (ST)","PC_NO":1,"PC_NAME":"MIZORAM (ST)","district":"AIZAWL"}},{"type":"Feature","geometry":{"type":"Polygon","coordinates":[[[92.7605,23.6967],[92.7042,23.6964],[92.7013,23.6889],[92.7221,23.6814],[92.7609,23.6765],[92.7605,23.6967]]]},"properties":{"AC_NO":18,"AC_NAME":"Aizawl South-I (ST)","PC_NO":1,"PC_NAME":"MIZORAM (ST)","district":"AIZAWL"}},{"type":"Feature","geometry":{"type":"Polygon","coordinates":[[[92.6713,23.6957],[92.6614,23.7006],[92.6575,23.6908],[92.6739,23.6775],[92.7221,23.6814],[92.7013,23.6889],[92.6713,23.6957]]]},"properties":{"AC_NO":17,"AC_NAME":"Aizawl West-III (ST","PC_NO":1,"PC_NAME":"MIZORAM (ST)","district":"AIZAWL"}},{"type":"Feature","geometry":{"type":"Polygon","coordinates":[[[92.6739,23.6775],[92.6575,23.6908],[92.6514,23.5188],[92.6695,23.3835],[92.6862,23.3288],[92.778,23.3003],[92.8309,23.3341],[92.8088,23.3687],[92.8615,23.4977],[92.7918,23.5044],[92.7916,23.5919],[92.7936,23.6166],[92.7387,23.6464],[92.6739,23.6775]]]},"properties":{"AC_NO":20,"AC_NAME":"Aizawl South-III (S","PC_NO":1,"PC_NAME":"MIZORAM (ST)","district":"AIZAWL"}},{"type":"Feature","geometry":{"type":"Polygon","coordinates":[[[92.7609,23.6765],[92.7221,23.6814],[92.6739,23.6775],[92.7387,23.6464],[92.7609,23.6765]]]},"properties":{"AC_NO":19,"AC_NAME":"Aizawl South-II (ST","PC_NO":1,"PC_NAME":"MIZORAM (ST)","district":"AIZAWL"}},{"type":"Feature","geometry":{"type":"Polygon","coordinates":[[[93.0414,23.4114],[92.8702,23.5802],[92.7916,23.5919],[92.7918,23.5044],[92.8615,23.4977],[92.8088,23.3687],[92.8309,23.3341],[92.9056,23.2532],[93.0148,23.2787],[93.0414,23.4114]]]},"properties":{"AC_NO":27,"AC_NAME":"Tuikum (ST)","PC_NO":1,"PC_NAME":"MIZORAM (ST)","district":"SERCHHIP"}},{"type":"Feature","geometry":{"type":"Polygon","coordinates":[[[93.3952,23.4918],[93.2596,23.4472],[93.2693,23.3798],[93.3688,23.3182],[93.4014,23.3842],[93.3952,23.4918]]]},"properties":{"AC_NO":24,"AC_NAME":"Champhai South (ST)","PC_NO":1,"PC_NAME":"MIZORAM (ST)","district":"CHAMPHAI"}},{"type":"Feature","geometry":{"type":"Polygon","coordinates":[[[93.2596,23.4472],[93.1532,23.5227],[93.1037,23.5171],[93.0941,23.3879],[93.0535,23.275],[93.0109,23.2705],[93.0474,23.214],[93.1642,23.1734],[93.2256,23.3483],[93.2693,23.3798],[93.2596,23.4472]]]},"properties":{"AC_NO":22,"AC_NAME":"Tuichang (ST)","PC_NO":1,"PC_NAME":"MIZORAM (ST)","district":"KHAWZAWL"}},{"type":"Feature","geometry":{"type":"Polygon","coordinates":[[[93.3688,23.3182],[93.2693,23.3798],[93.2256,23.3483],[93.1642,23.1734],[93.1936,23.054],[93.2944,23.007],[93.343,23.0588],[93.3804,23.1869],[93.3688,23.3182]]]},"properties":{"AC_NO":25,"AC_NAME":"East Tuipui (ST)","PC_NO":1,"PC_NAME":"MIZORAM (ST)","district":"CHAMPHAI"}},{"type":"Feature","geometry":{"type":"Polygon","coordinates":[[[92.6862,23.3288],[92.6695,23.3835],[92.4571,23.3803],[92.4627,23.319],[92.3934,23.2664],[92.364,23.1566],[92.4644,23.1321],[92.4643,23.0532],[92.5895,22.9632],[92.5346,22.8805],[92.5897,22.7811],[92.6633,22.7324],[92.6685,22.8741],[92.6886,22.9196],[92.6598,23.1443],[92.6152,23.2679],[92.684,23.3123],[92.6862,23.3288]]]},"properties":{"AC_NO":34,"AC_NAME":"Thorang (ST)","PC_NO":1,"PC_NAME":"MIZORAM (ST)","district":"LUNGLEI"}},{"type":"Feature","geometry":{"type":"Polygon","coordinates":[[[92.684,23.3123],[92.7081,23.1929],[92.7219,23.2415],[92.9178,23.1892],[92.9056,23.2532],[92.8309,23.3341],[92.778,23.3003],[92.6862,23.3288],[92.684,23.3123]]]},"properties":{"AC_NO":26,"AC_NAME":"Serchhip (ST)","PC_NO":1,"PC_NAME":"MIZORAM (ST)","district":"SERCHHIP"}},{"type":"Feature","geometry":{"type":"Polygon","coordinates":[[[92.7081,23.1929],[92.684,23.3123],[92.6152,23.2679],[92.6598,23.1443],[92.6886,22.9196],[92.6685,22.8741],[92.7533,22.8665],[92.7675,22.8929],[92.7461,22.9144],[92.7081,23.1929]]]},"properties":{"AC_NO":32,"AC_NAME":"Lunglei West (ST)","PC_NO":1,"PC_NAME":"MIZORAM (ST)","district":"LUNGLEI"}},{"type":"Feature","geometry":{"type":"Polygon","coordinates":[[[93.0148,23.2787],[92.9056,23.2532],[92.9178,23.1892],[92.958,23.131],[93.1218,23.0061],[93.1936,23.054],[93.1642,23.1734],[93.0474,23.214],[93.0109,23.2705],[93.0148,23.2787]]]},"properties":{"AC_NO":28,"AC_NAME":"Hrangturzo (ST)","PC_NO":1,"PC_NAME":"MIZORAM (ST)","district":"SERCHHIP"}},{"type":"Feature","geometry":{"type":"Polygon","coordinates":[[[92.9178,23.1892],[92.7219,23.2415],[92.7081,23.1929],[92.7461,22.9144],[92.7675,22.8929],[92.9018,22.9542],[92.9141,23.0842],[92.958,23.131],[92.9178,23.1892]]]},"properties":{"AC_NO":30,"AC_NAME":"Lunglei North (ST)","PC_NO":1,"PC_NAME":"MIZORAM (ST)","district":"LUNGLEI"}},{"type":"Feature","geometry":{"type":"Polygon","coordinates":[[[92.364,23.1566],[92.3918,23.0574],[92.3762,22.9291],[92.4612,22.8613],[92.5079,22.737],[92.5987,22.7212],[92.6309,22.6635],[92.6633,22.7324],[92.5897,22.7811],[92.5346,22.8805],[92.5895,22.9632],[92.4643,23.0532],[92.4644,23.1321],[92.364,23.1566]]]},"properties":{"AC_NO":35,"AC_NAME":"West Tuipui (ST)","PC_NO":1,"PC_NAME":"MIZORAM (ST)","district":"LUNGLEI"}},{"type":"Feature","geometry":{"type":"Polygon","coordinates":[[[93.1218,23.0061],[92.958,23.131],[92.9141,23.0842],[92.9018,22.9542],[92.946,22.9074],[92.9024,22.8085],[92.9026,22.7963],[93.0028,22.7543],[93.0959,22.7865],[93.1497,22.9084],[93.1218,23.0061]]]},"properties":{"AC_NO":29,"AC_NAME":"South Tuipui (ST)","PC_NO":1,"PC_NAME":"MIZORAM (ST)","district":"HNAHTHIAL"}},{"type":"Feature","geometry":{"type":"Polygon","coordinates":[[[92.9018,22.9542],[92.7675,22.8929],[92.7533,22.8665],[92.8175,22.8936],[92.9024,22.8085],[92.946,22.9074],[92.9018,22.9542]]]},"properties":{"AC_NO":31,"AC_NAME":"Lunglei East (ST)","PC_NO":1,"PC_NAME":"MIZORAM (ST)","district":"LUNGLEI"}},{"type":"Feature","geometry":{"type":"Polygon","coordinates":[[[92.7533,22.8665],[92.6685,22.8741],[92.6633,22.7324],[92.6309,22.6635],[92.6442,22.6177],[92.7523,22.5424],[92.8913,22.5829],[92.7914,22.7539],[92.9026,22.7963],[92.9024,22.8085],[92.8175,22.8936],[92.7533,22.8665]]]},"properties":{"AC_NO":33,"AC_NAME":"Lunglei South (ST)","PC_NO":1,"PC_NAME":"MIZORAM (ST)","district":"LUNGLEI"}},{"type":"Feature","geometry":{"type":"Polygon","coordinates":[[[93.0959,22.7865],[93.0028,22.7543],[92.9026,22.7963],[92.7914,22.7539],[92.8913,22.5829],[92.9315,22.5554],[93.1131,22.5594],[93.1402,22.5927],[93.0909,22.7048],[93.0959,22.7865]]]},"properties":{"AC_NO":38,"AC_NAME":"Lawngtlai East (ST)","PC_NO":1,"PC_NAME":"MIZORAM (ST)","district":"LAWNGTLAI"}},{"type":"Feature","geometry":{"type":"Polygon","coordinates":[[[92.5079,22.737],[92.5524,22.4097],[92.6105,22.1382],[92.5976,22.0093],[92.6809,22.0154],[92.6301,22.1284],[92.6364,22.3099],[92.6209,22.5841],[92.6442,22.6177],[92.6309,22.6635],[92.5987,22.7212],[92.5079,22.737]]]},"properties":{"AC_NO":36,"AC_NAME":"Tuichawng (ST)","PC_NO":1,"PC_NAME":"MIZORAM (ST)","district":"LAWNGTLAI"}},{"type":"Feature","geometry":{"type":"Polygon","coordinates":[[[92.9315,22.5554],[92.943,22.4679],[93.1786,22.4325],[93.1131,22.5594],[92.9315,22.5554]]]},"properties":{"AC_NO":39,"AC_NAME":"Saiha (ST)","PC_NO":1,"PC_NAME":"MIZORAM (ST)","district":"SAIHA"}},{"type":"Feature","geometry":{"type":"Polygon","coordinates":[[[92.8913,22.5829],[92.7523,22.5424],[92.6442,22.6177],[92.6209,22.5841],[92.6364,22.3099],[92.6301,22.1284],[92.6809,22.0154],[92.6992,22.1551],[92.8511,22.0654],[92.8316,22.2561],[92.943,22.4679],[92.9315,22.5554],[92.8913,22.5829]]]},"properties":{"AC_NO":37,"AC_NAME":"Lawngtlai West (ST)","PC_NO":1,"PC_NAME":"MIZORAM (ST)","district":"LAWNGTLAI"}},{"type":"Feature","geometry":{"type":"Polygon","coordinates":[[[93.1786,22.4325],[92.943,22.4679],[92.8316,22.2561],[92.8511,22.0654],[92.9214,21.9929],[92.9941,22.0422],[93.0627,22.2078],[93.1993,22.256],[93.1786,22.4325]]]},"properties":{"AC_NO":40,"AC_NAME":"Palak (ST)","PC_NO":1,"PC_NAME":"MIZORAM (ST)","district":"SAIHA"}}]}