{"type":"FeatureCollection","features":[{"type":"Feature","geometry":{"type":"Polygon","coordinates":[[[95.2678,29.0561],[95.37,28.7169],[95.3781,28.6032],[95.8094,28.4911],[95.8395,28.4356],[96.1829,28.4066],[96.326,28.5241],[96.5849,28.717],[96.5185,28.9672],[96.3467,29.029],[96.2482,28.9395],[96.1507,29.0503],[96.2442,29.2326],[96.0887,29.46],[95.8823,29.39],[95.5871,29.2164],[95.4111,29.0324],[95.2678,29.0561]]]},"properties":{"AC_NO":41,"AC_NAME":"Anini","PC_NO":2,"PC_NAME":"ARUNACHAL EAST","district":"DIB>NG VALLEY"}},{"type":"Feature","geometry":{"type":"Polygon","coordinates":[[[95.2678,29.0561],[94.8,29.2094],[94.6441,29.3468],[94.5603,29.2286],[94.4337,29.2267],[94.1873,29.0388],[94.3427,28.9839],[94.5351,28.8107],[94.7455,28.6864],[94.7588,28.534],[94.8196,28.5681],[95.0841,28.5267],[95.1097,28.4601],[95.2083,28.6411],[95.37,28.7169],[95.2678,29.0561]]]},"properties":{"AC_NO":34,"AC_NAME":"Tuting-Yinkgkiong","PC_NO":2,"PC_NAME":"ARUNACHAL EAST","district":"UPPER SIANG"}},{"type":"Feature","geometry":{"type":"Polygon","coordinates":[[[94.1873,29.0388],[93.997,28.8409],[93.9621,28.7124],[94.0592,28.5488],[94.4016,28.3385],[94.4471,28.4152],[94.4792,28.7101],[94.5351,28.8107],[94.3427,28.9839],[94.1873,29.0388]]]},"properties":{"AC_NO":33,"AC_NAME":"Mechuka","PC_NO":1,"PC_NAME":"ARUNACHAL WEST","district":"SHI YOMI"}},{"type":"Feature","geometry":{"type":"Polygon","coordinates":[[[94.5351,28.8107],[94.4792,28.7101],[94.4471,28.4152],[94.731,28.2481],[94.7562,28.2207],[94.8989,28.2145],[94.8789,28.4057],[94.7588,28.534],[94.7455,28.6864],[94.5351,28.8107]]]},"properties":{"AC_NO":32,"AC_NAME":"Rumgong","PC_NO":1,"PC_NAME":"ARUNACHAL WEST","district":"SIANG"}},{"type":"Feature","geometry":{"type":"Polygon","coordinates":[[[95.37,28.7169],[95.2083,28.6411],[95.1097,28.4601],[95.1368,28.2045],[95.2695,28.1964],[95.3832,28.3121],[95.3379,28.3658],[95.3781,28.6032],[95.37,28.7169]]]},"properties":{"AC_NO":40,"AC_NAME":"Mariyang-Geku","PC_NO":2,"PC_NAME":"ARUNACHAL EAST","district":"UPPER SIANG"}},{"type":"Feature","geometry":{"type":"Polygon","coordinates":[[[95.971,27.9613],[96.0261,28.1356],[95.7889,28.0836],[95.6981,28.2336],[95.8395,28.4356],[95.8094,28.4911],[95.3781,28.6032],[95.3379,28.3658],[95.3832,28.3121],[95.563,28.2573],[95.5673,27.9348],[95.971,27.9613]]]},"properties":{"AC_NO":42,"AC_NAME":"Dambuk","PC_NO":2,"PC_NAME":"ARUNACHAL EAST","district":"DIB>NG VALLEY"}},{"type":"Feature","geometry":{"type":"Polygon","coordinates":[[[95.8395,28.4356],[95.6981,28.2336],[95.7889,28.0836],[96.0261,28.1356],[96.2154,28.231],[96.304,28.374],[96.3137,28.3835],[96.326,28.5241],[96.1829,28.4066],[95.8395,28.4356]]]},"properties":{"AC_NO":43,"AC_NAME":"Roing","PC_NO":2,"PC_NAME":"ARUNACHAL EAST","district":"LOWER DIB>NG VALLEY"}},{"type":"Feature","geometry":{"type":"Polygon","coordinates":[[[93.9621,28.7124],[93.6221,28.6573],[93.3392,28.6399],[93.183,28.4324],[93.2216,28.335],[93.3369,28.3534],[93.464,28.2731],[93.6799,28.322],[93.8235,28.2465],[93.8682,28.2523],[93.9871,28.3733],[94.0592,28.5488],[93.9621,28.7124]]]},"properties":{"AC_NO":22,"AC_NAME":"Nacho","PC_NO":1,"PC_NAME":"ARUNACHAL WEST","district":"UPPER SUBANSIRI"}},{"type":"Feature","geometry":{"type":"Polygon","coordinates":[[[96.304,28.374],[96.3355,28.1851],[96.273,28.0913],[96.4309,27.914],[96.6285,27.7955],[96.6999,27.6605],[96.7288,27.6454],[96.8965,27.616],[97.2527,27.901],[97.3747,27.9091],[97.3949,28.0255],[97.2791,28.2687],[97.0901,28.3629],[96.994,28.3095],[96.6628,28.4603],[96.3137,28.3835],[96.304,28.374]]]},"properties":{"AC_NO":45,"AC_NAME":"Hauyuliang","PC_NO":2,"PC_NAME":"ARUNACHAL EAST","district":">NJ>W"}},{"type":"Feature","geometry":{"type":"Polygon","coordinates":[[[94.7588,28.534],[94.8789,28.4057],[94.8989,28.2145],[94.9174,28.0607],[95.0546,28.0016],[95.0999,28.0688],[95.1368,28.2045],[95.1097,28.4601],[95.0841,28.5267],[94.8196,28.5681],[94.7588,28.534]]]},"properties":{"AC_NO":35,"AC_NAME":"Pangin","PC_NO":2,"PC_NAME":"ARUNACHAL EAST","district":"SIANG"}},{"type":"Feature","geometry":{"type":"Polygon","coordinates":[[[95.887,27.8532],[95.9948,27.8445],[96.1673,27.8622],[96.3195,27.8144],[96.6285,27.7955],[96.4309,27.914],[96.273,28.0913],[96.3355,28.1851],[96.304,28.374],[96.2154,28.231],[96.0261,28.1356],[95.971,27.9613],[95.887,27.8532]]]},"properties":{"AC_NO":44,"AC_NAME":"Tezu","PC_NO":2,"PC_NAME":"ARUNACHAL EAST","district":"LOHIT"}},{"type":"Feature","geometry":{"type":"Polygon","coordinates":[[[94.0592,28.5488],[93.9871,28.3733],[93.8682,28.2523],[94.108,28.0491],[94.1854,28.1346],[94.3649,28.2073],[94.4016,28.3385],[94.0592,28.5488]]]},"properties":{"AC_NO":23,"AC_NAME":"Taliha","PC_NO":1,"PC_NAME":"ARUNACHAL WEST","district":"UPPER SUBANSIRI"}},{"type":"Feature","geometry":{"type":"Polygon","coordinates":[[[94.4016,28.3385],[94.3649,28.2073],[94.4543,28.0544],[94.6774,28.1205],[94.731,28.2481],[94.4471,28.4152],[94.4016,28.3385]]]},"properties":{"AC_NO":27,"AC_NAME":"Liromoba","PC_NO":1,"PC_NAME":"ARUNACHAL WEST","district":"WEST SIANG"}},{"type":"Feature","geometry":{"type":"Polygon","coordinates":[[[95.5673,27.9348],[95.563,28.2573],[95.3832,28.3121],[95.2695,28.1964],[95.4709,28.0471],[95.4638,27.9874],[95.4718,27.8672],[95.5141,27.8794],[95.5673,27.9348]]]},"properties":{"AC_NO":39,"AC_NAME":"Mebo","PC_NO":2,"PC_NAME":"ARUNACHAL EAST","district":"EAST SIANG"}},{"type":"Feature","geometry":{"type":"Polygon","coordinates":[[[93.2216,28.335],[93.0255,28.3028],[92.818,28.2012],[92.6629,28.0673],[92.7342,27.9767],[92.8378,27.9606],[92.9789,27.8237],[93.2288,27.8188],[93.5065,27.8611],[93.6059,28.0129],[93.464,28.2731],[93.3369,28.3534],[93.2216,28.335]]]},"properties":{"AC_NO":21,"AC_NAME":"Koloriang","PC_NO":1,"PC_NAME":"ARUNACHAL WEST","district":"KURUNG KUMEY"}},{"type":"Feature","geometry":{"type":"Polygon","coordinates":[[[94.731,28.2481],[94.6774,28.1205],[94.7765,28.0508],[94.7562,28.2207],[94.731,28.2481]]]},"properties":{"AC_NO":30,"AC_NAME":"Along West","PC_NO":1,"PC_NAME":"ARUNACHAL WEST","district":"WEST SIANG"}},{"type":"Feature","geometry":{"type":"Polygon","coordinates":[[[93.464,28.2731],[93.6059,28.0129],[93.6081,27.9649],[93.7109,27.9745],[93.9257,27.8711],[94.0155,27.9553],[93.8546,28.0813],[93.8235,28.2465],[93.6799,28.322],[93.464,28.2731]]]},"properties":{"AC_NO":20,"AC_NAME":"Tali","PC_NO":1,"PC_NAME":"ARUNACHAL WEST","district":"KRA DAADI"}},{"type":"Feature","geometry":{"type":"Polygon","coordinates":[[[95.1368,28.2045],[95.0999,28.0688],[95.4638,27.9874],[95.4709,28.0471],[95.2695,28.1964],[95.1368,28.2045]]]},"properties":{"AC_NO":38,"AC_NAME":"Pasighat East","PC_NO":2,"PC_NAME":"ARUNACHAL EAST","district":"EAST SIANG"}},{"type":"Feature","geometry":{"type":"Polygon","coordinates":[[[94.7562,28.2207],[94.7765,28.0508],[94.9174,28.0607],[94.8989,28.2145],[94.7562,28.2207]]]},"properties":{"AC_NO":31,"AC_NAME":"Along East","PC_NO":1,"PC_NAME":"ARUNACHAL WEST","district":"WEST SIANG"}},{"type":"Feature","geometry":{"type":"Polygon","coordinates":[[[93.8235,28.2465],[93.8546,28.0813],[94.0155,27.9553],[94.018,27.9548],[94.2328,27.9684],[94.1854,28.1346],[94.108,28.0491],[93.8682,28.2523],[93.8235,28.2465]]]},"properties":{"AC_NO":24,"AC_NAME":"Daporijo","PC_NO":1,"PC_NAME":"ARUNACHAL WEST","district":"UPPER SUBANSIRI"}},{"type":"Feature","geometry":{"type":"Polygon","coordinates":[[[94.1854,28.1346],[94.2328,27.9684],[94.239,27.8094],[94.3182,27.7763],[94.5929,27.8901],[94.4543,28.0544],[94.3649,28.2073],[94.1854,28.1346]]]},"properties":{"AC_NO":26,"AC_NAME":"Damporijo","PC_NO":1,"PC_NAME":"ARUNACHAL WEST","district":"UPPER SUBANSIRI"}},{"type":"Feature","geometry":{"type":"Polygon","coordinates":[[[94.4543,28.0544],[94.5929,27.8901],[94.8949,27.8083],[94.957,27.9809],[94.9174,28.0607],[94.7765,28.0508],[94.6774,28.1205],[94.4543,28.0544]]]},"properties":{"AC_NO":29,"AC_NAME":"Basar","PC_NO":1,"PC_NAME":"ARUNACHAL WEST","district":"LEPA RADA"}},{"type":"Feature","geometry":{"type":"Polygon","coordinates":[[[95.4718,27.8672],[95.4638,27.9874],[95.0999,28.0688],[95.0546,28.0016],[95.1024,27.8049],[95.309,27.868],[95.4718,27.8672]]]},"properties":{"AC_NO":37,"AC_NAME":"Pasighat West","PC_NO":2,"PC_NAME":"ARUNACHAL EAST","district":"EAST SIANG"}},{"type":"Feature","geometry":{"type":"Polygon","coordinates":[[[95.1024,27.8049],[95.0546,28.0016],[94.9174,28.0607],[94.957,27.9809],[94.8949,27.8083],[94.8702,27.7333],[95.1024,27.8049]]]},"properties":{"AC_NO":36,"AC_NAME":"Nari-Koyu","PC_NO":2,"PC_NAME":"ARUNACHAL EAST","district":"LOWER SIANG"}},{"type":"Feature","geometry":{"type":"Polygon","coordinates":[[[96.6285,27.7955],[96.3195,27.8144],[96.1673,27.8622],[95.9948,27.8445],[95.9614,27.7667],[96.087,27.6195],[96.0965,27.6136],[96.2889,27.5555],[96.3727,27.645],[96.6999,27.6605],[96.6285,27.7955]]]},"properties":{"AC_NO":46,"AC_NAME":"Chowkham","PC_NO":2,"PC_NAME":"ARUNACHAL EAST","district":"NAMSAI"}},{"type":"Feature","geometry":{"type":"Polygon","coordinates":[[[94.018,27.9548],[94.0155,27.9553],[93.9257,27.8711],[93.9238,27.7289],[93.9837,27.6334],[94.0435,27.4995],[94.2213,27.5036],[94.2677,27.5209],[94.2093,27.6077],[94.3182,27.7763],[94.239,27.8094],[94.2328,27.9684],[94.018,27.9548]]]},"properties":{"AC_NO":25,"AC_NAME":"Raga","PC_NO":1,"PC_NAME":"ARUNACHAL WEST","district":"KAMLE"}},{"type":"Feature","geometry":{"type":"Polygon","coordinates":[[[95.7738,27.6517],[95.7884,27.6337],[95.9739,27.659],[96.087,27.6195],[95.9614,27.7667],[95.9948,27.8445],[95.887,27.8532],[95.7758,27.7535],[95.7738,27.6517]]]},"properties":{"AC_NO":47,"AC_NAME":"Namsai","PC_NO":2,"PC_NAME":"ARUNACHAL EAST","district":"NAMSAI"}},{"type":"Feature","geometry":{"type":"Polygon","coordinates":[[[93.2288,27.8188],[93.2387,27.6148],[93.3293,27.6697],[93.5147,27.6502],[93.5387,27.6546],[93.6081,27.9649],[93.6059,28.0129],[93.5065,27.8611],[93.2288,27.8188]]]},"properties":{"AC_NO":19,"AC_NAME":"Nyapin","PC_NO":1,"PC_NAME":"ARUNACHAL WEST","district":"KURUNG KUMEY"}},{"type":"Feature","geometry":{"type":"Polygon","coordinates":[[[93.6081,27.9649],[93.5387,27.6546],[93.7751,27.6627],[93.9238,27.7289],[93.9257,27.8711],[93.7109,27.9745],[93.6081,27.9649]]]},"properties":{"AC_NO":18,"AC_NAME":"Palin","PC_NO":1,"PC_NAME":"ARUNACHAL WEST","district":"KRA DAADI"}},{"type":"Feature","geometry":{"type":"Polygon","coordinates":[[[94.8702,27.7333],[94.8949,27.8083],[94.5929,27.8901],[94.3182,27.7763],[94.2093,27.6077],[94.4987,27.5724],[94.6491,27.6395],[94.8702,27.7333]]]},"properties":{"AC_NO":28,"AC_NAME":"Likabali","PC_NO":1,"PC_NAME":"ARUNACHAL WEST","district":"LOWER SIANG"}},{"type":"Feature","geometry":{"type":"Polygon","coordinates":[[[95.9929,27.3978],[96.1787,27.4155],[96.2939,27.5335],[96.5794,27.4695],[96.7288,27.6454],[96.6999,27.6605],[96.3727,27.645],[96.2889,27.5555],[96.0965,27.6136],[95.8741,27.5469],[95.9929,27.3978]]]},"properties":{"AC_NO":49,"AC_NAME":"Bordumsa-Diyum","PC_NO":2,"PC_NAME":"ARUNACHAL EAST","district":"CH>NGL>NG"}},{"type":"Feature","geometry":{"type":"Polygon","coordinates":[[[92.7342,27.9767],[92.5621,27.8205],[92.4685,27.8147],[92.461,27.7821],[92.4694,27.7773],[92.6096,27.5553],[92.7905,27.554],[92.8038,27.4667],[93.0695,27.4925],[93.156,27.6477],[92.9793,27.7246],[92.8378,27.9606],[92.7342,27.9767]]]},"properties":{"AC_NO":8,"AC_NAME":"Bameng","PC_NO":1,"PC_NAME":"ARUNACHAL WEST","district":"EAST KAMENG"}},{"type":"Feature","geometry":{"type":"Polygon","coordinates":[[[96.7288,27.6454],[96.5794,27.4695],[96.2939,27.5335],[96.1787,27.4155],[96.3718,27.4253],[96.3987,27.2901],[96.6057,27.3658],[96.7985,27.344],[96.8599,27.1898],[97.062,27.0992],[97.1636,27.1422],[96.9624,27.4016],[96.8965,27.616],[96.7288,27.6454]]]},"properties":{"AC_NO":50,"AC_NAME":"Miao","PC_NO":2,"PC_NAME":"ARUNACHAL EAST","district":"CH>NGL>NG"}},{"type":"Feature","geometry":{"type":"Polygon","coordinates":[[[92.8378,27.9606],[92.9793,27.7246],[93.156,27.6477],[93.0695,27.4925],[93.1495,27.3856],[93.3704,27.4137],[93.2387,27.6148],[93.2288,27.8188],[92.9789,27.8237],[92.8378,27.9606]]]},"properties":{"AC_NO":9,"AC_NAME":"Chayangtajo","PC_NO":1,"PC_NAME":"ARUNACHAL WEST","district":"EAST KAMENG"}},{"type":"Feature","geometry":{"type":"Polygon","coordinates":[[[95.8741,27.5469],[96.0965,27.6136],[96.087,27.6195],[95.9739,27.659],[95.7884,27.6337],[95.8741,27.5469]]]},"properties":{"AC_NO":48,"AC_NAME":"Lekang","PC_NO":2,"PC_NAME":"ARUNACHAL EAST","district":"NAMSAI"}},{"type":"Feature","geometry":{"type":"Polygon","coordinates":[[[92.4685,27.8147],[92.2658,27.8576],[91.9973,27.7682],[91.9629,27.5403],[91.8616,27.5307],[91.8211,27.4695],[92.0126,27.4814],[92.2222,27.6273],[92.3934,27.6727],[92.461,27.7821],[92.4685,27.8147]]]},"properties":{"AC_NO":3,"AC_NAME":"Mukto","PC_NO":1,"PC_NAME":"ARUNACHAL WEST","district":"TAWANG"}},{"type":"Feature","geometry":{"type":"Polygon","coordinates":[[[93.5147,27.6502],[93.6177,27.5322],[93.6003,27.3676],[93.831,27.4008],[93.8892,27.4914],[93.8221,27.6255],[93.9837,27.6334],[93.9238,27.7289],[93.7751,27.6627],[93.5387,27.6546],[93.5147,27.6502]]]},"properties":{"AC_NO":16,"AC_NAME":"Yachuli","PC_NO":1,"PC_NAME":"ARUNACHAL WEST","district":"KEYI PANYOR"}},{"type":"Feature","geometry":{"type":"Polygon","coordinates":[[[91.8616,27.5307],[91.7397,27.6632],[91.7308,27.8084],[91.6305,27.8008],[91.5641,27.5841],[91.655,27.4828],[91.8211,27.4695],[91.8616,27.5307]]]},"properties":{"AC_NO":1,"AC_NAME":"Lumla","PC_NO":1,"PC_NAME":"ARUNACHAL WEST","district":"TAWANG"}},{"type":"Feature","geometry":{"type":"Polygon","coordinates":[[[92.461,27.7821],[92.3934,27.6727],[92.2222,27.6273],[92.0126,27.4814],[92.1206,27.2796],[92.4422,27.2783],[92.3777,27.4752],[92.4694,27.7773],[92.461,27.7821]]]},"properties":{"AC_NO":4,"AC_NAME":"Dirang","PC_NO":1,"PC_NAME":"ARUNACHAL WEST","district":"WEST KAMENG"}},{"type":"Feature","geometry":{"type":"Polygon","coordinates":[[[92.4694,27.7773],[92.3777,27.4752],[92.4422,27.2783],[92.4651,27.1146],[92.5803,27.2308],[92.5266,27.3239],[92.806,27.442],[92.8038,27.4667],[92.7905,27.554],[92.6096,27.5553],[92.4694,27.7773]]]},"properties":{"AC_NO":7,"AC_NAME":"Bomdila","PC_NO":1,"PC_NAME":"ARUNACHAL WEST","district":"BICHOM"}},{"type":"Feature","geometry":{"type":"Polygon","coordinates":[[[91.9973,27.7682],[91.8806,27.7217],[91.7308,27.8084],[91.7397,27.6632],[91.8616,27.5307],[91.9629,27.5403],[91.9973,27.7682]]]},"properties":{"AC_NO":2,"AC_NAME":"Tawang","PC_NO":1,"PC_NAME":"ARUNACHAL WEST","district":"TAWANG"}},{"type":"Feature","geometry":{"type":"Polygon","coordinates":[[[93.9837,27.6334],[93.8221,27.6255],[93.8892,27.4914],[94.0435,27.4995],[93.9837,27.6334]]]},"properties":{"AC_NO":17,"AC_NAME":"Ziro-Hapoli","PC_NO":1,"PC_NAME":"ARUNACHAL WEST","district":"KAMLE"}},{"type":"Feature","geometry":{"type":"Polygon","coordinates":[[[95.8239,27.2793],[95.9058,27.1057],[96.0537,27.1957],[96.3062,27.2941],[96.3987,27.2901],[96.3718,27.4253],[96.1787,27.4155],[95.9929,27.3978],[95.8239,27.2793]]]},"properties":{"AC_NO":51,"AC_NAME":"Nampong","PC_NO":2,"PC_NAME":"ARUNACHAL EAST","district":"CH>NGL>NG"}},{"type":"Feature","geometry":{"type":"Polygon","coordinates":[[[93.2387,27.6148],[93.3704,27.4137],[93.3183,27.3493],[93.2257,27.2519],[93.2958,27.1647],[93.5219,27.1493],[93.7037,27.2112],[93.831,27.4008],[93.6003,27.3676],[93.6177,27.5322],[93.5147,27.6502],[93.3293,27.6697],[93.2387,27.6148]]]},"properties":{"AC_NO":15,"AC_NAME":"Sagalee","PC_NO":1,"PC_NAME":"ARUNACHAL WEST","district":"PAPUMPARE"}},{"type":"Feature","geometry":{"type":"Polygon","coordinates":[[[94.2213,27.5036],[94.0435,27.4995],[93.8892,27.4914],[93.831,27.4008],[93.7037,27.2112],[93.7635,27.0918],[93.6198,27.0576],[93.5219,27.1493],[93.2958,27.1647],[93.3986,26.9572],[93.4862,26.9417],[93.6981,26.9943],[93.8359,27.104],[93.806,27.1516],[94.081,27.3964],[94.2213,27.5036]]]},"properties":{"AC_NO":14,"AC_NAME":"Doimukh","PC_NO":1,"PC_NAME":"ARUNACHAL WEST","district":"PAPUMPARE"}},{"type":"Feature","geometry":{"type":"Polygon","coordinates":[[[95.6338,27.2305],[95.6602,27.1226],[95.6493,27.0739],[95.7952,27.1352],[95.9058,27.1057],[95.8239,27.2793],[95.6338,27.2305]]]},"properties":{"AC_NO":53,"AC_NAME":"Changlang North","PC_NO":2,"PC_NAME":"ARUNACHAL EAST","district":"CH>NGL>NG"}},{"type":"Feature","geometry":{"type":"Polygon","coordinates":[[[92.8038,27.4667],[92.806,27.442],[92.8208,27.4126],[93.2136,27.3115],[93.3183,27.3493],[93.3704,27.4137],[93.1495,27.3856],[93.0695,27.4925],[92.8038,27.4667]]]},"properties":{"AC_NO":10,"AC_NAME":"Seppa East","PC_NO":1,"PC_NAME":"ARUNACHAL WEST","district":"EAST KAMENG"}},{"type":"Feature","geometry":{"type":"Polygon","coordinates":[[[95.9058,27.1057],[95.7952,27.1352],[95.6493,27.0739],[95.6778,26.8986],[95.8023,27.0151],[95.9457,27.0514],[96.0537,27.1957],[95.9058,27.1057]]]},"properties":{"AC_NO":52,"AC_NAME":"Changlang South","PC_NO":2,"PC_NAME":"ARUNACHAL EAST","district":"CH>NGL>NG"}},{"type":"Feature","geometry":{"type":"Polygon","coordinates":[[[92.8208,27.4126],[92.8431,27.2901],[93.0231,27.1199],[93.2136,27.3115],[92.8208,27.4126]]]},"properties":{"AC_NO":11,"AC_NAME":"Seppa West","PC_NO":1,"PC_NAME":"ARUNACHAL WEST","district":"PAKKE KESSANG"}},{"type":"Feature","geometry":{"type":"Polygon","coordinates":[[[95.5956,27.2232],[95.4879,27.2431],[95.368,27.1071],[95.3435,27.0966],[95.3733,27.0712],[95.5379,27.0771],[95.6602,27.1226],[95.6338,27.2305],[95.5956,27.2232]]]},"properties":{"AC_NO":54,"AC_NAME":"Namsang","PC_NO":2,"PC_NAME":"ARUNACHAL EAST","district":"TIR>P"}},{"type":"Feature","geometry":{"type":"Polygon","coordinates":[[[92.6464,27.0146],[92.608,27.1403],[92.8366,27.2325],[92.8431,27.2901],[92.8208,27.4126],[92.806,27.442],[92.5266,27.3239],[92.5803,27.2308],[92.4651,27.1146],[92.4643,26.9607],[92.6115,26.972],[92.6464,27.0146]]]},"properties":{"AC_NO":6,"AC_NAME":"Thrizino-Buragaon","PC_NO":1,"PC_NAME":"ARUNACHAL WEST","district":"WEST KAMENG"}},{"type":"Feature","geometry":{"type":"Polygon","coordinates":[[[92.9791,26.9376],[93.1568,26.9334],[93.3986,26.9572],[93.2958,27.1647],[93.2257,27.2519],[93.3183,27.3493],[93.2136,27.3115],[93.0231,27.1199],[92.8431,27.2901],[92.8366,27.2325],[92.608,27.1403],[92.6464,27.0146],[92.7697,27.0332],[92.9791,26.9376]]]},"properties":{"AC_NO":12,"AC_NAME":"Pakke-Kasang","PC_NO":1,"PC_NAME":"ARUNACHAL WEST","district":"PAKKE KESSANG"}},{"type":"Feature","geometry":{"type":"Polygon","coordinates":[[[95.6602,27.1226],[95.5379,27.0771],[95.5049,26.9874],[95.6493,26.8863],[95.6778,26.8986],[95.6493,27.0739],[95.6602,27.1226]]]},"properties":{"AC_NO":55,"AC_NAME":"Khonsa East","PC_NO":2,"PC_NAME":"ARUNACHAL EAST","district":"TIR>P"}},{"type":"Feature","geometry":{"type":"Polygon","coordinates":[[[95.2285,26.8921],[95.3924,26.9272],[95.3733,27.0712],[95.3435,27.0966],[95.1946,27.0317],[95.2285,26.8921]]]},"properties":{"AC_NO":58,"AC_NAME":"Kanubari","PC_NO":2,"PC_NAME":"ARUNACHAL EAST","district":"LONGDING"}},{"type":"Feature","geometry":{"type":"Polygon","coordinates":[[[95.3733,27.0712],[95.3924,26.9272],[95.4042,26.9091],[95.5049,26.9874],[95.5379,27.0771],[95.3733,27.0712]]]},"properties":{"AC_NO":57,"AC_NAME":"Borduria- Bagapani","PC_NO":2,"PC_NAME":"ARUNACHAL EAST","district":"TIR>P"}},{"type":"Feature","geometry":{"type":"Polygon","coordinates":[[[93.5219,27.1493],[93.6198,27.0576],[93.7635,27.0918],[93.7037,27.2112],[93.5219,27.1493]]]},"properties":{"AC_NO":13,"AC_NAME":"Itanagar","PC_NO":1,"PC_NAME":"ARUNACHAL WEST","district":"PAPUMPARE"}},{"type":"Feature","geometry":{"type":"Polygon","coordinates":[[[92.4643,26.9607],[92.4651,27.1146],[92.4422,27.2783],[92.1206,27.2796],[92.0285,27.078],[92.1082,26.8931],[92.3649,26.9324],[92.4643,26.9607]]]},"properties":{"AC_NO":5,"AC_NAME":"Kalaktang","PC_NO":1,"PC_NAME":"ARUNACHAL WEST","district":"WEST KAMENG"}},{"type":"Feature","geometry":{"type":"Polygon","coordinates":[[[95.5049,26.9874],[95.4042,26.9091],[95.4545,26.8702],[95.53,26.8263],[95.6493,26.8863],[95.5049,26.9874]]]},"properties":{"AC_NO":56,"AC_NAME":"Khonsa West","PC_NO":2,"PC_NAME":"ARUNACHAL EAST","district":"TIR>P"}},{"type":"Feature","geometry":{"type":"Polygon","coordinates":[[[95.2232,26.7596],[95.2176,26.7559],[95.3754,26.7632],[95.4545,26.8702],[95.4042,26.9091],[95.3924,26.9272],[95.2285,26.8921],[95.2232,26.7596]]]},"properties":{"AC_NO":59,"AC_NAME":"Longding-Pumao","PC_NO":2,"PC_NAME":"ARUNACHAL EAST","district":"LONGDING"}},{"type":"Feature","geometry":{"type":"Polygon","coordinates":[[[95.2099,26.7287],[95.2339,26.6825],[95.431,26.7005],[95.53,26.8263],[95.4545,26.8702],[95.3754,26.7632],[95.2176,26.7559],[95.2099,26.7287]]]},"properties":{"AC_NO":60,"AC_NAME":"Pongchou-Wakka","PC_NO":2,"PC_NAME":"ARUNACHAL EAST","district":"LONGDING"}}]}