{"type":"FeatureCollection", "features": [
{"type":"Feature","geometry":{"type":"Polygon","coordinates":[[[95.2678,29.0561],[95.37,28.7169],[95.3781,28.6032],[95.3379,28.3658],[95.3832,28.3121],[95.563,28.2573],[95.5673,27.9348],[95.971,27.9613],[96.0261,28.1356],[95.7889,28.0836],[95.6981,28.2336],[95.8395,28.4356],[96.1829,28.4066],[96.326,28.5241],[96.5849,28.717],[96.5185,28.9672],[96.3467,29.029],[96.2482,28.9395],[96.1507,29.0503],[96.2442,29.2326],[96.0887,29.46],[95.8823,29.39],[95.5871,29.2164],[95.4111,29.0324],[95.2678,29.0561]]]},"properties":{"district":"DIB>NG VALLEY"}},
{"type":"Feature","geometry":{"type":"Polygon","coordinates":[[[95.2678,29.0561],[94.8,29.2094],[94.6441,29.3468],[94.5603,29.2286],[94.4337,29.2267],[94.1873,29.0388],[94.3427,28.9839],[94.5351,28.8107],[94.7455,28.6864],[94.7588,28.534],[94.8196,28.5681],[95.0841,28.5267],[95.1097,28.4601],[95.1368,28.2045],[95.2695,28.1964],[95.3832,28.3121],[95.3379,28.3658],[95.3781,28.6032],[95.37,28.7169],[95.2678,29.0561]]]},"properties":{"district":"UPPER SIANG"}},
{"type":"Feature","geometry":{"type":"Polygon","coordinates":[[[94.1873,29.0388],[93.997,28.8409],[93.9621,28.7124],[94.0592,28.5488],[94.4016,28.3385],[94.4471,28.4152],[94.4792,28.7101],[94.5351,28.8107],[94.3427,28.9839],[94.1873,29.0388]]]},"properties":{"district":"SHI YOMI"}},
{"type":"Feature","geometry":{"type":"Polygon","coordinates":[[[94.5351,28.8107],[94.4792,28.7101],[94.4471,28.4152],[94.731,28.2481],[94.7562,28.2207],[94.8989,28.2145],[94.9174,28.0607],[95.0546,28.0016],[95.0999,28.0688],[95.1368,28.2045],[95.1097,28.4601],[95.0841,28.5267],[94.8196,28.5681],[94.7588,28.534],[94.7455,28.6864],[94.5351,28.8107]]]},"properties":{"district":"SIANG"}},
{"type":"Feature","geometry":{"type":"Polygon","coordinates":[[[95.8395,28.4356],[95.6981,28.2336],[95.7889,28.0836],[96.0261,28.1356],[96.2154,28.231],[96.304,28.374],[96.3137,28.3835],[96.326,28.5241],[96.1829,28.4066],[95.8395,28.4356]]]},"properties":{"district":"LOWER DIB>NG VALLEY"}},
{"type":"Feature","geometry":{"type":"Polygon","coordinates":[[[93.9621,28.7124],[93.6221,28.6573],[93.3392,28.6399],[93.183,28.4324],[93.2216,28.335],[93.3369,28.3534],[93.464,28.2731],[93.6799,28.322],[93.8235,28.2465],[93.8546,28.0813],[94.0155,27.9553],[94.018,27.9548],[94.2328,27.9684],[94.239,27.8094],[94.3182,27.7763],[94.5929,27.8901],[94.4543,28.0544],[94.3649,28.2073],[94.4016,28.3385],[94.0592,28.5488],[93.9621,28.7124]]]},"properties":{"district":"UPPER SUBANSIRI"}},
{"type":"Feature","geometry":{"type":"Polygon","coordinates":[[[96.304,28.374],[96.3355,28.1851],[96.273,28.0913],[96.4309,27.914],[96.6285,27.7955],[96.6999,27.6605],[96.7288,27.6454],[96.8965,27.616],[97.2527,27.901],[97.3747,27.9091],[97.3949,28.0255],[97.2791,28.2687],[97.0901,28.3629],[96.994,28.3095],[96.6628,28.4603],[96.3137,28.3835],[96.304,28.374]]]},"properties":{"district":">NJ>W"}},
{"type":"Feature","geometry":{"type":"Polygon","coordinates":[[[95.971,27.9613],[95.887,27.8532],[95.9948,27.8445],[96.1673,27.8622],[96.3195,27.8144],[96.6285,27.7955],[96.4309,27.914],[96.273,28.0913],[96.3355,28.1851],[96.304,28.374],[96.2154,28.231],[96.0261,28.1356],[95.971,27.9613]]]},"properties":{"district":"LOHIT"}},
{"type":"Feature","geometry":{"type":"Polygon","coordinates":[[[94.4016,28.3385],[94.3649,28.2073],[94.4543,28.0544],[94.6774,28.1205],[94.7765,28.0508],[94.9174,28.0607],[94.8989,28.2145],[94.7562,28.2207],[94.731,28.2481],[94.4471,28.4152],[94.4016,28.3385]]]},"properties":{"district":"WEST SIANG"}},
{"type":"Feature","geometry":{"type":"Polygon","coordinates":[[[95.2695,28.1964],[95.1368,28.2045],[95.0999,28.0688],[95.0546,28.0016],[95.1024,27.8049],[95.309,27.868],[95.4718,27.8672],[95.5141,27.8794],[95.5673,27.9348],[95.563,28.2573],[95.3832,28.3121],[95.2695,28.1964]]]},"properties":{"district":"EAST SIANG"}},
{"type":"Feature","geometry":{"type":"Polygon","coordinates":[[[93.2216,28.335],[93.0255,28.3028],[92.818,28.2012],[92.6629,28.0673],[92.7342,27.9767],[92.8378,27.9606],[92.9789,27.8237],[93.2288,27.8188],[93.2387,27.6148],[93.3293,27.6697],[93.5147,27.6502],[93.5387,27.6546],[93.6081,27.9649],[93.6059,28.0129],[93.464,28.2731],[93.3369,28.3534],[93.2216,28.335]]]},"properties":{"district":"KURUNG KUMEY"}},
{"type":"Feature","geometry":{"type":"Polygon","coordinates":[[[93.464,28.2731],[93.6059,28.0129],[93.6081,27.9649],[93.5387,27.6546],[93.7751,27.6627],[93.9238,27.7289],[93.9257,27.8711],[94.0155,27.9553],[93.8546,28.0813],[93.8235,28.2465],[93.6799,28.322],[93.464,28.2731]]]},"properties":{"district":"KRA DAADI"}},
{"type":"Feature","geometry":{"type":"Polygon","coordinates":[[[94.4543,28.0544],[94.5929,27.8901],[94.8949,27.8083],[94.957,27.9809],[94.9174,28.0607],[94.7765,28.0508],[94.6774,28.1205],[94.4543,28.0544]]]},"properties":{"district":"LEPA RADA"}},
{"type":"Feature","geometry":{"type":"Polygon","coordinates":[[[94.9174,28.0607],[94.957,27.9809],[94.8949,27.8083],[94.5929,27.8901],[94.3182,27.7763],[94.2093,27.6077],[94.4987,27.5724],[94.6491,27.6395],[94.8702,27.7333],[95.1024,27.8049],[95.0546,28.0016],[94.9174,28.0607]]]},"properties":{"district":"LOWER SIANG"}},
{"type":"Feature","geometry":{"type":"Polygon","coordinates":[[[96.6285,27.7955],[96.3195,27.8144],[96.1673,27.8622],[95.9948,27.8445],[95.887,27.8532],[95.7758,27.7535],[95.7738,27.6517],[95.7884,27.6337],[95.8741,27.5469],[96.0965,27.6136],[96.2889,27.5555],[96.3727,27.645],[96.6999,27.6605],[96.6285,27.7955]]]},"properties":{"district":"NAMSAI"}},
{"type":"Feature","geometry":{"type":"Polygon","coordinates":[[[93.9257,27.8711],[93.9238,27.7289],[93.9837,27.6334],[93.8221,27.6255],[93.8892,27.4914],[94.0435,27.4995],[94.2213,27.5036],[94.2677,27.5209],[94.2093,27.6077],[94.3182,27.7763],[94.239,27.8094],[94.2328,27.9684],[94.018,27.9548],[94.0155,27.9553],[93.9257,27.8711]]]},"properties":{"district":"KAMLE"}},
{"type":"Feature","geometry":{"type":"Polygon","coordinates":[[[96.6999,27.6605],[96.3727,27.645],[96.2889,27.5555],[96.0965,27.6136],[95.8741,27.5469],[95.9929,27.3978],[95.8239,27.2793],[95.6338,27.2305],[95.6602,27.1226],[95.6493,27.0739],[95.6778,26.8986],[95.8023,27.0151],[95.9457,27.0514],[96.0537,27.1957],[96.3062,27.2941],[96.3987,27.2901],[96.6057,27.3658],[96.7985,27.344],[96.8599,27.1898],[97.062,27.0992],[97.1636,27.1422],[96.9624,27.4016],[96.8965,27.616],[96.7288,27.6454],[96.6999,27.6605]]]},"properties":{"district":"CH>NGL>NG"}},
{"type":"Feature","geometry":{"type":"Polygon","coordinates":[[[92.7342,27.9767],[92.5621,27.8205],[92.4685,27.8147],[92.461,27.7821],[92.4694,27.7773],[92.6096,27.5553],[92.7905,27.554],[92.8038,27.4667],[92.806,27.442],[92.8208,27.4126],[93.2136,27.3115],[93.3183,27.3493],[93.3704,27.4137],[93.2387,27.6148],[93.2288,27.8188],[92.9789,27.8237],[92.8378,27.9606],[92.7342,27.9767]]]},"properties":{"district":"EAST KAMENG"}},
{"type":"Feature","geometry":{"type":"Polygon","coordinates":[[[92.4685,27.8147],[92.2658,27.8576],[91.9973,27.7682],[91.8806,27.7217],[91.7308,27.8084],[91.6305,27.8008],[91.5641,27.5841],[91.655,27.4828],[91.8211,27.4695],[92.0126,27.4814],[92.2222,27.6273],[92.3934,27.6727],[92.461,27.7821],[92.4685,27.8147]]]},"properties":{"district":"TAWANG"}},
{"type":"Feature","geometry":{"type":"Polygon","coordinates":[[[93.9238,27.7289],[93.7751,27.6627],[93.5387,27.6546],[93.5147,27.6502],[93.6177,27.5322],[93.6003,27.3676],[93.831,27.4008],[93.8892,27.4914],[93.8221,27.6255],[93.9837,27.6334],[93.9238,27.7289]]]},"properties":{"district":"KEYI PANYOR"}},
{"type":"Feature","geometry":{"type":"Polygon","coordinates":[[[92.461,27.7821],[92.3934,27.6727],[92.2222,27.6273],[92.0126,27.4814],[92.1206,27.2796],[92.0285,27.078],[92.1082,26.8931],[92.3649,26.9324],[92.4643,26.9607],[92.6115,26.972],[92.6464,27.0146],[92.608,27.1403],[92.8366,27.2325],[92.8431,27.2901],[92.8208,27.4126],[92.806,27.442],[92.5266,27.3239],[92.5803,27.2308],[92.4651,27.1146],[92.4422,27.2783],[92.3777,27.4752],[92.4694,27.7773],[92.461,27.7821]]]},"properties":{"district":"WEST KAMENG"}},
{"type":"Feature","geometry":{"type":"Polygon","coordinates":[[[92.4694,27.7773],[92.3777,27.4752],[92.4422,27.2783],[92.4651,27.1146],[92.5803,27.2308],[92.5266,27.3239],[92.806,27.442],[92.8038,27.4667],[92.7905,27.554],[92.6096,27.5553],[92.4694,27.7773]]]},"properties":{"district":"BICHOM"}},
{"type":"Feature","geometry":{"type":"Polygon","coordinates":[[[93.2387,27.6148],[93.3704,27.4137],[93.3183,27.3493],[93.2257,27.2519],[93.2958,27.1647],[93.3986,26.9572],[93.4862,26.9417],[93.6981,26.9943],[93.8359,27.104],[93.806,27.1516],[94.081,27.3964],[94.2213,27.5036],[94.0435,27.4995],[93.8892,27.4914],[93.831,27.4008],[93.6003,27.3676],[93.6177,27.5322],[93.5147,27.6502],[93.3293,27.6697],[93.2387,27.6148]]]},"properties":{"district":"PAPUMPARE"}},
{"type":"Feature","geometry":{"type":"Polygon","coordinates":[[[92.8208,27.4126],[92.8431,27.2901],[92.8366,27.2325],[92.608,27.1403],[92.6464,27.0146],[92.7697,27.0332],[92.9791,26.9376],[93.1568,26.9334],[93.3986,26.9572],[93.2958,27.1647],[93.2257,27.2519],[93.3183,27.3493],[93.2136,27.3115],[92.8208,27.4126]]]},"properties":{"district":"PAKKE KESSANG"}},
{"type":"Feature","geometry":{"type":"Polygon","coordinates":[[[95.6338,27.2305],[95.5956,27.2232],[95.4879,27.2431],[95.368,27.1071],[95.3435,27.0966],[95.3733,27.0712],[95.3924,26.9272],[95.4042,26.9091],[95.4545,26.8702],[95.53,26.8263],[95.6493,26.8863],[95.6778,26.8986],[95.6493,27.0739],[95.6602,27.1226],[95.6338,27.2305]]]},"properties":{"district":"TIR>P"}},
{"type":"Feature","geometry":{"type":"Polygon","coordinates":[[[95.3435,27.0966],[95.1946,27.0317],[95.2285,26.8921],[95.2232,26.7596],[95.2176,26.7559],[95.2099,26.7287],[95.2339,26.6825],[95.431,26.7005],[95.53,26.8263],[95.4545,26.8702],[95.4042,26.9091],[95.3924,26.9272],[95.3733,27.0712],[95.3435,27.0966]]]},"properties":{"district":"LONGDING"}}
]}