{"type":"FeatureCollection", "features": [
{"type":"Feature","geometry":{"type":"Polygon","coordinates":[[[75.936,32.3977],[75.832,32.5101],[75.6873,32.3909],[75.636,32.381],[75.6352,32.3807],[75.6325,32.38],[75.5395,32.2951],[75.6997,32.3109],[75.704,32.2673],[75.7526,32.2799],[75.8713,32.3946],[75.936,32.3977]]]},"properties":{"OBJECTID":1,"ST_CODE":3,"ST_NAME":"PUNJAB","DT_CODE":1,"DIST_NAME":"GURDASPUR","AC_NO":1,"AC_NAME":"Sujanpur","PC_NO":1,"PC_NAME":"GURDASPUR","PC_ID":301,"STATUS":"","Shape_Leng":1.30920004249,"Shape_Area":0.04054557294}},
{"type":"Feature","geometry":{"type":"Polygon","coordinates":[[[75.3732,32.3356],[75.3384,32.3421],[75.327,32.214],[75.4422,32.1669],[75.4379,32.159],[75.4808,32.1599],[75.5854,32.1411],[75.5941,32.2693],[75.6997,32.3109],[75.5395,32.2951],[75.3758,32.3356],[75.3755,32.3363],[75.3755,32.3364],[75.374,32.3373],[75.3734,32.3366],[75.3732,32.3356]]]},"properties":{"OBJECTID":1,"ST_CODE":3,"ST_NAME":"PUNJAB","DT_CODE":1,"DIST_NAME":"GURDASPUR","AC_NO":2,"AC_NAME":"Bhoa (SC)","PC_NO":1,"PC_NAME":"GURDASPUR","PC_ID":301,"STATUS":"","Shape_Leng":1.61779246839,"Shape_Area":0.0369533958}},
{"type":"Feature","geometry":{"type":"Polygon","coordinates":[[[75.6997,32.3109],[75.5941,32.2693],[75.5854,32.1411],[75.6025,32.0867],[75.6726,32.1589],[75.704,32.2673],[75.6997,32.3109]]]},"properties":{"OBJECTID":1,"ST_CODE":3,"ST_NAME":"PUNJAB","DT_CODE":1,"DIST_NAME":"GURDASPUR","AC_NO":3,"AC_NAME":"Pathankot","PC_NO":1,"PC_NAME":"GURDASPUR","PC_ID":301,"STATUS":"","Shape_Leng":0.8768383345,"Shape_Area":0.01343922866}},
{"type":"Feature","geometry":{"type":"Polygon","coordinates":[[[75.327,32.214],[75.2408,32.0922],[75.2619,32.0792],[75.4099,32.0798],[75.4827,31.9589],[75.5342,31.9603],[75.5963,32.086],[75.6025,32.0867],[75.5854,32.1411],[75.4808,32.1599],[75.4379,32.159],[75.4422,32.1669],[75.327,32.214]]]},"properties":{"OBJECTID":1,"ST_CODE":3,"ST_NAME":"PUNJAB","DT_CODE":1,"DIST_NAME":"GURDASPUR","AC_NO":5,"AC_NAME":"Dina Nagar (SC)","PC_NO":1,"PC_NAME":"GURDASPUR","PC_ID":301,"STATUS":"","Shape_Leng":1.45942754937,"Shape_Area":0.03876255137}},
{"type":"Feature","geometry":{"type":"Polygon","coordinates":[[[75.2408,32.0922],[74.9828,32.0402],[74.9083,32.0515],[74.8894,31.9315],[74.9187,31.8873],[75.0053,31.9312],[75.1415,31.9192],[75.2927,31.8447],[75.3894,31.8368],[75.2996,31.9312],[75.2619,32.0792],[75.2408,32.0922]]]},"properties":{"OBJECTID":1,"ST_CODE":3,"ST_NAME":"PUNJAB","DT_CODE":1,"DIST_NAME":"GURDASPUR","AC_NO":10,"AC_NAME":"Dera Baba Nanak","PC_NO":1,"PC_NAME":"GURDASPUR","PC_ID":301,"STATUS":"","Shape_Leng":2.11087732856,"Shape_Area":0.06182341067}},
{"type":"Feature","geometry":{"type":"Polygon","coordinates":[[[75.2619,32.0792],[75.2996,31.9312],[75.4827,31.9589],[75.4099,32.0798],[75.2619,32.0792]]]},"properties":{"OBJECTID":1,"ST_CODE":3,"ST_NAME":"PUNJAB","DT_CODE":1,"DIST_NAME":"GURDASPUR","AC_NO":4,"AC_NAME":"Gurdaspur","PC_NO":1,"PC_NAME":"GURDASPUR","PC_ID":301,"STATUS":"","Shape_Leng":1.23917977267,"Shape_Area":0.03103989785}},
{"type":"Feature","geometry":{"type":"Polygon","coordinates":[[[75.7429,32.0395],[75.5963,32.086],[75.5342,31.9603],[75.5509,31.8905],[75.7131,31.8976],[75.9151,31.9319],[75.9148,31.9325],[75.9009,31.9549],[75.8999,31.9559],[75.7429,32.0395]]]},"properties":{"OBJECTID":5,"ST_CODE":3,"ST_NAME":"PUNJAB","DT_CODE":5,"DIST_NAME":"HOSHIARPUR","AC_NO":39,"AC_NAME":"Mukerian","PC_NO":5,"PC_NAME":"HOSHIARPUR (SC)","PC_ID":305,"STATUS":"","Shape_Leng":1.36493547076,"Shape_Area":0.04013019765}},
{"type":"Feature","geometry":{"type":"Polygon","coordinates":[[[74.9083,32.0515],[74.8189,31.9587],[74.6346,31.8843],[74.8845,31.7599],[74.9619,31.841],[74.9187,31.8873],[74.8894,31.9315],[74.9083,32.0515]]]},"properties":{"OBJECTID":2,"ST_CODE":3,"ST_NAME":"PUNJAB","DT_CODE":2,"DIST_NAME":"AMRITSAR","AC_NO":11,"AC_NAME":"Ajnala","PC_NO":2,"PC_NAME":"AMRITSAR","PC_ID":302,"STATUS":"","Shape_Leng":1.55099026548,"Shape_Area":0.04905608168}},
{"type":"Feature","geometry":{"type":"Polygon","coordinates":[[[74.9187,31.8873],[74.9619,31.841],[75.2013,31.7278],[75.2332,31.7701],[75.2927,31.8447],[75.1415,31.9192],[75.0053,31.9312],[74.9187,31.8873]]]},"properties":{"OBJECTID":1,"ST_CODE":3,"ST_NAME":"PUNJAB","DT_CODE":1,"DIST_NAME":"GURDASPUR","AC_NO":9,"AC_NAME":"Fatehgarh Churian","PC_NO":1,"PC_NAME":"GURDASPUR","PC_ID":301,"STATUS":"","Shape_Leng":1.58457857596,"Shape_Area":0.03556027382}},
{"type":"Feature","geometry":{"type":"Polygon","coordinates":[[[75.4827,31.9589],[75.2996,31.9312],[75.3894,31.8368],[75.4299,31.7974],[75.5352,31.7719],[75.5509,31.8905],[75.5342,31.9603],[75.4827,31.9589]]]},"properties":{"OBJECTID":1,"ST_CODE":3,"ST_NAME":"PUNJAB","DT_CODE":1,"DIST_NAME":"GURDASPUR","AC_NO":6,"AC_NAME":"Qadian","PC_NO":1,"PC_NAME":"GURDASPUR","PC_ID":301,"STATUS":"","Shape_Leng":1.22062046661,"Shape_Area":0.02701670869}},
{"type":"Feature","geometry":{"type":"Polygon","coordinates":[[[75.9151,31.9319],[75.7131,31.8976],[75.5509,31.8905],[75.5352,31.7719],[75.5398,31.7468],[75.6771,31.7611],[75.7513,31.8197],[75.8755,31.8331],[75.9354,31.8157],[75.9593,31.8575],[75.9154,31.9314],[75.9151,31.9319]]]},"properties":{"OBJECTID":5,"ST_CODE":3,"ST_NAME":"PUNJAB","DT_CODE":5,"DIST_NAME":"HOSHIARPUR","AC_NO":40,"AC_NAME":"Dasuya","PC_NO":5,"PC_NAME":"HOSHIARPUR (SC)","PC_ID":305,"STATUS":"","Shape_Leng":1.75184136851,"Shape_Area":0.04848212283}},
{"type":"Feature","geometry":{"type":"Polygon","coordinates":[[[74.6346,31.8843],[74.5706,31.837],[74.5019,31.6956],[74.5448,31.6484],[74.7353,31.6317],[74.8707,31.7444],[74.8845,31.7599],[74.6346,31.8843]]]},"properties":{"OBJECTID":2,"ST_CODE":3,"ST_NAME":"PUNJAB","DT_CODE":2,"DIST_NAME":"AMRITSAR","AC_NO":12,"AC_NAME":"Raja Sansi","PC_NO":2,"PC_NAME":"AMRITSAR","PC_ID":302,"STATUS":"","Shape_Leng":1.52112174611,"Shape_Area":0.05406975476}},
{"type":"Feature","geometry":{"type":"Polygon","coordinates":[[[74.9619,31.841],[74.8845,31.7599],[74.8707,31.7444],[75.0323,31.6913],[75.1549,31.642],[75.2609,31.6925],[75.2013,31.7278],[74.9619,31.841]]]},"properties":{"OBJECTID":2,"ST_CODE":3,"ST_NAME":"PUNJAB","DT_CODE":2,"DIST_NAME":"AMRITSAR","AC_NO":13,"AC_NAME":"Majitha","PC_NO":2,"PC_NAME":"AMRITSAR","PC_ID":302,"STATUS":"","Shape_Leng":1.27197582255,"Shape_Area":0.034539885}},
{"type":"Feature","geometry":{"type":"Polygon","coordinates":[[[75.2927,31.8447],[75.2332,31.7701],[75.4299,31.7974],[75.3894,31.8368],[75.2927,31.8447]]]},"properties":{"OBJECTID":1,"ST_CODE":3,"ST_NAME":"PUNJAB","DT_CODE":1,"DIST_NAME":"GURDASPUR","AC_NO":7,"AC_NAME":"Batala","PC_NO":1,"PC_NAME":"GURDASPUR","PC_ID":301,"STATUS":"","Shape_Leng":0.94665200694,"Shape_Area":0.01521404902}},
{"type":"Feature","geometry":{"type":"Polygon","coordinates":[[[75.8755,31.8331],[75.7513,31.8197],[75.6771,31.7611],[75.5398,31.7468],[75.4746,31.6499],[75.5943,31.6032],[75.6817,31.5902],[75.7832,31.7403],[75.8755,31.8331]]]},"properties":{"OBJECTID":5,"ST_CODE":3,"ST_NAME":"PUNJAB","DT_CODE":5,"DIST_NAME":"HOSHIARPUR","AC_NO":41,"AC_NAME":"Urmar","PC_NO":5,"PC_NAME":"HOSHIARPUR (SC)","PC_ID":305,"STATUS":"","Shape_Leng":1.71017119599,"Shape_Area":0.04614268983}},
{"type":"Feature","geometry":{"type":"Polygon","coordinates":[[[75.4299,31.7974],[75.2332,31.7701],[75.2013,31.7278],[75.2609,31.6925],[75.302,31.6527],[75.4044,31.5937],[75.4746,31.6499],[75.5398,31.7468],[75.5352,31.7719],[75.4299,31.7974]]]},"properties":{"OBJECTID":5,"ST_CODE":3,"ST_NAME":"PUNJAB","DT_CODE":1,"DIST_NAME":"GURDASPUR","AC_NO":8,"AC_NAME":"Sri Hargobindpur (S","PC_NO":5,"PC_NAME":"HOSHIARPUR (SC)","PC_ID":305,"STATUS":"","Shape_Leng":1.19229811644,"Shape_Area":0.03935404012}},
{"type":"Feature","geometry":{"type":"Polygon","coordinates":[[[75.9354,31.8157],[75.8755,31.8331],[75.7832,31.7403],[75.6817,31.5902],[75.7168,31.5202],[75.816,31.4312],[75.8685,31.4851],[75.882,31.5482],[76.0005,31.6838],[75.9354,31.8157]]]},"properties":{"OBJECTID":5,"ST_CODE":3,"ST_NAME":"PUNJAB","DT_CODE":5,"DIST_NAME":"HOSHIARPUR","AC_NO":42,"AC_NAME":"Sham Chaurasi (SC)","PC_NO":5,"PC_NAME":"HOSHIARPUR (SC)","PC_ID":305,"STATUS":"","Shape_Leng":1.52308352369,"Shape_Area":0.06309265344}},
{"type":"Feature","geometry":{"type":"Polygon","coordinates":[[[74.8707,31.7444],[74.7353,31.6317],[74.5448,31.6484],[74.6108,31.499],[74.6492,31.5404],[74.7953,31.5706],[74.9407,31.5212],[74.9513,31.6053],[74.947,31.5993],[74.81,31.6005],[74.8626,31.6667],[74.9187,31.6627],[74.9305,31.6475],[75.0323,31.6913],[74.8707,31.7444]]]},"properties":{"OBJECTID":2,"ST_CODE":3,"ST_NAME":"PUNJAB","DT_CODE":2,"DIST_NAME":"AMRITSAR","AC_NO":20,"AC_NAME":"Attari (SC)","PC_NO":2,"PC_NAME":"AMRITSAR","PC_ID":302,"STATUS":"","Shape_Leng":2.48569660398,"Shape_Area":0.04523928682}},
{"type":"Feature","geometry":{"type":"Polygon","coordinates":[[[74.8626,31.6667],[74.81,31.6005],[74.8562,31.6132],[74.8652,31.6367],[74.8626,31.6667]]]},"properties":{"OBJECTID":2,"ST_CODE":3,"ST_NAME":"PUNJAB","DT_CODE":2,"DIST_NAME":"AMRITSAR","AC_NO":16,"AC_NAME":"Amritsar West (SC)","PC_NO":2,"PC_NAME":"AMRITSAR","PC_ID":302,"STATUS":"","Shape_Leng":0.37824694155,"Shape_Area":0.00412664862}},
{"type":"Feature","geometry":{"type":"Polygon","coordinates":[[[75.2609,31.6925],[75.1549,31.642],[75.0323,31.6913],[74.9305,31.6475],[74.9513,31.6053],[74.9407,31.5212],[74.9382,31.5094],[75.0483,31.517],[75.1575,31.5526],[75.302,31.6527],[75.2609,31.6925]]]},"properties":{"OBJECTID":3,"ST_CODE":3,"ST_NAME":"PUNJAB","DT_CODE":2,"DIST_NAME":"AMRITSAR","AC_NO":14,"AC_NAME":"Jandiala (SC)","PC_NO":3,"PC_NAME":"KHADOOR SAHIB","PC_ID":303,"STATUS":"","Shape_Leng":1.40251209526,"Shape_Area":0.03413935481}},
{"type":"Feature","geometry":{"type":"Polygon","coordinates":[[[74.9305,31.6475],[74.9187,31.6627],[74.8828,31.6338],[74.8837,31.6218],[74.947,31.5993],[74.9513,31.6053],[74.9305,31.6475]]]},"properties":{"OBJECTID":2,"ST_CODE":3,"ST_NAME":"PUNJAB","DT_CODE":2,"DIST_NAME":"AMRITSAR","AC_NO":18,"AC_NAME":"Amritsar East","PC_NO":2,"PC_NAME":"AMRITSAR","PC_ID":302,"STATUS":"","Shape_Leng":0.34015162393,"Shape_Area":0.0031730908}},
{"type":"Feature","geometry":{"type":"Polygon","coordinates":[[[74.9187,31.6627],[74.8626,31.6667],[74.8652,31.6367],[74.8828,31.6338],[74.9187,31.6627]]]},"properties":{"OBJECTID":2,"ST_CODE":3,"ST_NAME":"PUNJAB","DT_CODE":2,"DIST_NAME":"AMRITSAR","AC_NO":15,"AC_NAME":"Amritsar North","PC_NO":2,"PC_NAME":"AMRITSAR","PC_ID":302,"STATUS":"","Shape_Leng":0.21798452431,"Shape_Area":0.00178716813}},
{"type":"Feature","geometry":{"type":"Polygon","coordinates":[[[76.0005,31.6838],[75.882,31.5482],[75.8685,31.4851],[76.0193,31.4654],[76.1043,31.5169],[76.1042,31.517],[76.0762,31.5609],[76.0005,31.6838]]]},"properties":{"OBJECTID":5,"ST_CODE":3,"ST_NAME":"PUNJAB","DT_CODE":5,"DIST_NAME":"HOSHIARPUR","AC_NO":43,"AC_NAME":"Hoshiarpur","PC_NO":5,"PC_NAME":"HOSHIARPUR (SC)","PC_ID":305,"STATUS":"","Shape_Leng":0.83707649644,"Shape_Area":0.02737786594}},
{"type":"Feature","geometry":{"type":"Polygon","coordinates":[[[74.8652,31.6367],[74.8562,31.6132],[74.8837,31.6218],[74.8828,31.6338],[74.8652,31.6367]]]},"properties":{"OBJECTID":2,"ST_CODE":3,"ST_NAME":"PUNJAB","DT_CODE":2,"DIST_NAME":"AMRITSAR","AC_NO":17,"AC_NAME":"Amritsar Central","PC_NO":2,"PC_NAME":"AMRITSAR","PC_ID":302,"STATUS":"","Shape_Leng":0.16071498998,"Shape_Area":0.00065857813}},
{"type":"Feature","geometry":{"type":"Polygon","coordinates":[[[75.302,31.6527],[75.1575,31.5526],[75.0483,31.517],[75.0081,31.4475],[75.0808,31.2575],[75.2311,31.4503],[75.4044,31.5937],[75.302,31.6527]]]},"properties":{"OBJECTID":3,"ST_CODE":3,"ST_NAME":"PUNJAB","DT_CODE":2,"DIST_NAME":"AMRITSAR","AC_NO":25,"AC_NAME":"Baba Bakala (SC)","PC_NO":3,"PC_NAME":"KHADOOR SAHIB","PC_ID":303,"STATUS":"","Shape_Leng":1.64809693258,"Shape_Area":0.06359766648}},
{"type":"Feature","geometry":{"type":"Polygon","coordinates":[[[75.4746,31.6499],[75.4044,31.5937],[75.2311,31.4503],[75.284,31.4144],[75.3666,31.4578],[75.4426,31.4323],[75.4411,31.4948],[75.5961,31.5554],[75.5943,31.6032],[75.4746,31.6499]]]},"properties":{"OBJECTID":5,"ST_CODE":3,"ST_NAME":"PUNJAB","DT_CODE":3,"DIST_NAME":"KAPURTHALA","AC_NO":26,"AC_NAME":"Bholath","PC_NO":5,"PC_NAME":"HOSHIARPUR (SC)","PC_ID":305,"STATUS":"","Shape_Leng":1.3827143014,"Shape_Area":0.04073857903}},
{"type":"Feature","geometry":{"type":"Polygon","coordinates":[[[74.8562,31.6132],[74.81,31.6005],[74.947,31.5993],[74.8837,31.6218],[74.8562,31.6132]]]},"properties":{"OBJECTID":2,"ST_CODE":3,"ST_NAME":"PUNJAB","DT_CODE":2,"DIST_NAME":"AMRITSAR","AC_NO":19,"AC_NAME":"Amritsar South","PC_NO":2,"PC_NAME":"AMRITSAR","PC_ID":302,"STATUS":"","Shape_Leng":0.33661879819,"Shape_Area":0.00286059036}},
{"type":"Feature","geometry":{"type":"Polygon","coordinates":[[[75.5943,31.6032],[75.5961,31.5554],[75.5891,31.4709],[75.6657,31.3704],[75.6623,31.3364],[75.6591,31.2948],[75.6744,31.2824],[75.7877,31.3687],[75.816,31.4312],[75.7168,31.5202],[75.6817,31.5902],[75.5943,31.6032]]]},"properties":{"OBJECTID":4,"ST_CODE":3,"ST_NAME":"PUNJAB","DT_CODE":4,"DIST_NAME":"JALANDHAR","AC_NO":38,"AC_NAME":"Adampur (SC)","PC_NO":4,"PC_NAME":"JALANDHAR (SC)","PC_ID":304,"STATUS":"","Shape_Leng":1.38771880737,"Shape_Area":0.03569509896}},
{"type":"Feature","geometry":{"type":"Polygon","coordinates":[[[74.9407,31.5212],[74.7953,31.5706],[74.6492,31.5404],[74.6108,31.499],[74.6546,31.4263],[74.7706,31.3846],[74.9039,31.4241],[74.9382,31.5094],[74.9407,31.5212]]]},"properties":{"OBJECTID":3,"ST_CODE":3,"ST_NAME":"PUNJAB","DT_CODE":2,"DIST_NAME":"AMRITSAR","AC_NO":21,"AC_NAME":"Tarn Taran","PC_NO":3,"PC_NAME":"KHADOOR SAHIB","PC_ID":303,"STATUS":"","Shape_Leng":1.22213380607,"Shape_Area":0.03803907044}},
{"type":"Feature","geometry":{"type":"Polygon","coordinates":[[[75.5961,31.5554],[75.4411,31.4948],[75.4426,31.4323],[75.4811,31.3521],[75.4609,31.2355],[75.5226,31.2241],[75.5502,31.2682],[75.5598,31.3241],[75.6657,31.3704],[75.5891,31.4709],[75.5961,31.5554]]]},"properties":{"OBJECTID":4,"ST_CODE":3,"ST_NAME":"PUNJAB","DT_CODE":4,"DIST_NAME":"JALANDHAR","AC_NO":33,"AC_NAME":"Kartarpur (SC)","PC_NO":4,"PC_NAME":"JALANDHAR (SC)","PC_ID":304,"STATUS":"","Shape_Leng":1.77454769376,"Shape_Area":0.03998585862}},
{"type":"Feature","geometry":{"type":"Polygon","coordinates":[[[75.0483,31.517],[74.9382,31.5094],[74.9039,31.4241],[74.7706,31.3846],[74.8217,31.3233],[74.9855,31.1576],[75.0808,31.2575],[75.0081,31.4475],[75.0483,31.517]]]},"properties":{"OBJECTID":3,"ST_CODE":3,"ST_NAME":"PUNJAB","DT_CODE":2,"DIST_NAME":"AMRITSAR","AC_NO":24,"AC_NAME":"Khadoor Sahib","PC_NO":3,"PC_NAME":"KHADOOR SAHIB","PC_ID":303,"STATUS":"","Shape_Leng":1.79334244554,"Shape_Area":0.04871138381}},
{"type":"Feature","geometry":{"type":"Polygon","coordinates":[[[76.1043,31.5169],[76.0193,31.4654],[75.8685,31.4851],[75.816,31.4312],[75.7877,31.3687],[75.8912,31.3402],[75.8924,31.276],[75.9923,31.2588],[75.9705,31.3459],[76.0365,31.3773],[76.1566,31.3475],[76.1688,31.3973],[76.1046,31.5161],[76.1043,31.5169]]]},"properties":{"OBJECTID":5,"ST_CODE":3,"ST_NAME":"PUNJAB","DT_CODE":5,"DIST_NAME":"HOSHIARPUR","AC_NO":44,"AC_NAME":"Chabbewal (SC)","PC_NO":5,"PC_NAME":"HOSHIARPUR (SC)","PC_ID":305,"STATUS":"","Shape_Leng":1.83280771676,"Shape_Area":0.05367397309}},
{"type":"Feature","geometry":{"type":"Polygon","coordinates":[[[74.6546,31.4263],[74.5517,31.3644],[74.5103,31.132],[74.6891,31.128],[74.7407,31.1581],[74.8217,31.3233],[74.7706,31.3846],[74.6546,31.4263]]]},"properties":{"OBJECTID":3,"ST_CODE":3,"ST_NAME":"PUNJAB","DT_CODE":2,"DIST_NAME":"AMRITSAR","AC_NO":22,"AC_NAME":"Khem Karan","PC_NO":3,"PC_NAME":"KHADOOR SAHIB","PC_ID":303,"STATUS":"","Shape_Leng":1.42669393008,"Shape_Area":0.06893249423}},
{"type":"Feature","geometry":{"type":"Polygon","coordinates":[[[75.284,31.4144],[75.3341,31.4013],[75.3448,31.2319],[75.3646,31.2268],[75.4609,31.2355],[75.4811,31.3521],[75.4426,31.4323],[75.3666,31.4578],[75.284,31.4144]]]},"properties":{"OBJECTID":3,"ST_CODE":3,"ST_NAME":"PUNJAB","DT_CODE":3,"DIST_NAME":"KAPURTHALA","AC_NO":27,"AC_NAME":"Kapurthala","PC_NO":3,"PC_NAME":"KHADOOR SAHIB","PC_ID":303,"STATUS":"","Shape_Leng":1.14409116415,"Shape_Area":0.02781749709}},
{"type":"Feature","geometry":{"type":"Polygon","coordinates":[[[75.2311,31.4503],[75.0808,31.2575],[74.9855,31.1576],[74.9644,31.1533],[75.0807,31.1511],[75.2699,31.1483],[75.3448,31.2319],[75.3341,31.4013],[75.284,31.4144],[75.2311,31.4503]]]},"properties":{"OBJECTID":3,"ST_CODE":3,"ST_NAME":"PUNJAB","DT_CODE":3,"DIST_NAME":"KAPURTHALA","AC_NO":28,"AC_NAME":"Sultanpur Lodhi","PC_NO":3,"PC_NAME":"KHADOOR SAHIB","PC_ID":303,"STATUS":"","Shape_Leng":1.51905432658,"Shape_Area":0.05793862243}},
{"type":"Feature","geometry":{"type":"Polygon","coordinates":[[[76.3738,31.4376],[76.3145,31.3428],[76.2888,31.3064],[76.3267,31.2679],[76.4237,31.2212],[76.4803,31.2466],[76.5577,31.0586],[76.6115,31.046],[76.645,31.2073],[76.4317,31.3268],[76.3947,31.4083],[76.3738,31.4376]]]},"properties":{"OBJECTID":6,"ST_CODE":3,"ST_NAME":"PUNJAB","DT_CODE":7,"DIST_NAME":"RUPNAGAR","AC_NO":49,"AC_NAME":"Anandpur Sahib","PC_NO":6,"PC_NAME":"ANANDPUR SAHIB","PC_ID":306,"STATUS":"","Shape_Leng":1.89716932881,"Shape_Area":0.03826925697}},
{"type":"Feature","geometry":{"type":"Polygon","coordinates":[[[74.8217,31.3233],[74.7407,31.1581],[74.6891,31.128],[74.6957,31.0743],[74.8032,31.1189],[74.9644,31.1533],[74.9855,31.1576],[74.8217,31.3233]]]},"properties":{"OBJECTID":3,"ST_CODE":3,"ST_NAME":"PUNJAB","DT_CODE":2,"DIST_NAME":"AMRITSAR","AC_NO":23,"AC_NAME":"Patti","PC_NO":3,"PC_NAME":"KHADOOR SAHIB","PC_ID":303,"STATUS":"","Shape_Leng":1.21597055323,"Shape_Area":0.03480852504}},
{"type":"Feature","geometry":{"type":"Polygon","coordinates":[[[75.6657,31.3704],[75.5598,31.3241],[75.5968,31.3196],[75.6623,31.3364],[75.6657,31.3704]]]},"properties":{"OBJECTID":4,"ST_CODE":3,"ST_NAME":"PUNJAB","DT_CODE":4,"DIST_NAME":"JALANDHAR","AC_NO":36,"AC_NAME":"Jalandhar North","PC_NO":4,"PC_NAME":"JALANDHAR (SC)","PC_ID":304,"STATUS":"","Shape_Leng":0.37572844694,"Shape_Area":0.00463683143}},
{"type":"Feature","geometry":{"type":"Polygon","coordinates":[[[76.1566,31.3475],[76.0365,31.3773],[75.9705,31.3459],[75.9923,31.2588],[76.0491,31.2142],[76.1934,31.1339],[76.238,31.2435],[76.3291,31.2252],[76.3267,31.2679],[76.2888,31.3064],[76.1886,31.2999],[76.1566,31.3475]]]},"properties":{"OBJECTID":6,"ST_CODE":3,"ST_NAME":"PUNJAB","DT_CODE":5,"DIST_NAME":"HOSHIARPUR","AC_NO":45,"AC_NAME":"Garhshankar","PC_NO":6,"PC_NAME":"ANANDPUR SAHIB","PC_ID":306,"STATUS":"","Shape_Leng":1.59851531813,"Shape_Area":0.04215201556}},
{"type":"Feature","geometry":{"type":"Polygon","coordinates":[[[75.7877,31.3687],[75.6744,31.2824],[75.7086,31.1651],[75.787,31.198],[75.8924,31.276],[75.8912,31.3402],[75.7877,31.3687]]]},"properties":{"OBJECTID":5,"ST_CODE":3,"ST_NAME":"PUNJAB","DT_CODE":3,"DIST_NAME":"KAPURTHALA","AC_NO":29,"AC_NAME":"Phagwara (SC)","PC_NO":5,"PC_NAME":"HOSHIARPUR (SC)","PC_ID":305,"STATUS":"","Shape_Leng":1.21458828602,"Shape_Area":0.02820708053}},
{"type":"Feature","geometry":{"type":"Polygon","coordinates":[[[75.6623,31.3364],[75.5968,31.3196],[75.6144,31.2903],[75.6591,31.2948],[75.6623,31.3364]]]},"properties":{"OBJECTID":4,"ST_CODE":3,"ST_NAME":"PUNJAB","DT_CODE":4,"DIST_NAME":"JALANDHAR","AC_NO":35,"AC_NAME":"Jalandhar Central","PC_NO":4,"PC_NAME":"JALANDHAR (SC)","PC_ID":304,"STATUS":"","Shape_Leng":0.20145007909,"Shape_Area":0.00225399204}},
{"type":"Feature","geometry":{"type":"Polygon","coordinates":[[[75.5968,31.3196],[75.5598,31.3241],[75.5502,31.2682],[75.6144,31.2903],[75.5968,31.3196]]]},"properties":{"OBJECTID":4,"ST_CODE":3,"ST_NAME":"PUNJAB","DT_CODE":4,"DIST_NAME":"JALANDHAR","AC_NO":34,"AC_NAME":"Jalandhar West (SC)","PC_NO":4,"PC_NAME":"JALANDHAR (SC)","PC_ID":304,"STATUS":"","Shape_Leng":0.24409286637,"Shape_Area":0.00271472817}},
{"type":"Feature","geometry":{"type":"Polygon","coordinates":[[[75.6591,31.2948],[75.6144,31.2903],[75.5502,31.2682],[75.5226,31.2241],[75.5978,31.2167],[75.6406,31.1421],[75.7086,31.1651],[75.6744,31.2824],[75.6591,31.2948]]]},"properties":{"OBJECTID":4,"ST_CODE":3,"ST_NAME":"PUNJAB","DT_CODE":4,"DIST_NAME":"JALANDHAR","AC_NO":37,"AC_NAME":"Jalandhar Cantt.","PC_NO":4,"PC_NAME":"JALANDHAR (SC)","PC_ID":304,"STATUS":"","Shape_Leng":0.90186099664,"Shape_Area":0.01656784513}},
{"type":"Feature","geometry":{"type":"Polygon","coordinates":[[[75.8924,31.276],[75.787,31.198],[75.8978,31.1542],[75.9323,31.0737],[76.0627,31.125],[76.0491,31.2142],[75.9923,31.2588],[75.8924,31.276]]]},"properties":{"OBJECTID":6,"ST_CODE":3,"ST_NAME":"PUNJAB","DT_CODE":6,"DIST_NAME":"NAWANSHAHR *","AC_NO":46,"AC_NAME":"Banga (SC)","PC_NO":6,"PC_NAME":"ANANDPUR SAHIB","PC_ID":306,"STATUS":"","Shape_Leng":1.12354674601,"Shape_Area":0.03396237597}},
{"type":"Feature","geometry":{"type":"Polygon","coordinates":[[[75.3646,31.2268],[75.3443,31.1495],[75.4085,31.0973],[75.5274,31.0692],[75.562,30.9772],[75.6512,30.9803],[75.6849,30.9916],[75.6406,31.1421],[75.5978,31.2167],[75.5226,31.2241],[75.4609,31.2355],[75.3646,31.2268]]]},"properties":{"OBJECTID":4,"ST_CODE":3,"ST_NAME":"PUNJAB","DT_CODE":4,"DIST_NAME":"JALANDHAR","AC_NO":31,"AC_NAME":"Nakodar","PC_NO":4,"PC_NAME":"JALANDHAR (SC)","PC_ID":304,"STATUS":"","Shape_Leng":1.51181803382,"Shape_Area":0.05009734857}},
{"type":"Feature","geometry":{"type":"Polygon","coordinates":[[[76.3267,31.2679],[76.3291,31.2252],[76.4675,31.0317],[76.4579,30.9744],[76.6275,30.9017],[76.7371,30.9389],[76.7002,30.9701],[76.6115,31.046],[76.5577,31.0586],[76.4803,31.2466],[76.4237,31.2212],[76.3267,31.2679]]]},"properties":{"OBJECTID":6,"ST_CODE":3,"ST_NAME":"PUNJAB","DT_CODE":7,"DIST_NAME":"RUPNAGAR","AC_NO":50,"AC_NAME":"Rupnagar","PC_NO":6,"PC_NAME":"ANANDPUR SAHIB","PC_ID":306,"STATUS":"","Shape_Leng":1.76553070127,"Shape_Area":0.0503960162}},
{"type":"Feature","geometry":{"type":"Polygon","coordinates":[[[75.3448,31.2319],[75.2699,31.1483],[75.0807,31.1511],[75.1458,31.0857],[75.3566,30.9902],[75.4992,30.9703],[75.562,30.9772],[75.5274,31.0692],[75.4085,31.0973],[75.3443,31.1495],[75.3646,31.2268],[75.3448,31.2319]]]},"properties":{"OBJECTID":4,"ST_CODE":3,"ST_NAME":"PUNJAB","DT_CODE":4,"DIST_NAME":"JALANDHAR","AC_NO":32,"AC_NAME":"Shahkot","PC_NO":4,"PC_NAME":"JALANDHAR (SC)","PC_ID":304,"STATUS":"","Shape_Leng":1.74375341151,"Shape_Area":0.05508072297}},
{"type":"Feature","geometry":{"type":"Polygon","coordinates":[[[76.3291,31.2252],[76.238,31.2435],[76.1934,31.1339],[76.257,30.9955],[76.304,30.9885],[76.4579,30.9744],[76.4675,31.0317],[76.3291,31.2252]]]},"properties":{"OBJECTID":6,"ST_CODE":3,"ST_NAME":"PUNJAB","DT_CODE":6,"DIST_NAME":"NAWANSHAHR *","AC_NO":48,"AC_NAME":"Balachaur","PC_NO":6,"PC_NAME":"ANANDPUR SAHIB","PC_ID":306,"STATUS":"","Shape_Leng":1.20232263123,"Shape_Area":0.04812858489}},
{"type":"Feature","geometry":{"type":"Polygon","coordinates":[[[76.1934,31.1339],[76.0491,31.2142],[76.0627,31.125],[75.9323,31.0737],[75.957,31.0171],[76.1425,30.9873],[76.257,30.9955],[76.1934,31.1339]]]},"properties":{"OBJECTID":6,"ST_CODE":3,"ST_NAME":"PUNJAB","DT_CODE":6,"DIST_NAME":"NAWANSHAHR *","AC_NO":47,"AC_NAME":"Nawan Shahr","PC_NO":6,"PC_NAME":"ANANDPUR SAHIB","PC_ID":306,"STATUS":"","Shape_Leng":1.2487491568,"Shape_Area":0.03969238532}},
{"type":"Feature","geometry":{"type":"Polygon","coordinates":[[[75.7086,31.1651],[75.6406,31.1421],[75.6849,30.9916],[75.8233,30.9996],[75.957,31.0171],[75.9323,31.0737],[75.8978,31.1542],[75.787,31.198],[75.7086,31.1651]]]},"properties":{"OBJECTID":4,"ST_CODE":3,"ST_NAME":"PUNJAB","DT_CODE":4,"DIST_NAME":"JALANDHAR","AC_NO":30,"AC_NAME":"Phillaur (SC)","PC_NO":4,"PC_NAME":"JALANDHAR (SC)","PC_ID":304,"STATUS":"","Shape_Leng":1.09234788595,"Shape_Area":0.04254442652}},
{"type":"Feature","geometry":{"type":"Polygon","coordinates":[[[75.0807,31.1511],[74.9644,31.1533],[74.8032,31.1189],[74.8008,31.0441],[74.8201,30.9429],[74.9437,30.8779],[75.0304,30.8968],[75.0938,30.9755],[75.0836,31.0688],[75.1458,31.0857],[75.0807,31.1511]]]},"properties":{"OBJECTID":3,"ST_CODE":3,"ST_NAME":"PUNJAB","DT_CODE":11,"DIST_NAME":"FIROZPUR","AC_NO":75,"AC_NAME":"Zira","PC_NO":3,"PC_NAME":"KHADOOR SAHIB","PC_ID":303,"STATUS":"","Shape_Leng":1.43122124491,"Shape_Area":0.06995469142}},
{"type":"Feature","geometry":{"type":"Polygon","coordinates":[[[74.6957,31.0743],[74.5682,31.0548],[74.5162,30.9795],[74.6044,30.8948],[74.6829,30.9435],[74.7503,31.0566],[74.8008,31.0441],[74.8032,31.1189],[74.6957,31.0743]]]},"properties":{"OBJECTID":10,"ST_CODE":3,"ST_NAME":"PUNJAB","DT_CODE":11,"DIST_NAME":"FIROZPUR","AC_NO":76,"AC_NAME":"Firozpur City","PC_NO":10,"PC_NAME":"FIROZPUR","PC_ID":310,"STATUS":"","Shape_Leng":1.23125838483,"Shape_Area":0.02829428975}},
{"type":"Feature","geometry":{"type":"Polygon","coordinates":[[[74.5162,30.9795],[74.3659,30.8929],[74.3736,30.8593],[74.5005,30.8604],[74.595,30.8088],[74.754,30.813],[74.8123,30.7694],[74.91,30.7373],[74.9312,30.7888],[74.9437,30.8779],[74.8201,30.9429],[74.8008,31.0441],[74.7503,31.0566],[74.6829,30.9435],[74.6044,30.8948],[74.5162,30.9795]]]},"properties":{"OBJECTID":10,"ST_CODE":3,"ST_NAME":"PUNJAB","DT_CODE":11,"DIST_NAME":"FIROZPUR","AC_NO":77,"AC_NAME":"Firozpur Rural (SC)","PC_NO":10,"PC_NAME":"FIROZPUR","PC_ID":310,"STATUS":"","Shape_Leng":2.4565042144,"Shape_Area":0.07697096904}},
{"type":"Feature","geometry":{"type":"Polygon","coordinates":[[[75.6849,30.9916],[75.6512,30.9803],[75.749,30.8818],[75.822,30.6906],[75.8437,30.6805],[75.895,30.6985],[75.9528,30.8081],[75.9177,30.8465],[75.8603,30.8568],[75.8139,30.8726],[75.7993,30.9243],[75.838,30.956],[75.8233,30.9996],[75.6849,30.9916]]]},"properties":{"OBJECTID":7,"ST_CODE":3,"ST_NAME":"PUNJAB","DT_CODE":9,"DIST_NAME":"LUDHIANA","AC_NO":66,"AC_NAME":"Gill (SC)","PC_NO":7,"PC_NAME":"LUDHIANA","PC_ID":307,"STATUS":"","Shape_Leng":1.60334455132,"Shape_Area":0.04034795172}},
{"type":"Feature","geometry":{"type":"Polygon","coordinates":[[[75.8233,30.9996],[75.838,30.956],[75.8666,30.9314],[75.9441,30.8588],[75.9177,30.8465],[75.9528,30.8081],[76.0791,30.8175],[76.1315,30.889],[76.1425,30.9873],[75.957,31.0171],[75.8233,30.9996]]]},"properties":{"OBJECTID":8,"ST_CODE":3,"ST_NAME":"PUNJAB","DT_CODE":9,"DIST_NAME":"LUDHIANA","AC_NO":59,"AC_NAME":"Sahnewal","PC_NO":8,"PC_NAME":"FATEHGARH SAHIB (SC","PC_ID":308,"STATUS":"","Shape_Leng":1.22933553049,"Shape_Area":0.0400694089}},
{"type":"Feature","geometry":{"type":"Polygon","coordinates":[[[75.3566,30.9902],[75.3729,30.8514],[75.3964,30.8087],[75.3677,30.6855],[75.4086,30.5833],[75.4643,30.6057],[75.4602,30.6586],[75.5499,30.7216],[75.4801,30.7835],[75.5419,30.8738],[75.4424,30.9086],[75.4992,30.9703],[75.3566,30.9902]]]},"properties":{"OBJECTID":7,"ST_CODE":3,"ST_NAME":"PUNJAB","DT_CODE":9,"DIST_NAME":"LUDHIANA","AC_NO":70,"AC_NAME":"Jagraon (SC)","PC_NO":7,"PC_NAME":"LUDHIANA","PC_ID":307,"STATUS":"","Shape_Leng":1.6281495687,"Shape_Area":0.04573881646}},
{"type":"Feature","geometry":{"type":"Polygon","coordinates":[[[76.1425,30.9873],[76.1315,30.889],[76.0791,30.8175],[76.0727,30.8098],[76.1787,30.7277],[76.2755,30.7344],[76.3195,30.8771],[76.304,30.9885],[76.257,30.9955],[76.1425,30.9873]]]},"properties":{"OBJECTID":8,"ST_CODE":3,"ST_NAME":"PUNJAB","DT_CODE":9,"DIST_NAME":"LUDHIANA","AC_NO":58,"AC_NAME":"Samrala","PC_NO":8,"PC_NAME":"FATEHGARH SAHIB (SC","PC_ID":308,"STATUS":"","Shape_Leng":1.23768166784,"Shape_Area":0.04681089374}},
{"type":"Feature","geometry":{"type":"Polygon","coordinates":[[[75.562,30.9772],[75.4992,30.9703],[75.4424,30.9086],[75.5419,30.8738],[75.4801,30.7835],[75.5499,30.7216],[75.5957,30.7838],[75.7296,30.7443],[75.763,30.6652],[75.822,30.6906],[75.749,30.8818],[75.6512,30.9803],[75.562,30.9772]]]},"properties":{"OBJECTID":7,"ST_CODE":3,"ST_NAME":"PUNJAB","DT_CODE":9,"DIST_NAME":"LUDHIANA","AC_NO":68,"AC_NAME":"Dakha","PC_NO":7,"PC_NAME":"LUDHIANA","PC_ID":307,"STATUS":"","Shape_Leng":2.07558094076,"Shape_Area":0.0556910214}},
{"type":"Feature","geometry":{"type":"Polygon","coordinates":[[[76.304,30.9885],[76.3195,30.8771],[76.4112,30.84],[76.4695,30.7454],[76.5716,30.6758],[76.6264,30.7219],[76.553,30.8383],[76.6275,30.9017],[76.4579,30.9744],[76.304,30.9885]]]},"properties":{"OBJECTID":6,"ST_CODE":3,"ST_NAME":"PUNJAB","DT_CODE":7,"DIST_NAME":"RUPNAGAR","AC_NO":51,"AC_NAME":"Chamkaur Sahib (SC)","PC_NO":6,"PC_NAME":"ANANDPUR SAHIB","PC_ID":306,"STATUS":"","Shape_Leng":1.6307262223,"Shape_Area":0.04757435834}},
{"type":"Feature","geometry":{"type":"Polygon","coordinates":[[[75.8666,30.9314],[75.838,30.956],[75.7993,30.9243],[75.852,30.9076],[75.8667,30.9312],[75.8666,30.9314]]]},"properties":{"OBJECTID":7,"ST_CODE":3,"ST_NAME":"PUNJAB","DT_CODE":9,"DIST_NAME":"LUDHIANA","AC_NO":65,"AC_NAME":"Ludhiana North","PC_NO":7,"PC_NAME":"LUDHIANA","PC_ID":307,"STATUS":"","Shape_Leng":0.22009817519,"Shape_Area":0.00144583984}},
{"type":"Feature","geometry":{"type":"Polygon","coordinates":[[[75.9441,30.8588],[75.8666,30.9314],[75.8667,30.9312],[75.8885,30.8974],[75.9441,30.8588]]]},"properties":{"OBJECTID":7,"ST_CODE":3,"ST_NAME":"PUNJAB","DT_CODE":9,"DIST_NAME":"LUDHIANA","AC_NO":60,"AC_NAME":"Ludhiana East","PC_NO":7,"PC_NAME":"LUDHIANA","PC_ID":307,"STATUS":"","Shape_Leng":0.32363743945,"Shape_Area":0.00332658344}},
{"type":"Feature","geometry":{"type":"Polygon","coordinates":[[[75.8667,30.9312],[75.852,30.9076],[75.8535,30.8976],[75.8651,30.8922],[75.8885,30.8974],[75.8667,30.9312]]]},"properties":{"OBJECTID":7,"ST_CODE":3,"ST_NAME":"PUNJAB","DT_CODE":9,"DIST_NAME":"LUDHIANA","AC_NO":63,"AC_NAME":"Ludhiana Central","PC_NO":7,"PC_NAME":"LUDHIANA","PC_ID":307,"STATUS":"","Shape_Leng":0.15011994756,"Shape_Area":0.00083754242}},
{"type":"Feature","geometry":{"type":"Polygon","coordinates":[[[75.0304,30.8968],[74.9437,30.8779],[74.9312,30.7888],[75.0575,30.7826],[75.1181,30.71],[75.1962,30.6849],[75.2162,30.7452],[75.2025,30.8328],[75.0304,30.8968]]]},"properties":{"OBJECTID":9,"ST_CODE":3,"ST_NAME":"PUNJAB","DT_CODE":10,"DIST_NAME":"MOGA *","AC_NO":73,"AC_NAME":"Moga","PC_NO":9,"PC_NAME":"FARIDKOT (SC)","PC_ID":309,"STATUS":"","Shape_Leng":1.03957025253,"Shape_Area":0.03344748183}},
{"type":"Feature","geometry":{"type":"Polygon","coordinates":[[[75.852,30.9076],[75.7993,30.9243],[75.8139,30.8726],[75.8535,30.8976],[75.852,30.9076]]]},"properties":{"OBJECTID":7,"ST_CODE":3,"ST_NAME":"PUNJAB","DT_CODE":9,"DIST_NAME":"LUDHIANA","AC_NO":64,"AC_NAME":"Ludhiana West","PC_NO":7,"PC_NAME":"LUDHIANA","PC_ID":307,"STATUS":"","Shape_Leng":0.24704795174,"Shape_Area":0.00295956166}},
{"type":"Feature","geometry":{"type":"Polygon","coordinates":[[[74.595,30.8088],[74.5005,30.8604],[74.3736,30.8593],[74.3204,30.8466],[74.1693,30.6487],[74.3774,30.5577],[74.5042,30.6689],[74.47,30.7483],[74.595,30.8088]]]},"properties":{"OBJECTID":10,"ST_CODE":3,"ST_NAME":"PUNJAB","DT_CODE":11,"DIST_NAME":"FIROZPUR","AC_NO":78,"AC_NAME":"Guru Har Sahai","PC_NO":10,"PC_NAME":"FIROZPUR","PC_ID":310,"STATUS":"","Shape_Leng":1.77064078721,"Shape_Area":0.06179068124}},
{"type":"Feature","geometry":{"type":"Polygon","coordinates":[[[76.7741,30.9071],[76.7371,30.9389],[76.6275,30.9017],[76.553,30.8383],[76.6264,30.7219],[76.5716,30.6758],[76.6335,30.6201],[76.6514,30.6261],[76.6372,30.6751],[76.7174,30.7631],[76.8381,30.7542],[76.8474,30.7801],[76.7741,30.9071]]]},"properties":{"OBJECTID":6,"ST_CODE":3,"ST_NAME":"PUNJAB","DT_CODE":7,"DIST_NAME":"RUPNAGAR","AC_NO":52,"AC_NAME":"Kharar","PC_NO":6,"PC_NAME":"ANANDPUR SAHIB","PC_ID":306,"STATUS":"","Shape_Leng":1.58223002695,"Shape_Area":0.04208251669}},
{"type":"Feature","geometry":{"type":"Polygon","coordinates":[[[75.8651,30.8922],[75.8535,30.8976],[75.8139,30.8726],[75.8603,30.8568],[75.8651,30.8922]]]},"properties":{"OBJECTID":7,"ST_CODE":3,"ST_NAME":"PUNJAB","DT_CODE":9,"DIST_NAME":"LUDHIANA","AC_NO":62,"AC_NAME":"Atam Nagar","PC_NO":7,"PC_NAME":"LUDHIANA","PC_ID":307,"STATUS":"","Shape_Leng":0.1930466086,"Shape_Area":0.00131267624}},
{"type":"Feature","geometry":{"type":"Polygon","coordinates":[[[75.8885,30.8974],[75.8651,30.8922],[75.8603,30.8568],[75.9177,30.8465],[75.9441,30.8588],[75.8885,30.8974]]]},"properties":{"OBJECTID":7,"ST_CODE":3,"ST_NAME":"PUNJAB","DT_CODE":9,"DIST_NAME":"LUDHIANA","AC_NO":61,"AC_NAME":"Ludhiana South","PC_NO":7,"PC_NAME":"LUDHIANA","PC_ID":307,"STATUS":"","Shape_Leng":0.30549329433,"Shape_Area":0.00282018375}},
{"type":"Feature","geometry":{"type":"Polygon","coordinates":[[[75.3566,30.9902],[75.1458,31.0857],[75.0836,31.0688],[75.0938,30.9755],[75.0304,30.8968],[75.2025,30.8328],[75.2162,30.7452],[75.3729,30.8514],[75.3566,30.9902]]]},"properties":{"OBJECTID":9,"ST_CODE":3,"ST_NAME":"PUNJAB","DT_CODE":10,"DIST_NAME":"MOGA *","AC_NO":74,"AC_NAME":"Dharamkot","PC_NO":9,"PC_NAME":"FARIDKOT (SC)","PC_ID":309,"STATUS":"","Shape_Leng":1.76835350533,"Shape_Area":0.06105758521}},
{"type":"Feature","geometry":{"type":"Polygon","coordinates":[[[75.3729,30.8514],[75.2162,30.7452],[75.1962,30.6849],[75.1636,30.5798],[75.1818,30.5095],[75.2824,30.5076],[75.4007,30.5283],[75.4086,30.5833],[75.3677,30.6855],[75.3964,30.8087],[75.3729,30.8514]]]},"properties":{"OBJECTID":9,"ST_CODE":3,"ST_NAME":"PUNJAB","DT_CODE":10,"DIST_NAME":"MOGA *","AC_NO":71,"AC_NAME":"Nihal Singhwala (SC","PC_NO":9,"PC_NAME":"FARIDKOT (SC)","PC_ID":309,"STATUS":"","Shape_Leng":1.3793964508,"Shape_Area":0.06081452863}},
{"type":"Feature","geometry":{"type":"Polygon","coordinates":[[[74.595,30.8088],[74.47,30.7483],[74.5042,30.6689],[74.636,30.6158],[74.7204,30.6473],[74.8123,30.7694],[74.754,30.813],[74.595,30.8088]]]},"properties":{"OBJECTID":9,"ST_CODE":3,"ST_NAME":"PUNJAB","DT_CODE":13,"DIST_NAME":"FARIDKOT","AC_NO":87,"AC_NAME":"Faridkot","PC_NO":9,"PC_NAME":"FARIDKOT (SC)","PC_ID":309,"STATUS":"","Shape_Leng":1.107456074,"Shape_Area":0.05087163166}},
{"type":"Feature","geometry":{"type":"Polygon","coordinates":[[[76.0791,30.8175],[75.9528,30.8081],[75.895,30.6985],[75.8437,30.6805],[75.888,30.6072],[76.0276,30.6164],[76.0845,30.5616],[76.1209,30.6005],[76.0677,30.6562],[76.0727,30.8098],[76.0791,30.8175]]]},"properties":{"OBJECTID":8,"ST_CODE":3,"ST_NAME":"PUNJAB","DT_CODE":9,"DIST_NAME":"LUDHIANA","AC_NO":67,"AC_NAME":"Payal (SC)","PC_NO":8,"PC_NAME":"FATEHGARH SAHIB (SC","PC_ID":308,"STATUS":"","Shape_Leng":1.37122513783,"Shape_Area":0.04186515128}},
{"type":"Feature","geometry":{"type":"Polygon","coordinates":[[[75.763,30.6652],[75.7296,30.7443],[75.5957,30.7838],[75.5499,30.7216],[75.4602,30.6586],[75.4643,30.6057],[75.5789,30.5696],[75.6771,30.5975],[75.7823,30.6247],[75.763,30.6652]]]},"properties":{"OBJECTID":8,"ST_CODE":3,"ST_NAME":"PUNJAB","DT_CODE":9,"DIST_NAME":"LUDHIANA","AC_NO":69,"AC_NAME":"Raikot (SC)","PC_NO":8,"PC_NAME":"FATEHGARH SAHIB (SC","PC_ID":308,"STATUS":"","Shape_Leng":1.19932319333,"Shape_Area":0.04231400154}},
{"type":"Feature","geometry":{"type":"Polygon","coordinates":[[[74.91,30.7373],[74.9144,30.6865],[74.9448,30.5715],[75.0204,30.4906],[75.1636,30.5798],[75.1962,30.6849],[75.1181,30.71],[75.0575,30.7826],[74.9312,30.7888],[74.91,30.7373]]]},"properties":{"OBJECTID":9,"ST_CODE":3,"ST_NAME":"PUNJAB","DT_CODE":10,"DIST_NAME":"MOGA *","AC_NO":72,"AC_NAME":"Bhagha Purana","PC_NO":9,"PC_NAME":"FARIDKOT (SC)","PC_ID":309,"STATUS":"","Shape_Leng":1.30361339626,"Shape_Area":0.05643310682}},
{"type":"Feature","geometry":{"type":"Polygon","coordinates":[[[74.8123,30.7694],[74.7204,30.6473],[74.636,30.6158],[74.6902,30.519],[74.7637,30.4845],[74.8572,30.567],[74.9144,30.6865],[74.91,30.7373],[74.8123,30.7694]]]},"properties":{"OBJECTID":9,"ST_CODE":3,"ST_NAME":"PUNJAB","DT_CODE":13,"DIST_NAME":"FARIDKOT","AC_NO":88,"AC_NAME":"Kotkapura","PC_NO":9,"PC_NAME":"FARIDKOT (SC)","PC_ID":309,"STATUS":"","Shape_Leng":1.20235429446,"Shape_Area":0.03983159648}},
{"type":"Feature","geometry":{"type":"Polygon","coordinates":[[[76.2755,30.7344],[76.1787,30.7277],[76.0727,30.8098],[76.0677,30.6562],[76.1209,30.6005],[76.1524,30.6548],[76.298,30.7168],[76.2755,30.7344]]]},"properties":{"OBJECTID":8,"ST_CODE":3,"ST_NAME":"PUNJAB","DT_CODE":9,"DIST_NAME":"LUDHIANA","AC_NO":57,"AC_NAME":"Khanna","PC_NO":8,"PC_NAME":"FATEHGARH SAHIB (SC","PC_ID":308,"STATUS":"","Shape_Leng":1.13517051958,"Shape_Area":0.02012358274}},
{"type":"Feature","geometry":{"type":"Polygon","coordinates":[[[76.7174,30.7631],[76.6372,30.6751],[76.6514,30.6261],[76.7623,30.6049],[76.7967,30.6678],[76.7174,30.7631]]]},"properties":{"OBJECTID":6,"ST_CODE":3,"ST_NAME":"PUNJAB","DT_CODE":7,"DIST_NAME":"RUPNAGAR","AC_NO":53,"AC_NAME":"S.A.S.Nagar","PC_NO":6,"PC_NAME":"ANANDPUR SAHIB","PC_ID":306,"STATUS":"","Shape_Leng":0.83008149674,"Shape_Area":0.01766944919}},
{"type":"Feature","geometry":{"type":"Polygon","coordinates":[[[76.5716,30.6758],[76.4695,30.7454],[76.4112,30.84],[76.3195,30.8771],[76.2755,30.7344],[76.298,30.7168],[76.3489,30.6931],[76.5234,30.65],[76.5984,30.5965],[76.6335,30.6201],[76.5716,30.6758]]]},"properties":{"OBJECTID":8,"ST_CODE":3,"ST_NAME":"PUNJAB","DT_CODE":8,"DIST_NAME":"FATEHGARH SAHIB *","AC_NO":54,"AC_NAME":"Bassi Pathana (SC)","PC_NO":8,"PC_NAME":"FATEHGARH SAHIB (SC","PC_ID":308,"STATUS":"","Shape_Leng":1.32652044386,"Shape_Area":0.0395365577}},
{"type":"Feature","geometry":{"type":"Polygon","coordinates":[[[75.0204,30.4906],[74.9448,30.5715],[74.9144,30.6865],[74.8572,30.567],[74.7637,30.4845],[74.8217,30.3932],[74.9307,30.368],[75.052,30.3879],[75.0204,30.4906]]]},"properties":{"OBJECTID":9,"ST_CODE":3,"ST_NAME":"PUNJAB","DT_CODE":13,"DIST_NAME":"FARIDKOT","AC_NO":89,"AC_NAME":"Jaitu (SC)","PC_NO":9,"PC_NAME":"FARIDKOT (SC)","PC_ID":309,"STATUS":"","Shape_Leng":1.46457131844,"Shape_Area":0.04687599806}},
{"type":"Feature","geometry":{"type":"Polygon","coordinates":[[[74.636,30.6158],[74.5042,30.6689],[74.3774,30.5577],[74.3823,30.4999],[74.442,30.4393],[74.5655,30.407],[74.6902,30.519],[74.636,30.6158]]]},"properties":{"OBJECTID":10,"ST_CODE":3,"ST_NAME":"PUNJAB","DT_CODE":12,"DIST_NAME":"MUKTSAR *","AC_NO":86,"AC_NAME":"Muktsar","PC_NO":10,"PC_NAME":"FIROZPUR","PC_ID":310,"STATUS":"","Shape_Leng":1.2516143734,"Shape_Area":0.05546633914}},
{"type":"Feature","geometry":{"type":"Polygon","coordinates":[[[74.1693,30.6487],[74.0909,30.5494],[74.174,30.492],[74.064,30.2962],[74.1388,30.2986],[74.2631,30.2487],[74.3247,30.3297],[74.3272,30.4452],[74.3823,30.4999],[74.3774,30.5577],[74.1693,30.6487]]]},"properties":{"OBJECTID":10,"ST_CODE":3,"ST_NAME":"PUNJAB","DT_CODE":11,"DIST_NAME":"FIROZPUR","AC_NO":79,"AC_NAME":"Jalalabad","PC_NO":10,"PC_NAME":"FIROZPUR","PC_ID":310,"STATUS":"","Shape_Leng":1.97068901175,"Shape_Area":0.07419613258}},
{"type":"Feature","geometry":{"type":"Polygon","coordinates":[[[75.822,30.6906],[75.763,30.6652],[75.7823,30.6247],[75.8534,30.5526],[75.8496,30.4487],[75.9653,30.4615],[76.0239,30.3905],[76.086,30.5372],[76.0845,30.5616],[76.0276,30.6164],[75.888,30.6072],[75.8437,30.6805],[75.822,30.6906]]]},"properties":{"OBJECTID":8,"ST_CODE":3,"ST_NAME":"PUNJAB","DT_CODE":16,"DIST_NAME":"SANGRUR","AC_NO":106,"AC_NAME":"Amargarh","PC_NO":8,"PC_NAME":"FATEHGARH SAHIB (SC","PC_ID":308,"STATUS":"","Shape_Leng":1.78644089967,"Shape_Area":0.04012165938}},
{"type":"Feature","geometry":{"type":"Polygon","coordinates":[[[76.5984,30.5965],[76.5234,30.65],[76.3489,30.6931],[76.2746,30.56],[76.3144,30.5479],[76.3297,30.4934],[76.4312,30.4422],[76.4992,30.4628],[76.4971,30.5076],[76.5984,30.5965]]]},"properties":{"OBJECTID":8,"ST_CODE":3,"ST_NAME":"PUNJAB","DT_CODE":8,"DIST_NAME":"FATEHGARH SAHIB *","AC_NO":55,"AC_NAME":"Fatehgarh Sahib","PC_NO":8,"PC_NAME":"FATEHGARH SAHIB (SC","PC_ID":308,"STATUS":"","Shape_Leng":1.19118632912,"Shape_Area":0.04471830839}},
{"type":"Feature","geometry":{"type":"Polygon","coordinates":[[[76.2746,30.56],[76.3489,30.6931],[76.298,30.7168],[76.1524,30.6548],[76.1209,30.6005],[76.0845,30.5616],[76.086,30.5372],[76.2746,30.56]]]},"properties":{"OBJECTID":8,"ST_CODE":3,"ST_NAME":"PUNJAB","DT_CODE":8,"DIST_NAME":"FATEHGARH SAHIB *","AC_NO":56,"AC_NAME":"Amloh","PC_NO":8,"PC_NAME":"FATEHGARH SAHIB (SC","PC_ID":308,"STATUS":"","Shape_Leng":1.11692450609,"Shape_Area":0.02499770613}},
{"type":"Feature","geometry":{"type":"Polygon","coordinates":[[[76.9279,30.5241],[76.9256,30.6114],[76.8288,30.6807],[76.7967,30.6678],[76.7623,30.6049],[76.7531,30.4699],[76.7481,30.4288],[76.7981,30.4173],[76.8994,30.36],[76.9279,30.5241]]]},"properties":{"OBJECTID":13,"ST_CODE":3,"ST_NAME":"PUNJAB","DT_CODE":17,"DIST_NAME":"PATIALA","AC_NO":112,"AC_NAME":"Dera Bassi","PC_NO":13,"PC_NAME":"PATIALA","PC_ID":313,"STATUS":"","Shape_Leng":1.33230546832,"Shape_Area":0.03677571503}},
{"type":"Feature","geometry":{"type":"Polygon","coordinates":[[[75.7823,30.6247],[75.6771,30.5975],[75.7822,30.4999],[75.8496,30.4487],[75.8534,30.5526],[75.7823,30.6247]]]},"properties":{"OBJECTID":12,"ST_CODE":3,"ST_NAME":"PUNJAB","DT_CODE":16,"DIST_NAME":"SANGRUR","AC_NO":105,"AC_NAME":"Malerkotla","PC_NO":12,"PC_NAME":"SANGRUR","PC_ID":312,"STATUS":"","Shape_Leng":1.03501500383,"Shape_Area":0.02406285897}},
{"type":"Feature","geometry":{"type":"Polygon","coordinates":[[[74.1388,30.2986],[74.064,30.2962],[74.174,30.492],[74.0909,30.5494],[73.9927,30.5142],[73.9644,30.4242],[73.8841,30.3669],[73.9727,30.1983],[73.9755,30.1205],[74.0148,30.1983],[74.05,30.2655],[74.1388,30.2986]]]},"properties":{"OBJECTID":10,"ST_CODE":3,"ST_NAME":"PUNJAB","DT_CODE":11,"DIST_NAME":"FIROZPUR","AC_NO":80,"AC_NAME":"Fazilka","PC_NO":10,"PC_NAME":"FIROZPUR","PC_ID":310,"STATUS":"","Shape_Leng":1.76257851232,"Shape_Area":0.05282841859}},
{"type":"Feature","geometry":{"type":"Polygon","coordinates":[[[75.4643,30.6057],[75.4086,30.5833],[75.4007,30.5283],[75.3755,30.4811],[75.4533,30.3983],[75.5584,30.4439],[75.6463,30.4407],[75.6769,30.3793],[75.7822,30.4999],[75.6771,30.5975],[75.5789,30.5696],[75.4643,30.6057]]]},"properties":{"OBJECTID":12,"ST_CODE":3,"ST_NAME":"PUNJAB","DT_CODE":16,"DIST_NAME":"SANGRUR","AC_NO":104,"AC_NAME":"Mehal Kalan (SC)","PC_NO":12,"PC_NAME":"SANGRUR","PC_ID":312,"STATUS":"","Shape_Leng":1.68555573018,"Shape_Area":0.05532635841}},
{"type":"Feature","geometry":{"type":"Polygon","coordinates":[[[75.2824,30.5076],[75.1818,30.5095],[75.1636,30.5798],[75.0204,30.4906],[75.052,30.3879],[75.0892,30.4173],[75.2211,30.2618],[75.3136,30.3272],[75.2824,30.5076]]]},"properties":{"OBJECTID":9,"ST_CODE":3,"ST_NAME":"PUNJAB","DT_CODE":14,"DIST_NAME":"BATHINDA","AC_NO":90,"AC_NAME":"Rampura Phul","PC_NO":9,"PC_NAME":"FARIDKOT (SC)","PC_ID":309,"STATUS":"","Shape_Leng":1.59585968304,"Shape_Area":0.04951611211}},
{"type":"Feature","geometry":{"type":"Polygon","coordinates":[[[76.6514,30.6261],[76.6335,30.6201],[76.5984,30.5965],[76.4971,30.5076],[76.6249,30.4313],[76.6657,30.4831],[76.7531,30.4699],[76.7623,30.6049],[76.6514,30.6261]]]},"properties":{"OBJECTID":13,"ST_CODE":3,"ST_NAME":"PUNJAB","DT_CODE":17,"DIST_NAME":"PATIALA","AC_NO":111,"AC_NAME":"Rajpura","PC_NO":13,"PC_NAME":"PATIALA","PC_ID":313,"STATUS":"","Shape_Leng":1.36928829459,"Shape_Area":0.02937631815}},
{"type":"Feature","geometry":{"type":"Polygon","coordinates":[[[74.3823,30.4999],[74.3272,30.4452],[74.3247,30.3297],[74.4693,30.2324],[74.4583,30.1765],[74.5576,30.1206],[74.6165,30.1885],[74.5459,30.2471],[74.508,30.3346],[74.5655,30.407],[74.442,30.4393],[74.3823,30.4999]]]},"properties":{"OBJECTID":10,"ST_CODE":3,"ST_NAME":"PUNJAB","DT_CODE":12,"DIST_NAME":"MUKTSAR *","AC_NO":85,"AC_NAME":"Malout (SC)","PC_NO":10,"PC_NAME":"FIROZPUR","PC_ID":310,"STATUS":"","Shape_Leng":1.8448786338,"Shape_Area":0.05731576097}},
{"type":"Feature","geometry":{"type":"Polygon","coordinates":[[[74.6902,30.519],[74.5655,30.407],[74.508,30.3346],[74.5459,30.2471],[74.6165,30.1885],[74.6474,30.1547],[74.7039,30.1603],[74.7521,30.287],[74.8217,30.3932],[74.7637,30.4845],[74.6902,30.519]]]},"properties":{"OBJECTID":9,"ST_CODE":3,"ST_NAME":"PUNJAB","DT_CODE":12,"DIST_NAME":"MUKTSAR *","AC_NO":84,"AC_NAME":"Gidderbaha","PC_NO":9,"PC_NAME":"FARIDKOT (SC)","PC_ID":309,"STATUS":"","Shape_Leng":1.77117074698,"Shape_Area":0.05597225972}},
{"type":"Feature","geometry":{"type":"Polygon","coordinates":[[[75.4007,30.5283],[75.2824,30.5076],[75.3136,30.3272],[75.3696,30.1989],[75.4612,30.1953],[75.5769,30.1443],[75.5838,30.2282],[75.4557,30.3185],[75.4533,30.3983],[75.3755,30.4811],[75.4007,30.5283]]]},"properties":{"OBJECTID":12,"ST_CODE":3,"ST_NAME":"PUNJAB","DT_CODE":16,"DIST_NAME":"SANGRUR","AC_NO":102,"AC_NAME":"Bhadaur (SC)","PC_NO":12,"PC_NAME":"SANGRUR","PC_ID":312,"STATUS":"","Shape_Leng":1.889194654,"Shape_Area":0.05493203257}},
{"type":"Feature","geometry":{"type":"Polygon","coordinates":[[[76.2746,30.56],[76.086,30.5372],[76.0239,30.3905],[75.9858,30.3632],[76.202,30.2859],[76.25,30.3518],[76.1845,30.372],[76.216,30.4721],[76.3297,30.4934],[76.3144,30.5479],[76.2746,30.56]]]},"properties":{"OBJECTID":13,"ST_CODE":3,"ST_NAME":"PUNJAB","DT_CODE":17,"DIST_NAME":"PATIALA","AC_NO":109,"AC_NAME":"Nabha (SC)","PC_NO":13,"PC_NAME":"PATIALA","PC_ID":313,"STATUS":"","Shape_Leng":1.48436123725,"Shape_Area":0.04684230571}},
{"type":"Feature","geometry":{"type":"Polygon","coordinates":[[[76.4971,30.5076],[76.4992,30.4628],[76.499,30.346],[76.6357,30.2895],[76.7266,30.3614],[76.7481,30.4288],[76.7531,30.4699],[76.6657,30.4831],[76.6249,30.4313],[76.4971,30.5076]]]},"properties":{"OBJECTID":13,"ST_CODE":3,"ST_NAME":"PUNJAB","DT_CODE":17,"DIST_NAME":"PATIALA","AC_NO":113,"AC_NAME":"Ghanaur","PC_NO":13,"PC_NAME":"PATIALA","PC_ID":313,"STATUS":"","Shape_Leng":1.46951053467,"Shape_Area":0.03766283233}},
{"type":"Feature","geometry":{"type":"Polygon","coordinates":[[[75.7822,30.4999],[75.6769,30.3793],[75.6555,30.3101],[75.7311,30.2751],[75.7801,30.294],[75.9858,30.3632],[76.0239,30.3905],[75.9653,30.4615],[75.8496,30.4487],[75.7822,30.4999]]]},"properties":{"OBJECTID":13,"ST_CODE":3,"ST_NAME":"PUNJAB","DT_CODE":16,"DIST_NAME":"SANGRUR","AC_NO":107,"AC_NAME":"Dhuri","PC_NO":13,"PC_NAME":"PATIALA","PC_ID":313,"STATUS":"","Shape_Leng":1.48919412322,"Shape_Area":0.04341107487}},
{"type":"Feature","geometry":{"type":"Polygon","coordinates":[[[76.4312,30.4422],[76.3297,30.4934],[76.216,30.4721],[76.1845,30.372],[76.25,30.3518],[76.3447,30.3767],[76.3625,30.2953],[76.4534,30.3324],[76.4312,30.4422]]]},"properties":{"OBJECTID":13,"ST_CODE":3,"ST_NAME":"PUNJAB","DT_CODE":17,"DIST_NAME":"PATIALA","AC_NO":110,"AC_NAME":"Patiala Rural","PC_NO":13,"PC_NAME":"PATIALA","PC_ID":313,"STATUS":"","Shape_Leng":1.23324872682,"Shape_Area":0.03001134627}},
{"type":"Feature","geometry":{"type":"Polygon","coordinates":[[[75.6769,30.3793],[75.6463,30.4407],[75.5584,30.4439],[75.4533,30.3983],[75.4557,30.3185],[75.5838,30.2282],[75.5869,30.2278],[75.6233,30.224],[75.7311,30.2751],[75.6555,30.3101],[75.6769,30.3793]]]},"properties":{"OBJECTID":12,"ST_CODE":3,"ST_NAME":"PUNJAB","DT_CODE":16,"DIST_NAME":"SANGRUR","AC_NO":103,"AC_NAME":"Barnala","PC_NO":12,"PC_NAME":"SANGRUR","PC_ID":312,"STATUS":"","Shape_Leng":1.14852564463,"Shape_Area":0.03651670523}},
{"type":"Feature","geometry":{"type":"Polygon","coordinates":[[[75.052,30.3879],[74.9307,30.368],[74.8217,30.3932],[74.7521,30.287],[74.8982,30.2431],[75.0048,30.1977],[75.0689,30.1504],[75.2211,30.2618],[75.0892,30.4173],[75.052,30.3879]]]},"properties":{"OBJECTID":11,"ST_CODE":3,"ST_NAME":"PUNJAB","DT_CODE":14,"DIST_NAME":"BATHINDA","AC_NO":91,"AC_NAME":"Bhucho Mandi (SC)","PC_NO":11,"PC_NAME":"BATHINDA","PC_ID":311,"STATUS":"","Shape_Leng":1.98176197371,"Shape_Area":0.06624810359}},
{"type":"Feature","geometry":{"type":"Polygon","coordinates":[[[76.4992,30.4628],[76.4312,30.4422],[76.4534,30.3324],[76.4039,30.2658],[76.334,30.1386],[76.4291,30.1507],[76.4675,30.0989],[76.5743,30.1009],[76.637,30.1474],[76.6429,30.15],[76.6357,30.2895],[76.499,30.346],[76.4992,30.4628]]]},"properties":{"OBJECTID":13,"ST_CODE":3,"ST_NAME":"PUNJAB","DT_CODE":17,"DIST_NAME":"PATIALA","AC_NO":114,"AC_NAME":"Sanour","PC_NO":13,"PC_NAME":"PATIALA","PC_ID":313,"STATUS":"","Shape_Leng":2.08687784042,"Shape_Area":0.05712585818}},
{"type":"Feature","geometry":{"type":"Polygon","coordinates":[[[74.3247,30.3297],[74.2631,30.2487],[74.3583,30.2406],[74.3891,30.0743],[74.4483,29.9472],[74.5267,29.9428],[74.6305,29.9051],[74.7062,29.9766],[74.6474,30.1547],[74.6165,30.1885],[74.5576,30.1206],[74.4583,30.1765],[74.4693,30.2324],[74.3247,30.3297]]]},"properties":{"OBJECTID":11,"ST_CODE":3,"ST_NAME":"PUNJAB","DT_CODE":12,"DIST_NAME":"MUKTSAR *","AC_NO":83,"AC_NAME":"Lambi","PC_NO":11,"PC_NAME":"BATHINDA","PC_ID":311,"STATUS":"","Shape_Leng":1.99500445486,"Shape_Area":0.07898160646}},
{"type":"Feature","geometry":{"type":"Polygon","coordinates":[[[74.2631,30.2487],[74.1388,30.2986],[74.05,30.2655],[74.0148,30.1983],[74.0654,30.1109],[74.0652,29.9684],[74.3509,29.9523],[74.4483,29.9472],[74.3891,30.0743],[74.3583,30.2406],[74.2631,30.2487]]]},"properties":{"OBJECTID":10,"ST_CODE":3,"ST_NAME":"PUNJAB","DT_CODE":11,"DIST_NAME":"FIROZPUR","AC_NO":82,"AC_NAME":"Balluana (SC)","PC_NO":10,"PC_NAME":"FIROZPUR","PC_ID":310,"STATUS":"","Shape_Leng":2.1499007135,"Shape_Area":0.09340482479}},
{"type":"Feature","geometry":{"type":"Polygon","coordinates":[[[76.25,30.3518],[76.202,30.2859],[76.0842,30.2187],[76.0562,30.1681],[76.0627,30.1488],[76.062,30.144],[76.0937,30.1165],[76.1961,30.1227],[76.334,30.1386],[76.4039,30.2658],[76.3625,30.2953],[76.3447,30.3767],[76.25,30.3518]]]},"properties":{"OBJECTID":13,"ST_CODE":3,"ST_NAME":"PUNJAB","DT_CODE":17,"DIST_NAME":"PATIALA","AC_NO":116,"AC_NAME":"Samana","PC_NO":13,"PC_NAME":"PATIALA","PC_ID":313,"STATUS":"","Shape_Leng":1.67297464755,"Shape_Area":0.05079510268}},
{"type":"Feature","geometry":{"type":"Polygon","coordinates":[[[75.9858,30.3632],[75.7801,30.294],[75.8352,30.2227],[76.0072,30.1791],[76.0264,30.1609],[76.0179,30.1532],[76.062,30.144],[76.0627,30.1488],[76.0562,30.1681],[76.0842,30.2187],[76.202,30.2859],[75.9858,30.3632]]]},"properties":{"OBJECTID":13,"ST_CODE":3,"ST_NAME":"PUNJAB","DT_CODE":16,"DIST_NAME":"SANGRUR","AC_NO":108,"AC_NAME":"Sangrur","PC_NO":13,"PC_NAME":"PATIALA","PC_ID":313,"STATUS":"","Shape_Leng":1.55501235702,"Shape_Area":0.04052007423}},
{"type":"Feature","geometry":{"type":"Polygon","coordinates":[[[75.3136,30.3272],[75.2211,30.2618],[75.0689,30.1504],[75.0447,30.0863],[75.1943,29.9807],[75.281,29.9795],[75.3696,30.1989],[75.3136,30.3272]]]},"properties":{"OBJECTID":11,"ST_CODE":3,"ST_NAME":"PUNJAB","DT_CODE":14,"DIST_NAME":"BATHINDA","AC_NO":95,"AC_NAME":"Maur","PC_NO":11,"PC_NAME":"BATHINDA","PC_ID":311,"STATUS":"","Shape_Leng":1.67434988526,"Shape_Area":0.059444133}},
{"type":"Feature","geometry":{"type":"Polygon","coordinates":[[[74.7521,30.287],[74.7039,30.1603],[74.6474,30.1547],[74.7062,29.9766],[74.8115,29.9921],[74.885,30.0868],[75.0447,30.0863],[75.0689,30.1504],[75.0048,30.1977],[74.9422,30.1625],[74.8982,30.2431],[74.7521,30.287]]]},"properties":{"OBJECTID":11,"ST_CODE":3,"ST_NAME":"PUNJAB","DT_CODE":14,"DIST_NAME":"BATHINDA","AC_NO":93,"AC_NAME":"Bathinda Rural (SC)","PC_NO":11,"PC_NAME":"BATHINDA","PC_ID":311,"STATUS":"","Shape_Leng":1.88408460956,"Shape_Area":0.06732505681}},
{"type":"Feature","geometry":{"type":"Polygon","coordinates":[[[76.3625,30.2953],[76.4039,30.2658],[76.4534,30.3324],[76.3625,30.2953]]]},"properties":{"OBJECTID":13,"ST_CODE":3,"ST_NAME":"PUNJAB","DT_CODE":17,"DIST_NAME":"PATIALA","AC_NO":115,"AC_NAME":"Patiala","PC_NO":13,"PC_NAME":"PATIALA","PC_ID":313,"STATUS":"","Shape_Leng":0.34469733318,"Shape_Area":0.00344560711}},
{"type":"Feature","geometry":{"type":"Polygon","coordinates":[[[75.0048,30.1977],[74.8982,30.2431],[74.9422,30.1625],[75.0048,30.1977]]]},"properties":{"OBJECTID":11,"ST_CODE":3,"ST_NAME":"PUNJAB","DT_CODE":14,"DIST_NAME":"BATHINDA","AC_NO":92,"AC_NAME":"Bathinda Urban","PC_NO":11,"PC_NAME":"BATHINDA","PC_ID":311,"STATUS":"","Shape_Leng":0.44966953184,"Shape_Area":0.0084953064}},
{"type":"Feature","geometry":{"type":"Polygon","coordinates":[[[75.7311,30.2751],[75.6233,30.224],[75.5869,30.2278],[75.5838,30.2282],[75.5769,30.1443],[75.6336,30.0698],[75.6406,30.0653],[75.7851,30.0756],[75.8809,30.1317],[76.0179,30.1532],[76.0264,30.1609],[76.0072,30.1791],[75.8352,30.2227],[75.7801,30.294],[75.7311,30.2751]]]},"properties":{"OBJECTID":12,"ST_CODE":3,"ST_NAME":"PUNJAB","DT_CODE":16,"DIST_NAME":"SANGRUR","AC_NO":101,"AC_NAME":"Sunam","PC_NO":12,"PC_NAME":"SANGRUR","PC_ID":312,"STATUS":"","Shape_Leng":1.63126710283,"Shape_Area":0.05394962946}},
{"type":"Feature","geometry":{"type":"Polygon","coordinates":[[[73.9755,30.1205],[73.9035,30.0491],[73.8941,29.9743],[74.0652,29.9684],[74.0654,30.1109],[74.0148,30.1983],[73.9755,30.1205]]]},"properties":{"OBJECTID":10,"ST_CODE":3,"ST_NAME":"PUNJAB","DT_CODE":11,"DIST_NAME":"FIROZPUR","AC_NO":81,"AC_NAME":"Abohar","PC_NO":10,"PC_NAME":"FIROZPUR","PC_ID":310,"STATUS":"","Shape_Leng":1.21326639913,"Shape_Area":0.03605740994}},
{"type":"Feature","geometry":{"type":"Polygon","coordinates":[[[75.3696,30.1989],[75.281,29.9795],[75.5199,29.995],[75.6336,30.0698],[75.5769,30.1443],[75.4612,30.1953],[75.3696,30.1989]]]},"properties":{"OBJECTID":11,"ST_CODE":3,"ST_NAME":"PUNJAB","DT_CODE":15,"DIST_NAME":"MANSA *","AC_NO":96,"AC_NAME":"Mansa","PC_NO":11,"PC_NAME":"BATHINDA","PC_ID":311,"STATUS":"","Shape_Leng":1.50825019774,"Shape_Area":0.0538687286}},
{"type":"Feature","geometry":{"type":"Polygon","coordinates":[[[76.0179,30.1532],[75.8809,30.1317],[75.7851,30.0756],[75.6406,30.0653],[75.688,30.0235],[75.6408,29.9369],[75.7657,29.9184],[75.8608,29.994],[75.9962,29.9482],[76.0937,30.1165],[76.062,30.144],[76.0179,30.1532]]]},"properties":{"OBJECTID":12,"ST_CODE":3,"ST_NAME":"PUNJAB","DT_CODE":16,"DIST_NAME":"SANGRUR","AC_NO":100,"AC_NAME":"Dirba (SC)","PC_NO":12,"PC_NAME":"SANGRUR","PC_ID":312,"STATUS":"","Shape_Leng":2.02876744984,"Shape_Area":0.06649470295}},
{"type":"Feature","geometry":{"type":"Polygon","coordinates":[[[76.1961,30.1227],[76.0937,30.1165],[75.9962,29.9482],[75.9822,29.9056],[76.1049,29.8121],[76.214,29.8425],[76.2151,29.8418],[76.2435,29.8633],[76.1713,29.9287],[76.2422,30.1006],[76.1961,30.1227]]]},"properties":{"OBJECTID":13,"ST_CODE":3,"ST_NAME":"PUNJAB","DT_CODE":17,"DIST_NAME":"PATIALA","AC_NO":117,"AC_NAME":"Shutrana (SC)","PC_NO":13,"PC_NAME":"PATIALA","PC_ID":313,"STATUS":"","Shape_Leng":1.53813236644,"Shape_Area":0.05450876468}},
{"type":"Feature","geometry":{"type":"Polygon","coordinates":[[[75.0447,30.0863],[74.885,30.0868],[74.8115,29.9921],[74.9265,29.9505],[74.9519,29.9029],[75.0701,29.8774],[75.135,29.8074],[75.1913,29.8409],[75.1943,29.9807],[75.0447,30.0863]]]},"properties":{"OBJECTID":11,"ST_CODE":3,"ST_NAME":"PUNJAB","DT_CODE":14,"DIST_NAME":"BATHINDA","AC_NO":94,"AC_NAME":"Talwandi Sabo","PC_NO":11,"PC_NAME":"BATHINDA","PC_ID":311,"STATUS":"","Shape_Leng":1.56602951732,"Shape_Area":0.06505603937}},
{"type":"Feature","geometry":{"type":"Polygon","coordinates":[[[75.6336,30.0698],[75.5199,29.995],[75.3802,29.8464],[75.4297,29.7739],[75.4578,29.7943],[75.6982,29.7533],[75.7375,29.8147],[75.7657,29.9184],[75.6408,29.9369],[75.688,30.0235],[75.6406,30.0653],[75.6336,30.0698]]]},"properties":{"OBJECTID":11,"ST_CODE":3,"ST_NAME":"PUNJAB","DT_CODE":15,"DIST_NAME":"MANSA *","AC_NO":98,"AC_NAME":"Budhlada (SC)","PC_NO":11,"PC_NAME":"BATHINDA","PC_ID":311,"STATUS":"","Shape_Leng":1.65186845278,"Shape_Area":0.06675849711}},
{"type":"Feature","geometry":{"type":"Polygon","coordinates":[[[75.281,29.9795],[75.1943,29.9807],[75.1913,29.8409],[75.2096,29.7384],[75.1825,29.6307],[75.3026,29.5601],[75.3465,29.6951],[75.4297,29.7739],[75.3802,29.8464],[75.5199,29.995],[75.281,29.9795]]]},"properties":{"OBJECTID":11,"ST_CODE":3,"ST_NAME":"PUNJAB","DT_CODE":15,"DIST_NAME":"MANSA *","AC_NO":97,"AC_NAME":"Sardulgarh","PC_NO":11,"PC_NAME":"BATHINDA","PC_ID":311,"STATUS":"","Shape_Leng":2.06345912909,"Shape_Area":0.0823729971}},
{"type":"Feature","geometry":{"type":"Polygon","coordinates":[[[75.7657,29.9184],[75.7375,29.8147],[75.8372,29.7942],[75.9465,29.7299],[76.1049,29.8121],[75.9822,29.9056],[75.9962,29.9482],[75.8608,29.994],[75.7657,29.9184]]]},"properties":{"OBJECTID":12,"ST_CODE":3,"ST_NAME":"PUNJAB","DT_CODE":16,"DIST_NAME":"SANGRUR","AC_NO":99,"AC_NAME":"Lehra","PC_NO":12,"PC_NAME":"SANGRUR","PC_ID":312,"STATUS":"","Shape_Leng":1.37399054323,"Shape_Area":0.05719868707}}
]}