{"type":"FeatureCollection", "features": [
{"type":"Feature","geometry":{"type":"Polygon","coordinates":[[[75.704,32.2673],[75.7725,32.2893],[75.8114,32.3487],[75.9204,32.4294],[75.8385,32.5099],[75.6873,32.3909],[75.5942,32.3769],[75.5388,32.3343],[75.5395,32.2951],[75.6027,32.2797],[75.6997,32.3109],[75.704,32.2673]]]},"properties":{"AC_NO":1,"AC_NAME":"Sujanpur","district":"PATHANKOT","PC_NO":1,"PC_NAME":"GURDASPUR"}},
{"type":"Feature","geometry":{"type":"Polygon","coordinates":[[[75.5395,32.2951],[75.4675,32.3256],[75.3626,32.3332],[75.3716,32.2246],[75.327,32.214],[75.4422,32.1669],[75.4379,32.159],[75.4344,32.1492],[75.5854,32.1411],[75.5723,32.2087],[75.5941,32.2693],[75.6476,32.2705],[75.6997,32.3109],[75.6027,32.2797],[75.5395,32.2951]]]},"properties":{"AC_NO":2,"AC_NAME":"Bhoa (SC)","district":"PATHANKOT","PC_NO":1,"PC_NAME":"GURDASPUR"}},
{"type":"Feature","geometry":{"type":"Polygon","coordinates":[[[75.6025,32.0867],[75.6726,32.1589],[75.6402,32.2516],[75.704,32.2673],[75.6997,32.3109],[75.6476,32.2705],[75.5941,32.2693],[75.5723,32.2087],[75.5854,32.1411],[75.6025,32.0867]]]},"properties":{"AC_NO":3,"AC_NAME":"Pathankot","district":"PATHANKOT","PC_NO":1,"PC_NAME":"GURDASPUR"}},
{"type":"Feature","geometry":{"type":"Polygon","coordinates":[[[75.6025,32.0867],[75.5854,32.1411],[75.4344,32.1492],[75.4379,32.159],[75.4422,32.1669],[75.327,32.214],[75.3223,32.1796],[75.2408,32.0922],[75.2619,32.0792],[75.4099,32.0798],[75.4415,32.0182],[75.4921,32.0071],[75.4827,31.9589],[75.5342,31.9603],[75.5963,32.086],[75.6025,32.0867]]]},"properties":{"AC_NO":5,"AC_NAME":"Dina Nagar (SC)","district":"GURDASPUR","PC_NO":1,"PC_NAME":"GURDASPUR"}},
{"type":"Feature","geometry":{"type":"Polygon","coordinates":[[[75.2619,32.0792],[75.2408,32.0922],[75.1227,32.0815],[74.9828,32.0402],[74.9083,32.0515],[74.9355,32.0115],[74.8894,31.9315],[74.9187,31.8873],[75.0053,31.9312],[75.0961,31.902],[75.1415,31.9192],[75.2696,31.868],[75.2927,31.8447],[75.3894,31.8368],[75.3526,31.8989],[75.2996,31.9312],[75.2506,31.9769],[75.2755,32.0063],[75.2619,32.0792]]]},"properties":{"AC_NO":10,"AC_NAME":"Dera Baba Nanak","district":"GURDASPUR","PC_NO":1,"PC_NAME":"GURDASPUR"}},
{"type":"Feature","geometry":{"type":"Polygon","coordinates":[[[75.2619,32.0792],[75.2755,32.0063],[75.2506,31.9769],[75.2996,31.9312],[75.3988,31.9592],[75.4267,31.8834],[75.4695,31.887],[75.4827,31.9589],[75.4921,32.0071],[75.4415,32.0182],[75.4099,32.0798],[75.2619,32.0792]]]},"properties":{"AC_NO":4,"AC_NAME":"Gurdaspur","district":"GURDASPUR","PC_NO":1,"PC_NAME":"GURDASPUR"}},
{"type":"Feature","geometry":{"type":"Polygon","coordinates":[[[75.9151,31.9319],[75.8508,31.982],[75.7234,32.0332],[75.6574,32.0777],[75.5963,32.086],[75.5342,31.9603],[75.5509,31.8905],[75.5875,31.8749],[75.7131,31.8976],[75.7227,31.9665],[75.7938,31.9671],[75.8098,31.9204],[75.9151,31.9319]]]},"properties":{"AC_NO":39,"AC_NAME":"Mukerian","district":"HOSHIARPUR","PC_NO":5,"PC_NAME":"HOSHIARPUR (SC)"}},
{"type":"Feature","geometry":{"type":"Polygon","coordinates":[[[74.9187,31.8873],[74.8894,31.9315],[74.9355,32.0115],[74.9083,32.0515],[74.8289,31.9992],[74.8189,31.9587],[74.7065,31.9212],[74.6346,31.8843],[74.7659,31.8147],[74.7694,31.767],[74.8845,31.7599],[74.9326,31.8353],[74.9619,31.841],[74.9187,31.8873]]]},"properties":{"AC_NO":11,"AC_NAME":"Ajnala","district":"AMRITSAR","PC_NO":2,"PC_NAME":"AMRITSAR"}},
{"type":"Feature","geometry":{"type":"Polygon","coordinates":[[[75.2927,31.8447],[75.2696,31.868],[75.1415,31.9192],[75.0961,31.902],[75.0053,31.9312],[74.9187,31.8873],[74.9619,31.841],[75.0608,31.8092],[75.099,31.7641],[75.2013,31.7278],[75.2332,31.7701],[75.1812,31.7925],[75.2048,31.8462],[75.2581,31.8206],[75.2927,31.8447]]]},"properties":{"AC_NO":9,"AC_NAME":"Fatehgarh Churian","district":"GURDASPUR","PC_NO":1,"PC_NAME":"GURDASPUR"}},
{"type":"Feature","geometry":{"type":"Polygon","coordinates":[[[75.5342,31.9603],[75.4827,31.9589],[75.4695,31.887],[75.4267,31.8834],[75.3988,31.9592],[75.2996,31.9312],[75.3526,31.8989],[75.3894,31.8368],[75.4299,31.7974],[75.5326,31.8105],[75.5352,31.7719],[75.5636,31.7997],[75.5509,31.8905],[75.5342,31.9603]]]},"properties":{"AC_NO":6,"AC_NAME":"Qadian","district":"GURDASPUR","PC_NO":1,"PC_NAME":"GURDASPUR"}},
{"type":"Feature","geometry":{"type":"Polygon","coordinates":[[[75.9354,31.8157],[75.9694,31.8308],[75.9151,31.9319],[75.8098,31.9204],[75.7938,31.9671],[75.7227,31.9665],[75.7131,31.8976],[75.5875,31.8749],[75.5509,31.8905],[75.5636,31.7997],[75.5352,31.7719],[75.5398,31.7468],[75.6081,31.7298],[75.6019,31.7814],[75.6771,31.7611],[75.7513,31.8197],[75.8095,31.8094],[75.8755,31.8331],[75.9354,31.8157]]]},"properties":{"AC_NO":40,"AC_NAME":"Dasuya","district":"HOSHIARPUR","PC_NO":5,"PC_NAME":"HOSHIARPUR (SC)"}},
{"type":"Feature","geometry":{"type":"Polygon","coordinates":[[[74.8845,31.7599],[74.7694,31.767],[74.7659,31.8147],[74.6346,31.8843],[74.5706,31.837],[74.5472,31.7494],[74.5019,31.6956],[74.5448,31.6484],[74.6531,31.621],[74.7353,31.6317],[74.7642,31.6773],[74.8707,31.7444],[74.8845,31.7599]]]},"properties":{"AC_NO":12,"AC_NAME":"Raja Sansi","district":"AMRITSAR","PC_NO":2,"PC_NAME":"AMRITSAR"}},
{"type":"Feature","geometry":{"type":"Polygon","coordinates":[[[74.8845,31.7599],[74.8707,31.7444],[75.0323,31.6913],[75.0583,31.6648],[75.1549,31.642],[75.2259,31.6477],[75.2609,31.6925],[75.2013,31.7278],[75.099,31.7641],[75.0608,31.8092],[74.9619,31.841],[74.9326,31.8353],[74.8845,31.7599]]]},"properties":{"AC_NO":13,"AC_NAME":"Majitha","district":"AMRITSAR","PC_NO":2,"PC_NAME":"AMRITSAR"}},
{"type":"Feature","geometry":{"type":"Polygon","coordinates":[[[75.2927,31.8447],[75.2581,31.8206],[75.2048,31.8462],[75.1812,31.7925],[75.2332,31.7701],[75.2696,31.785],[75.3415,31.7725],[75.4299,31.7974],[75.3894,31.8368],[75.2927,31.8447]]]},"properties":{"AC_NO":7,"AC_NAME":"Batala","district":"GURDASPUR","PC_NO":1,"PC_NAME":"GURDASPUR"}},
{"type":"Feature","geometry":{"type":"Polygon","coordinates":[[[75.5398,31.7468],[75.4746,31.6499],[75.5719,31.6357],[75.5943,31.6032],[75.6817,31.5902],[75.7143,31.5836],[75.7222,31.6759],[75.7601,31.6894],[75.7832,31.7403],[75.8672,31.7768],[75.8755,31.8331],[75.8095,31.8094],[75.7513,31.8197],[75.6771,31.7611],[75.6019,31.7814],[75.6081,31.7298],[75.5398,31.7468]]]},"properties":{"AC_NO":41,"AC_NAME":"Urmar","district":"HOSHIARPUR","PC_NO":5,"PC_NAME":"HOSHIARPUR (SC)"}},
{"type":"Feature","geometry":{"type":"Polygon","coordinates":[[[75.2332,31.7701],[75.2013,31.7278],[75.2609,31.6925],[75.302,31.6527],[75.4044,31.5937],[75.4746,31.6499],[75.5398,31.7468],[75.5352,31.7719],[75.5326,31.8105],[75.4299,31.7974],[75.3415,31.7725],[75.2696,31.785],[75.2332,31.7701]]]},"properties":{"AC_NO":8,"AC_NAME":"Sri Hargobindpur (S","district":"GURDASPUR","PC_NO":5,"PC_NAME":"HOSHIARPUR (SC)"}},
{"type":"Feature","geometry":{"type":"Polygon","coordinates":[[[76.0005,31.6838],[75.9354,31.8157],[75.8755,31.8331],[75.8672,31.7768],[75.7832,31.7403],[75.7601,31.6894],[75.7222,31.6759],[75.7143,31.5836],[75.6817,31.5902],[75.7168,31.5202],[75.816,31.4312],[75.8685,31.4851],[75.882,31.5482],[75.9587,31.6222],[76.0005,31.6838]]]},"properties":{"AC_NO":42,"AC_NAME":"Sham Chaurasi (SC)","district":"HOSHIARPUR","PC_NO":5,"PC_NAME":"HOSHIARPUR (SC)"}},
{"type":"Feature","geometry":{"type":"Polygon","coordinates":[[[74.5448,31.6484],[74.5554,31.6079],[74.6143,31.5511],[74.6108,31.499],[74.6492,31.5404],[74.6983,31.539],[74.7953,31.5706],[74.8436,31.5316],[74.9407,31.5212],[74.9932,31.5869],[74.9513,31.6053],[74.947,31.5993],[74.9213,31.5818],[74.81,31.6005],[74.7726,31.6248],[74.8626,31.6667],[74.9187,31.6627],[74.9305,31.6475],[74.9685,31.6374],[75.0323,31.6913],[74.8707,31.7444],[74.7642,31.6773],[74.7353,31.6317],[74.6531,31.621],[74.5448,31.6484]]]},"properties":{"AC_NO":20,"AC_NAME":"Attari (SC)","district":"AMRITSAR","PC_NO":2,"PC_NAME":"AMRITSAR"}},
{"type":"Feature","geometry":{"type":"Polygon","coordinates":[[[74.81,31.6005],[74.8562,31.6132],[74.8652,31.6367],[74.8626,31.6667],[74.7726,31.6248],[74.81,31.6005]]]},"properties":{"AC_NO":16,"AC_NAME":"Amritsar West (SC)","district":"AMRITSAR","PC_NO":2,"PC_NAME":"AMRITSAR"}},
{"type":"Feature","geometry":{"type":"Polygon","coordinates":[[[75.2609,31.6925],[75.2259,31.6477],[75.1549,31.642],[75.0583,31.6648],[75.0323,31.6913],[74.9685,31.6374],[74.9305,31.6475],[74.9513,31.6053],[74.9932,31.5869],[74.9407,31.5212],[74.9382,31.5094],[74.982,31.5268],[75.0483,31.517],[75.1188,31.5558],[75.1575,31.5526],[75.212,31.6061],[75.2967,31.6237],[75.302,31.6527],[75.2609,31.6925]]]},"properties":{"AC_NO":14,"AC_NAME":"Jandiala (SC)","district":"AMRITSAR","PC_NO":3,"PC_NAME":"KHADOOR SAHIB"}},
{"type":"Feature","geometry":{"type":"Polygon","coordinates":[[[74.9187,31.6627],[74.8828,31.6338],[74.8837,31.6218],[74.947,31.5993],[74.9513,31.6053],[74.9305,31.6475],[74.9187,31.6627]]]},"properties":{"AC_NO":18,"AC_NAME":"Amritsar East","district":"AMRITSAR","PC_NO":2,"PC_NAME":"AMRITSAR"}},
{"type":"Feature","geometry":{"type":"Polygon","coordinates":[[[74.8626,31.6667],[74.8652,31.6367],[74.8828,31.6338],[74.9187,31.6627],[74.8626,31.6667]]]},"properties":{"AC_NO":15,"AC_NAME":"Amritsar North","district":"AMRITSAR","PC_NO":2,"PC_NAME":"AMRITSAR"}},
{"type":"Feature","geometry":{"type":"Polygon","coordinates":[[[76.1043,31.5169],[76.0171,31.6316],[76.0005,31.6838],[75.9587,31.6222],[75.882,31.5482],[75.8685,31.4851],[76.0193,31.4654],[76.1043,31.5169]]]},"properties":{"AC_NO":43,"AC_NAME":"Hoshiarpur","district":"HOSHIARPUR","PC_NO":5,"PC_NAME":"HOSHIARPUR (SC)"}},
{"type":"Feature","geometry":{"type":"Polygon","coordinates":[[[74.8562,31.6132],[74.8837,31.6218],[74.8828,31.6338],[74.8652,31.6367],[74.8562,31.6132]]]},"properties":{"AC_NO":17,"AC_NAME":"Amritsar Central","district":"AMRITSAR","PC_NO":2,"PC_NAME":"AMRITSAR"}},
{"type":"Feature","geometry":{"type":"Polygon","coordinates":[[[75.4044,31.5937],[75.302,31.6527],[75.2967,31.6237],[75.212,31.6061],[75.1575,31.5526],[75.1188,31.5558],[75.0483,31.517],[75.0081,31.4475],[75.0512,31.295],[75.0808,31.2575],[75.1182,31.3203],[75.2311,31.4503],[75.2836,31.4819],[75.3271,31.5445],[75.4044,31.5937]]]},"properties":{"AC_NO":25,"AC_NAME":"Baba Bakala (SC)","district":"TARN TARAN","PC_NO":3,"PC_NAME":"KHADOOR SAHIB"}},
{"type":"Feature","geometry":{"type":"Polygon","coordinates":[[[75.5943,31.6032],[75.5719,31.6357],[75.4746,31.6499],[75.4044,31.5937],[75.3271,31.5445],[75.2836,31.4819],[75.2311,31.4503],[75.284,31.4144],[75.3666,31.4578],[75.4426,31.4323],[75.4411,31.4948],[75.5175,31.5122],[75.5961,31.5554],[75.5943,31.6032]]]},"properties":{"AC_NO":26,"AC_NAME":"Bholath","district":"KAPURTHALA","PC_NO":5,"PC_NAME":"HOSHIARPUR (SC)"}},
{"type":"Feature","geometry":{"type":"Polygon","coordinates":[[[74.947,31.5993],[74.8837,31.6218],[74.8562,31.6132],[74.81,31.6005],[74.9213,31.5818],[74.947,31.5993]]]},"properties":{"AC_NO":19,"AC_NAME":"Amritsar South","district":"AMRITSAR","PC_NO":2,"PC_NAME":"AMRITSAR"}},
{"type":"Feature","geometry":{"type":"Polygon","coordinates":[[[75.6817,31.5902],[75.5943,31.6032],[75.5961,31.5554],[75.6461,31.5465],[75.5891,31.4709],[75.6657,31.3704],[75.6623,31.3364],[75.6591,31.2948],[75.6744,31.2824],[75.6864,31.3183],[75.7404,31.3263],[75.7877,31.3687],[75.816,31.4312],[75.7168,31.5202],[75.6817,31.5902]]]},"properties":{"AC_NO":38,"AC_NAME":"Adampur (SC)","district":"JALANDHAR","PC_NO":4,"PC_NAME":"JALANDHAR (SC)"}},
{"type":"Feature","geometry":{"type":"Polygon","coordinates":[[[74.9407,31.5212],[74.8436,31.5316],[74.7953,31.5706],[74.6983,31.539],[74.6492,31.5404],[74.6108,31.499],[74.6546,31.4263],[74.7176,31.4317],[74.7706,31.3846],[74.8322,31.3966],[74.8308,31.4412],[74.9039,31.4241],[74.9418,31.462],[74.9382,31.5094],[74.9407,31.5212]]]},"properties":{"AC_NO":21,"AC_NAME":"Tarn Taran","district":"TARN TARAN","PC_NO":3,"PC_NAME":"KHADOOR SAHIB"}},
{"type":"Feature","geometry":{"type":"Polygon","coordinates":[[[75.5961,31.5554],[75.5175,31.5122],[75.4411,31.4948],[75.4426,31.4323],[75.4365,31.3839],[75.4811,31.3521],[75.4609,31.2355],[75.5226,31.2241],[75.5502,31.2682],[75.5598,31.3241],[75.562,31.3616],[75.6262,31.3863],[75.6657,31.3704],[75.5891,31.4709],[75.6461,31.5465],[75.5961,31.5554]]]},"properties":{"AC_NO":33,"AC_NAME":"Kartarpur (SC)","district":"JALANDHAR","PC_NO":4,"PC_NAME":"JALANDHAR (SC)"}},
{"type":"Feature","geometry":{"type":"Polygon","coordinates":[[[75.0483,31.517],[74.982,31.5268],[74.9382,31.5094],[74.9418,31.462],[74.9039,31.4241],[74.8308,31.4412],[74.8322,31.3966],[74.7706,31.3846],[74.8217,31.3233],[74.908,31.363],[74.8996,31.2541],[74.9351,31.2385],[74.94,31.1875],[74.9855,31.1576],[75.0477,31.1908],[75.0808,31.2575],[75.0512,31.295],[75.0081,31.4475],[75.0483,31.517]]]},"properties":{"AC_NO":24,"AC_NAME":"Khadoor Sahib","district":"TARN TARAN","PC_NO":3,"PC_NAME":"KHADOOR SAHIB"}},
{"type":"Feature","geometry":{"type":"Polygon","coordinates":[[[76.1566,31.3475],[76.1688,31.3973],[76.1043,31.5169],[76.0193,31.4654],[75.8685,31.4851],[75.816,31.4312],[75.7877,31.3687],[75.8912,31.3402],[75.8924,31.276],[75.9923,31.2588],[76.0316,31.2721],[75.9705,31.3459],[76.0365,31.3773],[76.1,31.3468],[76.1566,31.3475]]]},"properties":{"AC_NO":44,"AC_NAME":"Chabbewal (SC)","district":"HOSHIARPUR","PC_NO":5,"PC_NAME":"HOSHIARPUR (SC)"}},
{"type":"Feature","geometry":{"type":"Polygon","coordinates":[[[74.6546,31.4263],[74.5965,31.4163],[74.5517,31.3644],[74.5103,31.132],[74.5513,31.0865],[74.6032,31.1337],[74.6891,31.128],[74.7407,31.1581],[74.8226,31.2816],[74.8217,31.3233],[74.7706,31.3846],[74.7176,31.4317],[74.6546,31.4263]]]},"properties":{"AC_NO":22,"AC_NAME":"Khem Karan","district":"TARN TARAN","PC_NO":3,"PC_NAME":"KHADOOR SAHIB"}},
{"type":"Feature","geometry":{"type":"Polygon","coordinates":[[[75.4426,31.4323],[75.3666,31.4578],[75.284,31.4144],[75.3341,31.4013],[75.337,31.3004],[75.3108,31.2529],[75.3448,31.2319],[75.3646,31.2268],[75.418,31.2496],[75.4609,31.2355],[75.4811,31.3521],[75.4365,31.3839],[75.4426,31.4323]]]},"properties":{"AC_NO":27,"AC_NAME":"Kapurthala","district":"KAPURTHALA","PC_NO":3,"PC_NAME":"KHADOOR SAHIB"}},
{"type":"Feature","geometry":{"type":"Polygon","coordinates":[[[75.2311,31.4503],[75.1182,31.3203],[75.0808,31.2575],[75.0477,31.1908],[74.9855,31.1576],[74.9644,31.1533],[75.0807,31.1511],[75.133,31.1703],[75.2699,31.1483],[75.2736,31.1835],[75.3448,31.2319],[75.3108,31.2529],[75.337,31.3004],[75.3341,31.4013],[75.284,31.4144],[75.2311,31.4503]]]},"properties":{"AC_NO":28,"AC_NAME":"Sultanpur Lodhi","district":"KAPURTHALA","PC_NO":3,"PC_NAME":"KHADOOR SAHIB"}},
{"type":"Feature","geometry":{"type":"Polygon","coordinates":[[[76.6115,31.046],[76.6378,31.1108],[76.6017,31.1234],[76.6059,31.1757],[76.645,31.2073],[76.5857,31.2751],[76.5596,31.2525],[76.4317,31.3268],[76.404,31.3938],[76.3477,31.3975],[76.3226,31.3216],[76.2888,31.3064],[76.3267,31.2679],[76.3605,31.2755],[76.4237,31.2212],[76.4803,31.2466],[76.542,31.1339],[76.5734,31.1187],[76.5577,31.0586],[76.6115,31.046]]]},"properties":{"AC_NO":49,"AC_NAME":"Anandpur Sahib","district":"RUPNAGAR","PC_NO":6,"PC_NAME":"ANANDPUR SAHIB"}},
{"type":"Feature","geometry":{"type":"Polygon","coordinates":[[[74.9855,31.1576],[74.94,31.1875],[74.9351,31.2385],[74.8996,31.2541],[74.908,31.363],[74.8217,31.3233],[74.8226,31.2816],[74.7407,31.1581],[74.6891,31.128],[74.6957,31.0743],[74.7665,31.1275],[74.8032,31.1189],[74.897,31.1599],[74.9644,31.1533],[74.9855,31.1576]]]},"properties":{"AC_NO":23,"AC_NAME":"Patti","district":"TARN TARAN","PC_NO":3,"PC_NAME":"KHADOOR SAHIB"}},
{"type":"Feature","geometry":{"type":"Polygon","coordinates":[[[75.6657,31.3704],[75.6262,31.3863],[75.562,31.3616],[75.5598,31.3241],[75.5968,31.3196],[75.6623,31.3364],[75.6657,31.3704]]]},"properties":{"AC_NO":36,"AC_NAME":"Jalandhar North","district":"JALANDHAR","PC_NO":4,"PC_NAME":"JALANDHAR (SC)"}},
{"type":"Feature","geometry":{"type":"Polygon","coordinates":[[[76.2888,31.3064],[76.1886,31.2999],[76.1566,31.3475],[76.1,31.3468],[76.0365,31.3773],[75.9705,31.3459],[76.0316,31.2721],[75.9923,31.2588],[76.0491,31.2142],[76.1369,31.1474],[76.1934,31.1339],[76.2365,31.1868],[76.238,31.2435],[76.3291,31.2252],[76.3267,31.2679],[76.2888,31.3064]]]},"properties":{"AC_NO":45,"AC_NAME":"Garhshankar","district":"HOSHIARPUR","PC_NO":6,"PC_NAME":"ANANDPUR SAHIB"}},
{"type":"Feature","geometry":{"type":"Polygon","coordinates":[[[75.7877,31.3687],[75.7404,31.3263],[75.6864,31.3183],[75.6744,31.2824],[75.7114,31.2197],[75.7086,31.1651],[75.7699,31.1603],[75.787,31.198],[75.8924,31.276],[75.8912,31.3402],[75.7877,31.3687]]]},"properties":{"AC_NO":29,"AC_NAME":"Phagwara (SC)","district":"KAPURTHALA","PC_NO":5,"PC_NAME":"HOSHIARPUR (SC)"}},
{"type":"Feature","geometry":{"type":"Polygon","coordinates":[[[75.6623,31.3364],[75.5968,31.3196],[75.6144,31.2903],[75.6591,31.2948],[75.6623,31.3364]]]},"properties":{"AC_NO":35,"AC_NAME":"Jalandhar Central","district":"JALANDHAR","PC_NO":4,"PC_NAME":"JALANDHAR (SC)"}},
{"type":"Feature","geometry":{"type":"Polygon","coordinates":[[[75.5502,31.2682],[75.6144,31.2903],[75.5968,31.3196],[75.5598,31.3241],[75.5502,31.2682]]]},"properties":{"AC_NO":34,"AC_NAME":"Jalandhar West (SC)","district":"JALANDHAR","PC_NO":4,"PC_NAME":"JALANDHAR (SC)"}},
{"type":"Feature","geometry":{"type":"Polygon","coordinates":[[[75.6591,31.2948],[75.6144,31.2903],[75.5502,31.2682],[75.5226,31.2241],[75.5978,31.2167],[75.6406,31.1421],[75.7086,31.1651],[75.7114,31.2197],[75.6744,31.2824],[75.6591,31.2948]]]},"properties":{"AC_NO":37,"AC_NAME":"Jalandhar Cantt.","district":"JALANDHAR","PC_NO":4,"PC_NAME":"JALANDHAR (SC)"}},
{"type":"Feature","geometry":{"type":"Polygon","coordinates":[[[75.9923,31.2588],[75.8924,31.276],[75.787,31.198],[75.8978,31.1542],[75.9323,31.0737],[76.0163,31.0815],[76.0627,31.125],[76.0321,31.1618],[76.0491,31.2142],[75.9923,31.2588]]]},"properties":{"AC_NO":46,"AC_NAME":"Banga (SC)","district":"SHAHID BHAGAT SINGH NAGAR","PC_NO":6,"PC_NAME":"ANANDPUR SAHIB"}},
{"type":"Feature","geometry":{"type":"Polygon","coordinates":[[[75.4609,31.2355],[75.418,31.2496],[75.3646,31.2268],[75.3443,31.1495],[75.4085,31.0973],[75.4571,31.1033],[75.5274,31.0692],[75.562,30.9772],[75.6512,30.9803],[75.6849,30.9916],[75.6594,31.125],[75.6406,31.1421],[75.5978,31.2167],[75.5226,31.2241],[75.4609,31.2355]]]},"properties":{"AC_NO":31,"AC_NAME":"Nakodar","district":"JALANDHAR","PC_NO":4,"PC_NAME":"JALANDHAR (SC)"}},
{"type":"Feature","geometry":{"type":"Polygon","coordinates":[[[76.7371,30.9389],[76.6239,30.9987],[76.6115,31.046],[76.5577,31.0586],[76.5734,31.1187],[76.542,31.1339],[76.4803,31.2466],[76.4237,31.2212],[76.3605,31.2755],[76.3267,31.2679],[76.3291,31.2252],[76.4675,31.0317],[76.4579,30.9744],[76.5372,30.9228],[76.6275,30.9017],[76.7371,30.9389]]]},"properties":{"AC_NO":50,"AC_NAME":"Rupnagar","district":"RUPNAGAR","PC_NO":6,"PC_NAME":"ANANDPUR SAHIB"}},
{"type":"Feature","geometry":{"type":"Polygon","coordinates":[[[75.3646,31.2268],[75.3448,31.2319],[75.2736,31.1835],[75.2699,31.1483],[75.133,31.1703],[75.0807,31.1511],[75.1458,31.0857],[75.1772,31.0531],[75.2912,31.0357],[75.3566,30.9902],[75.4992,30.9703],[75.562,30.9772],[75.5274,31.0692],[75.4571,31.1033],[75.4085,31.0973],[75.3443,31.1495],[75.3646,31.2268]]]},"properties":{"AC_NO":32,"AC_NAME":"Shahkot","district":"JALANDHAR","PC_NO":4,"PC_NAME":"JALANDHAR (SC)"}},
{"type":"Feature","geometry":{"type":"Polygon","coordinates":[[[76.3291,31.2252],[76.238,31.2435],[76.2365,31.1868],[76.1934,31.1339],[76.242,31.0864],[76.257,30.9955],[76.304,30.9885],[76.3585,30.9688],[76.4579,30.9744],[76.4675,31.0317],[76.3291,31.2252]]]},"properties":{"AC_NO":48,"AC_NAME":"Balachaur","district":"SHAHID BHAGAT SINGH NAGAR","PC_NO":6,"PC_NAME":"ANANDPUR SAHIB"}},
{"type":"Feature","geometry":{"type":"Polygon","coordinates":[[[76.1934,31.1339],[76.1369,31.1474],[76.0491,31.2142],[76.0321,31.1618],[76.0627,31.125],[76.0163,31.0815],[75.9323,31.0737],[75.957,31.0171],[75.9716,31.0037],[76.1425,30.9873],[76.1819,31.0058],[76.257,30.9955],[76.242,31.0864],[76.1934,31.1339]]]},"properties":{"AC_NO":47,"AC_NAME":"Nawan Shahr","district":"SHAHID BHAGAT SINGH NAGAR","PC_NO":6,"PC_NAME":"ANANDPUR SAHIB"}},
{"type":"Feature","geometry":{"type":"Polygon","coordinates":[[[75.787,31.198],[75.7699,31.1603],[75.7086,31.1651],[75.6406,31.1421],[75.6594,31.125],[75.6849,30.9916],[75.7635,31.0136],[75.8233,30.9996],[75.957,31.0171],[75.9323,31.0737],[75.8978,31.1542],[75.787,31.198]]]},"properties":{"AC_NO":30,"AC_NAME":"Phillaur (SC)","district":"JALANDHAR","PC_NO":4,"PC_NAME":"JALANDHAR (SC)"}},
{"type":"Feature","geometry":{"type":"Polygon","coordinates":[[[75.0807,31.1511],[74.9644,31.1533],[74.897,31.1599],[74.8032,31.1189],[74.8008,31.0441],[74.7851,31.0112],[74.8201,30.9429],[74.867,30.9056],[74.9437,30.8779],[75.0304,30.8968],[75.0938,30.9755],[75.0836,31.0688],[75.1458,31.0857],[75.0807,31.1511]]]},"properties":{"AC_NO":75,"AC_NAME":"Zira","district":"FIROZPUR","PC_NO":3,"PC_NAME":"KHADOOR SAHIB"}},
{"type":"Feature","geometry":{"type":"Polygon","coordinates":[[[74.8032,31.1189],[74.7665,31.1275],[74.6957,31.0743],[74.6131,31.0448],[74.5682,31.0548],[74.5464,30.9924],[74.5162,30.9795],[74.6044,30.8948],[74.6829,30.9435],[74.7503,31.0566],[74.8008,31.0441],[74.8032,31.1189]]]},"properties":{"AC_NO":76,"AC_NAME":"Firozpur City","district":"FIROZPUR","PC_NO":10,"PC_NAME":"FIROZPUR"}},
{"type":"Feature","geometry":{"type":"Polygon","coordinates":[[[74.8008,31.0441],[74.7503,31.0566],[74.6829,30.9435],[74.6044,30.8948],[74.5162,30.9795],[74.4569,30.9642],[74.3659,30.8929],[74.3736,30.8593],[74.3885,30.8158],[74.5005,30.8604],[74.511,30.8314],[74.595,30.8088],[74.6246,30.8354],[74.754,30.813],[74.8123,30.7694],[74.91,30.7373],[74.9312,30.7888],[74.9437,30.8779],[74.867,30.9056],[74.8201,30.9429],[74.7851,31.0112],[74.8008,31.0441]]]},"properties":{"AC_NO":77,"AC_NAME":"Firozpur Rural (SC)","district":"FIROZPUR","PC_NO":10,"PC_NAME":"FIROZPUR"}},
{"type":"Feature","geometry":{"type":"Polygon","coordinates":[[[75.6849,30.9916],[75.6512,30.9803],[75.686,30.9137],[75.749,30.8818],[75.787,30.7389],[75.822,30.6906],[75.8437,30.6805],[75.895,30.6985],[75.9528,30.8081],[75.9177,30.8465],[75.8603,30.8568],[75.8139,30.8726],[75.7993,30.9243],[75.838,30.956],[75.8233,30.9996],[75.7635,31.0136],[75.6849,30.9916]]]},"properties":{"AC_NO":66,"AC_NAME":"Gill (SC)","district":"LUDHIANA","PC_NO":7,"PC_NAME":"LUDHIANA"}},
{"type":"Feature","geometry":{"type":"Polygon","coordinates":[[[76.1425,30.9873],[75.9716,31.0037],[75.957,31.0171],[75.8233,30.9996],[75.838,30.956],[75.8666,30.9314],[75.9579,30.883],[75.9441,30.8588],[75.9177,30.8465],[75.9528,30.8081],[76.0791,30.8175],[76.1315,30.889],[76.1425,30.9873]]]},"properties":{"AC_NO":59,"AC_NAME":"Sahnewal","district":"LUDHIANA","PC_NO":8,"PC_NAME":"FATEHGARH SAHIB (SC"}},
{"type":"Feature","geometry":{"type":"Polygon","coordinates":[[[75.4992,30.9703],[75.3566,30.9902],[75.3771,30.913],[75.3729,30.8514],[75.3964,30.8087],[75.3677,30.6855],[75.4086,30.5833],[75.4643,30.6057],[75.4602,30.6586],[75.5205,30.674],[75.5499,30.7216],[75.4943,30.7359],[75.4801,30.7835],[75.5619,30.8277],[75.5419,30.8738],[75.466,30.885],[75.4424,30.9086],[75.4992,30.9703]]]},"properties":{"AC_NO":70,"AC_NAME":"Jagraon (SC)","district":"LUDHIANA","PC_NO":7,"PC_NAME":"LUDHIANA"}},
{"type":"Feature","geometry":{"type":"Polygon","coordinates":[[[76.304,30.9885],[76.257,30.9955],[76.1819,31.0058],[76.1425,30.9873],[76.1315,30.889],[76.0791,30.8175],[76.0727,30.8098],[76.0946,30.7716],[76.1787,30.7277],[76.2405,30.7516],[76.2755,30.7344],[76.3109,30.7562],[76.2812,30.8303],[76.3195,30.8771],[76.304,30.9885]]]},"properties":{"AC_NO":58,"AC_NAME":"Samrala","district":"LUDHIANA","PC_NO":8,"PC_NAME":"FATEHGARH SAHIB (SC"}},
{"type":"Feature","geometry":{"type":"Polygon","coordinates":[[[75.6512,30.9803],[75.562,30.9772],[75.4992,30.9703],[75.4424,30.9086],[75.466,30.885],[75.5419,30.8738],[75.5619,30.8277],[75.4801,30.7835],[75.4943,30.7359],[75.5499,30.7216],[75.5957,30.7838],[75.6519,30.7852],[75.6921,30.7366],[75.7296,30.7443],[75.763,30.6652],[75.822,30.6906],[75.787,30.7389],[75.749,30.8818],[75.686,30.9137],[75.6512,30.9803]]]},"properties":{"AC_NO":68,"AC_NAME":"Dakha","district":"LUDHIANA","PC_NO":7,"PC_NAME":"LUDHIANA"}},
{"type":"Feature","geometry":{"type":"Polygon","coordinates":[[[76.6275,30.9017],[76.5372,30.9228],[76.4579,30.9744],[76.3585,30.9688],[76.304,30.9885],[76.3195,30.8771],[76.4112,30.84],[76.4695,30.7454],[76.5218,30.7575],[76.5716,30.6758],[76.6264,30.7219],[76.5584,30.7856],[76.553,30.8383],[76.6024,30.8577],[76.6275,30.9017]]]},"properties":{"AC_NO":51,"AC_NAME":"Chamkaur Sahib (SC)","district":"RUPNAGAR","PC_NO":6,"PC_NAME":"ANANDPUR SAHIB"}},
{"type":"Feature","geometry":{"type":"Polygon","coordinates":[[[75.7993,30.9243],[75.852,30.9076],[75.8667,30.9312],[75.8666,30.9314],[75.838,30.956],[75.7993,30.9243]]]},"properties":{"AC_NO":65,"AC_NAME":"Ludhiana North","district":"LUDHIANA","PC_NO":7,"PC_NAME":"LUDHIANA"}},
{"type":"Feature","geometry":{"type":"Polygon","coordinates":[[[75.8666,30.9314],[75.8667,30.9312],[75.8885,30.8974],[75.9441,30.8588],[75.9579,30.883],[75.8666,30.9314]]]},"properties":{"AC_NO":60,"AC_NAME":"Ludhiana East","district":"LUDHIANA","PC_NO":7,"PC_NAME":"LUDHIANA"}},
{"type":"Feature","geometry":{"type":"Polygon","coordinates":[[[75.852,30.9076],[75.8535,30.8976],[75.8651,30.8922],[75.8885,30.8974],[75.8667,30.9312],[75.852,30.9076]]]},"properties":{"AC_NO":63,"AC_NAME":"Ludhiana Central","district":"LUDHIANA","PC_NO":7,"PC_NAME":"LUDHIANA"}},
{"type":"Feature","geometry":{"type":"Polygon","coordinates":[[[75.0304,30.8968],[74.9437,30.8779],[74.9312,30.7888],[74.959,30.7711],[75.0575,30.7826],[75.1203,30.7363],[75.1181,30.71],[75.1962,30.6849],[75.2162,30.7452],[75.1945,30.7573],[75.2025,30.8328],[75.1318,30.8806],[75.0304,30.8968]]]},"properties":{"AC_NO":73,"AC_NAME":"Moga","district":"MOGA","PC_NO":9,"PC_NAME":"FARIDKOT (SC)"}},
{"type":"Feature","geometry":{"type":"Polygon","coordinates":[[[75.8139,30.8726],[75.8535,30.8976],[75.852,30.9076],[75.7993,30.9243],[75.8139,30.8726]]]},"properties":{"AC_NO":64,"AC_NAME":"Ludhiana West","district":"LUDHIANA","PC_NO":7,"PC_NAME":"LUDHIANA"}},
{"type":"Feature","geometry":{"type":"Polygon","coordinates":[[[74.595,30.8088],[74.511,30.8314],[74.5005,30.8604],[74.3885,30.8158],[74.3736,30.8593],[74.3204,30.8466],[74.1693,30.6487],[74.1935,30.6253],[74.3133,30.5994],[74.3774,30.5577],[74.3687,30.5884],[74.4853,30.6376],[74.5042,30.6689],[74.47,30.7483],[74.595,30.8088]]]},"properties":{"AC_NO":78,"AC_NAME":"Guru Har Sahai","district":"FIROZPUR","PC_NO":10,"PC_NAME":"FIROZPUR"}},
{"type":"Feature","geometry":{"type":"Polygon","coordinates":[[[76.7174,30.7631],[76.7714,30.7952],[76.8177,30.7604],[76.8577,30.7948],[76.8477,30.8347],[76.7813,30.8787],[76.7371,30.9389],[76.6275,30.9017],[76.6024,30.8577],[76.553,30.8383],[76.5584,30.7856],[76.6264,30.7219],[76.5716,30.6758],[76.6335,30.6201],[76.6514,30.6261],[76.6372,30.6751],[76.7174,30.7631]]]},"properties":{"AC_NO":52,"AC_NAME":"Kharar","district":"SAS NAGAR (SAHIBZADA AJIT SINGH NAGAR)","PC_NO":6,"PC_NAME":"ANANDPUR SAHIB"}},
{"type":"Feature","geometry":{"type":"Polygon","coordinates":[[[75.8603,30.8568],[75.8651,30.8922],[75.8535,30.8976],[75.8139,30.8726],[75.8603,30.8568]]]},"properties":{"AC_NO":62,"AC_NAME":"Atam Nagar","district":"LUDHIANA","PC_NO":7,"PC_NAME":"LUDHIANA"}},
{"type":"Feature","geometry":{"type":"Polygon","coordinates":[[[75.9177,30.8465],[75.9441,30.8588],[75.8885,30.8974],[75.8651,30.8922],[75.8603,30.8568],[75.9177,30.8465]]]},"properties":{"AC_NO":61,"AC_NAME":"Ludhiana South","district":"LUDHIANA","PC_NO":7,"PC_NAME":"LUDHIANA"}},
{"type":"Feature","geometry":{"type":"Polygon","coordinates":[[[75.3566,30.9902],[75.2912,31.0357],[75.1772,31.0531],[75.1458,31.0857],[75.0836,31.0688],[75.0938,30.9755],[75.0304,30.8968],[75.1318,30.8806],[75.2025,30.8328],[75.1945,30.7573],[75.2162,30.7452],[75.222,30.7861],[75.2866,30.7912],[75.3149,30.8655],[75.3729,30.8514],[75.3771,30.913],[75.3566,30.9902]]]},"properties":{"AC_NO":74,"AC_NAME":"Dharamkot","district":"MOGA","PC_NO":9,"PC_NAME":"FARIDKOT (SC)"}},
{"type":"Feature","geometry":{"type":"Polygon","coordinates":[[[75.4086,30.5833],[75.3677,30.6855],[75.3964,30.8087],[75.3729,30.8514],[75.3149,30.8655],[75.2866,30.7912],[75.222,30.7861],[75.2162,30.7452],[75.1962,30.6849],[75.1636,30.5798],[75.1818,30.5095],[75.2824,30.5076],[75.4007,30.5283],[75.4086,30.5833]]]},"properties":{"AC_NO":71,"AC_NAME":"Nihal Singhwala (SC","district":"MOGA","PC_NO":9,"PC_NAME":"FARIDKOT (SC)"}},
{"type":"Feature","geometry":{"type":"Polygon","coordinates":[[[74.8123,30.7694],[74.754,30.813],[74.6246,30.8354],[74.595,30.8088],[74.47,30.7483],[74.5042,30.6689],[74.5895,30.6583],[74.636,30.6158],[74.7204,30.6473],[74.7822,30.6245],[74.7784,30.7134],[74.8123,30.7694]]]},"properties":{"AC_NO":87,"AC_NAME":"Faridkot","district":"FARIDKOT","PC_NO":9,"PC_NAME":"FARIDKOT (SC)"}},
{"type":"Feature","geometry":{"type":"Polygon","coordinates":[[[75.8437,30.6805],[75.888,30.6072],[75.9615,30.5908],[76.0276,30.6164],[76.0845,30.5616],[76.1209,30.6005],[76.0677,30.6562],[76.108,30.6943],[76.0715,30.7413],[76.0727,30.8098],[76.0791,30.8175],[75.9528,30.8081],[75.895,30.6985],[75.8437,30.6805]]]},"properties":{"AC_NO":67,"AC_NAME":"Payal (SC)","district":"LUDHIANA","PC_NO":8,"PC_NAME":"FATEHGARH SAHIB (SC"}},
{"type":"Feature","geometry":{"type":"Polygon","coordinates":[[[75.4643,30.6057],[75.4876,30.583],[75.5789,30.5696],[75.6038,30.5942],[75.6771,30.5975],[75.7607,30.6377],[75.7823,30.6247],[75.763,30.6652],[75.7296,30.7443],[75.6921,30.7366],[75.6519,30.7852],[75.5957,30.7838],[75.5499,30.7216],[75.5205,30.674],[75.4602,30.6586],[75.4643,30.6057]]]},"properties":{"AC_NO":69,"AC_NAME":"Raikot (SC)","district":"LUDHIANA","PC_NO":8,"PC_NAME":"FATEHGARH SAHIB (SC"}},
{"type":"Feature","geometry":{"type":"Polygon","coordinates":[[[74.9312,30.7888],[74.91,30.7373],[74.9144,30.6865],[74.9551,30.6778],[74.9448,30.5715],[74.9963,30.5364],[75.0204,30.4906],[75.0616,30.5015],[75.124,30.5673],[75.1636,30.5798],[75.1962,30.6849],[75.1181,30.71],[75.1203,30.7363],[75.0575,30.7826],[74.959,30.7711],[74.9312,30.7888]]]},"properties":{"AC_NO":72,"AC_NAME":"Bhagha Purana","district":"MOGA","PC_NO":9,"PC_NAME":"FARIDKOT (SC)"}},
{"type":"Feature","geometry":{"type":"Polygon","coordinates":[[[74.91,30.7373],[74.8123,30.7694],[74.7784,30.7134],[74.7822,30.6245],[74.7204,30.6473],[74.636,30.6158],[74.7094,30.5586],[74.6902,30.519],[74.7637,30.4845],[74.8572,30.567],[74.9144,30.6865],[74.91,30.7373]]]},"properties":{"AC_NO":88,"AC_NAME":"Kotkapura","district":"FARIDKOT","PC_NO":9,"PC_NAME":"FARIDKOT (SC)"}},
{"type":"Feature","geometry":{"type":"Polygon","coordinates":[[[76.0727,30.8098],[76.0715,30.7413],[76.108,30.6943],[76.0677,30.6562],[76.1209,30.6005],[76.1524,30.6548],[76.2185,30.6785],[76.3033,30.6785],[76.298,30.7168],[76.2755,30.7344],[76.2405,30.7516],[76.1787,30.7277],[76.0946,30.7716],[76.0727,30.8098]]]},"properties":{"AC_NO":57,"AC_NAME":"Khanna","district":"LUDHIANA","PC_NO":8,"PC_NAME":"FATEHGARH SAHIB (SC"}},
{"type":"Feature","geometry":{"type":"Polygon","coordinates":[[[76.7174,30.7631],[76.6372,30.6751],[76.6514,30.6261],[76.664,30.5829],[76.7321,30.5703],[76.7623,30.6049],[76.7967,30.6678],[76.7516,30.6841],[76.7174,30.7631]]]},"properties":{"AC_NO":53,"AC_NAME":"S.A.S.Nagar","district":"SAS NAGAR (SAHIBZADA AJIT SINGH NAGAR)","PC_NO":6,"PC_NAME":"ANANDPUR SAHIB"}},
{"type":"Feature","geometry":{"type":"Polygon","coordinates":[[[76.3195,30.8771],[76.2812,30.8303],[76.3109,30.7562],[76.2755,30.7344],[76.298,30.7168],[76.3489,30.6931],[76.4445,30.6474],[76.5234,30.65],[76.5984,30.5965],[76.6335,30.6201],[76.5716,30.6758],[76.5218,30.7575],[76.4695,30.7454],[76.4112,30.84],[76.3195,30.8771]]]},"properties":{"AC_NO":54,"AC_NAME":"Bassi Pathana (SC)","district":"FATEHGARH SAHIB","PC_NO":8,"PC_NAME":"FATEHGARH SAHIB (SC"}},
{"type":"Feature","geometry":{"type":"Polygon","coordinates":[[[75.0204,30.4906],[74.9963,30.5364],[74.9448,30.5715],[74.9551,30.6778],[74.9144,30.6865],[74.8572,30.567],[74.7637,30.4845],[74.7302,30.4518],[74.7528,30.3937],[74.8217,30.3932],[74.9307,30.368],[74.9961,30.4044],[75.052,30.3879],[75.0208,30.4418],[75.0204,30.4906]]]},"properties":{"AC_NO":89,"AC_NAME":"Jaitu (SC)","district":"FARIDKOT","PC_NO":9,"PC_NAME":"FARIDKOT (SC)"}},
{"type":"Feature","geometry":{"type":"Polygon","coordinates":[[[74.5042,30.6689],[74.4853,30.6376],[74.3687,30.5884],[74.3774,30.5577],[74.3823,30.4999],[74.4448,30.4881],[74.442,30.4393],[74.5219,30.4313],[74.5655,30.407],[74.6036,30.4598],[74.6886,30.4881],[74.6902,30.519],[74.7094,30.5586],[74.636,30.6158],[74.5895,30.6583],[74.5042,30.6689]]]},"properties":{"AC_NO":86,"AC_NAME":"Muktsar","district":"SRI MUKTSAR SAHIB","PC_NO":10,"PC_NAME":"FIROZPUR"}},
{"type":"Feature","geometry":{"type":"Polygon","coordinates":[[[74.1693,30.6487],[74.118,30.6079],[74.0909,30.5494],[74.174,30.492],[74.1614,30.4475],[74.064,30.2962],[74.1388,30.2986],[74.2631,30.2487],[74.3247,30.3297],[74.3272,30.4452],[74.3823,30.4999],[74.3774,30.5577],[74.3133,30.5994],[74.1935,30.6253],[74.1693,30.6487]]]},"properties":{"AC_NO":79,"AC_NAME":"Jalalabad","district":"FAZILKA","PC_NO":10,"PC_NAME":"FIROZPUR"}},
{"type":"Feature","geometry":{"type":"Polygon","coordinates":[[[75.8437,30.6805],[75.822,30.6906],[75.763,30.6652],[75.7823,30.6247],[75.8534,30.5526],[75.8992,30.5459],[75.8496,30.4487],[75.9653,30.4615],[76.0239,30.3905],[76.0804,30.4725],[76.086,30.5372],[76.0845,30.5616],[76.0276,30.6164],[75.9615,30.5908],[75.888,30.6072],[75.8437,30.6805]]]},"properties":{"AC_NO":106,"AC_NAME":"Amargarh","district":"MALER KOTLA","PC_NO":8,"PC_NAME":"FATEHGARH SAHIB (SC"}},
{"type":"Feature","geometry":{"type":"Polygon","coordinates":[[[76.3489,30.6931],[76.2746,30.56],[76.3144,30.5479],[76.3297,30.4934],[76.3522,30.4602],[76.4312,30.4422],[76.4992,30.4628],[76.4971,30.5076],[76.5011,30.5512],[76.5786,30.5684],[76.5984,30.5965],[76.5234,30.65],[76.4445,30.6474],[76.3489,30.6931]]]},"properties":{"AC_NO":55,"AC_NAME":"Fatehgarh Sahib","district":"FATEHGARH SAHIB","PC_NO":8,"PC_NAME":"FATEHGARH SAHIB (SC"}},
{"type":"Feature","geometry":{"type":"Polygon","coordinates":[[[76.1209,30.6005],[76.0845,30.5616],[76.086,30.5372],[76.2562,30.5673],[76.2746,30.56],[76.3489,30.6931],[76.298,30.7168],[76.3033,30.6785],[76.2185,30.6785],[76.1524,30.6548],[76.1209,30.6005]]]},"properties":{"AC_NO":56,"AC_NAME":"Amloh","district":"FATEHGARH SAHIB","PC_NO":8,"PC_NAME":"FATEHGARH SAHIB (SC"}},
{"type":"Feature","geometry":{"type":"Polygon","coordinates":[[[76.7481,30.4288],[76.8816,30.4092],[76.9325,30.5226],[76.9053,30.5432],[76.9256,30.6114],[76.8322,30.6688],[76.7967,30.6678],[76.7623,30.6049],[76.7521,30.5555],[76.787,30.5189],[76.7531,30.4699],[76.7481,30.4288]]]},"properties":{"AC_NO":112,"AC_NAME":"Dera Bassi","district":"SAS NAGAR (SAHIBZADA AJIT SINGH NAGAR)","PC_NO":13,"PC_NAME":"PATIALA"}},
{"type":"Feature","geometry":{"type":"Polygon","coordinates":[[[75.7823,30.6247],[75.7607,30.6377],[75.6771,30.5975],[75.7098,30.5452],[75.7822,30.4999],[75.8045,30.4443],[75.8496,30.4487],[75.8992,30.5459],[75.8534,30.5526],[75.7823,30.6247]]]},"properties":{"AC_NO":105,"AC_NAME":"Malerkotla","district":"MALER KOTLA","PC_NO":12,"PC_NAME":"SANGRUR"}},
{"type":"Feature","geometry":{"type":"Polygon","coordinates":[[[74.1388,30.2986],[74.064,30.2962],[74.1614,30.4475],[74.174,30.492],[74.0909,30.5494],[73.9927,30.5142],[73.9636,30.4848],[73.9644,30.4242],[73.8841,30.3669],[73.9309,30.3201],[73.9639,30.2572],[73.9755,30.1205],[74.0082,30.1391],[74.0148,30.1983],[74.05,30.2655],[74.1388,30.2986]]]},"properties":{"AC_NO":80,"AC_NAME":"Fazilka","district":"FAZILKA","PC_NO":10,"PC_NAME":"FIROZPUR"}},
{"type":"Feature","geometry":{"type":"Polygon","coordinates":[[[75.4643,30.6057],[75.4086,30.5833],[75.4007,30.5283],[75.3755,30.4811],[75.4533,30.3983],[75.5584,30.4439],[75.6463,30.4407],[75.6769,30.3793],[75.7783,30.3724],[75.7292,30.4412],[75.7822,30.4999],[75.7098,30.5452],[75.6771,30.5975],[75.6038,30.5942],[75.5789,30.5696],[75.4876,30.583],[75.4643,30.6057]]]},"properties":{"AC_NO":104,"AC_NAME":"Mehal Kalan (SC)","district":"BARNALA","PC_NO":12,"PC_NAME":"SANGRUR"}},
{"type":"Feature","geometry":{"type":"Polygon","coordinates":[[[75.2824,30.5076],[75.1818,30.5095],[75.1636,30.5798],[75.124,30.5673],[75.0616,30.5015],[75.0204,30.4906],[75.0208,30.4418],[75.052,30.3879],[75.0892,30.4173],[75.1797,30.3349],[75.135,30.2916],[75.2211,30.2618],[75.2893,30.3343],[75.3136,30.3272],[75.3043,30.4195],[75.2536,30.4639],[75.2824,30.5076]]]},"properties":{"AC_NO":90,"AC_NAME":"Rampura Phul","district":"BATHINDA","PC_NO":9,"PC_NAME":"FARIDKOT (SC)"}},
{"type":"Feature","geometry":{"type":"Polygon","coordinates":[[[76.6514,30.6261],[76.6335,30.6201],[76.5984,30.5965],[76.5786,30.5684],[76.5011,30.5512],[76.4971,30.5076],[76.5409,30.4544],[76.6249,30.4313],[76.6657,30.4831],[76.7531,30.4699],[76.787,30.5189],[76.7521,30.5555],[76.7623,30.6049],[76.7321,30.5703],[76.664,30.5829],[76.6514,30.6261]]]},"properties":{"AC_NO":111,"AC_NAME":"Rajpura","district":"PATIALA","PC_NO":13,"PC_NAME":"PATIALA"}},
{"type":"Feature","geometry":{"type":"Polygon","coordinates":[[[74.5655,30.407],[74.5219,30.4313],[74.442,30.4393],[74.4448,30.4881],[74.3823,30.4999],[74.3272,30.4452],[74.3247,30.3297],[74.3935,30.2837],[74.439,30.2809],[74.4693,30.2324],[74.4583,30.1765],[74.5576,30.1206],[74.6165,30.1885],[74.5918,30.2544],[74.5459,30.2471],[74.508,30.3346],[74.5809,30.359],[74.5655,30.407]]]},"properties":{"AC_NO":85,"AC_NAME":"Malout (SC)","district":"SRI MUKTSAR SAHIB","PC_NO":10,"PC_NAME":"FIROZPUR"}},
{"type":"Feature","geometry":{"type":"Polygon","coordinates":[[[74.7637,30.4845],[74.6902,30.519],[74.6886,30.4881],[74.6036,30.4598],[74.5655,30.407],[74.5809,30.359],[74.508,30.3346],[74.5459,30.2471],[74.5918,30.2544],[74.6165,30.1885],[74.6474,30.1547],[74.7039,30.1603],[74.7181,30.2453],[74.7521,30.287],[74.8217,30.3932],[74.7528,30.3937],[74.7302,30.4518],[74.7637,30.4845]]]},"properties":{"AC_NO":84,"AC_NAME":"Gidderbaha","district":"SRI MUKTSAR SAHIB","PC_NO":9,"PC_NAME":"FARIDKOT (SC)"}},
{"type":"Feature","geometry":{"type":"Polygon","coordinates":[[[75.4007,30.5283],[75.2824,30.5076],[75.2536,30.4639],[75.3043,30.4195],[75.3136,30.3272],[75.3639,30.2827],[75.3696,30.1989],[75.4612,30.1953],[75.5068,30.1439],[75.5769,30.1443],[75.5555,30.1943],[75.5838,30.2282],[75.5611,30.2617],[75.4557,30.3185],[75.4533,30.3983],[75.3755,30.4811],[75.4007,30.5283]]]},"properties":{"AC_NO":102,"AC_NAME":"Bhadaur (SC)","district":"BARNALA","PC_NO":12,"PC_NAME":"SANGRUR"}},
{"type":"Feature","geometry":{"type":"Polygon","coordinates":[[[76.086,30.5372],[76.0804,30.4725],[76.0239,30.3905],[75.9858,30.3632],[76.0881,30.3094],[76.1699,30.3167],[76.202,30.2859],[76.25,30.3518],[76.1845,30.372],[76.1881,30.4385],[76.216,30.4721],[76.278,30.4613],[76.3297,30.4934],[76.3144,30.5479],[76.2746,30.56],[76.2562,30.5673],[76.086,30.5372]]]},"properties":{"AC_NO":109,"AC_NAME":"Nabha (SC)","district":"PATIALA","PC_NO":13,"PC_NAME":"PATIALA"}},
{"type":"Feature","geometry":{"type":"Polygon","coordinates":[[[76.6357,30.2895],[76.7266,30.3614],[76.7481,30.4288],[76.7531,30.4699],[76.6657,30.4831],[76.6249,30.4313],[76.5409,30.4544],[76.4971,30.5076],[76.4992,30.4628],[76.5336,30.4335],[76.499,30.346],[76.5611,30.2976],[76.6357,30.2895]]]},"properties":{"AC_NO":113,"AC_NAME":"Ghanaur","district":"PATIALA","PC_NO":13,"PC_NAME":"PATIALA"}},
{"type":"Feature","geometry":{"type":"Polygon","coordinates":[[[76.0239,30.3905],[75.9653,30.4615],[75.8496,30.4487],[75.8045,30.4443],[75.7822,30.4999],[75.7292,30.4412],[75.7783,30.3724],[75.6769,30.3793],[75.6555,30.3101],[75.7311,30.2751],[75.7801,30.294],[75.8322,30.2954],[75.903,30.3378],[75.9636,30.3172],[75.9858,30.3632],[76.0239,30.3905]]]},"properties":{"AC_NO":107,"AC_NAME":"Dhuri","district":"SANGRUR","PC_NO":13,"PC_NAME":"PATIALA"}},
{"type":"Feature","geometry":{"type":"Polygon","coordinates":[[[76.4312,30.4422],[76.3522,30.4602],[76.3297,30.4934],[76.278,30.4613],[76.216,30.4721],[76.1881,30.4385],[76.1845,30.372],[76.25,30.3518],[76.2802,30.3942],[76.3447,30.3767],[76.3625,30.2953],[76.4246,30.3029],[76.4534,30.3324],[76.4554,30.4027],[76.4312,30.4422]]]},"properties":{"AC_NO":110,"AC_NAME":"Patiala Rural","district":"PATIALA","PC_NO":13,"PC_NAME":"PATIALA"}},
{"type":"Feature","geometry":{"type":"Polygon","coordinates":[[[75.6769,30.3793],[75.6463,30.4407],[75.5584,30.4439],[75.4533,30.3983],[75.4557,30.3185],[75.5611,30.2617],[75.5838,30.2282],[75.5869,30.2278],[75.6233,30.224],[75.6976,30.2419],[75.7311,30.2751],[75.6555,30.3101],[75.6769,30.3793]]]},"properties":{"AC_NO":103,"AC_NAME":"Barnala","district":"BARNALA","PC_NO":12,"PC_NAME":"SANGRUR"}},
{"type":"Feature","geometry":{"type":"Polygon","coordinates":[[[75.052,30.3879],[74.9961,30.4044],[74.9307,30.368],[74.8217,30.3932],[74.7521,30.287],[74.8488,30.2812],[74.8982,30.2431],[74.9547,30.2658],[75.0048,30.1977],[75.0143,30.1479],[75.0689,30.1504],[75.0901,30.1773],[75.1767,30.2068],[75.2211,30.2618],[75.135,30.2916],[75.1797,30.3349],[75.0892,30.4173],[75.052,30.3879]]]},"properties":{"AC_NO":91,"AC_NAME":"Bhucho Mandi (SC)","district":"BATHINDA","PC_NO":11,"PC_NAME":"BATHINDA"}},
{"type":"Feature","geometry":{"type":"Polygon","coordinates":[[[76.334,30.1386],[76.3617,30.1199],[76.4291,30.1507],[76.4675,30.0989],[76.5451,30.0747],[76.6429,30.15],[76.654,30.2032],[76.592,30.2554],[76.6357,30.2895],[76.5611,30.2976],[76.499,30.346],[76.5336,30.4335],[76.4992,30.4628],[76.4312,30.4422],[76.4554,30.4027],[76.4534,30.3324],[76.4823,30.3029],[76.4039,30.2658],[76.3913,30.2131],[76.3329,30.1783],[76.334,30.1386]]]},"properties":{"AC_NO":114,"AC_NAME":"Sanour","district":"PATIALA","PC_NO":13,"PC_NAME":"PATIALA"}},
{"type":"Feature","geometry":{"type":"Polygon","coordinates":[[[74.4483,29.9472],[74.5267,29.9428],[74.6305,29.9051],[74.7062,29.9766],[74.6846,30.1037],[74.6474,30.1547],[74.6165,30.1885],[74.5576,30.1206],[74.4583,30.1765],[74.4693,30.2324],[74.439,30.2809],[74.3935,30.2837],[74.3247,30.3297],[74.2631,30.2487],[74.3583,30.2406],[74.336,30.1636],[74.3755,30.1534],[74.3891,30.0743],[74.4483,29.9472]]]},"properties":{"AC_NO":83,"AC_NAME":"Lambi","district":"SRI MUKTSAR SAHIB","PC_NO":11,"PC_NAME":"BATHINDA"}},
{"type":"Feature","geometry":{"type":"Polygon","coordinates":[[[74.1388,30.2986],[74.05,30.2655],[74.0148,30.1983],[74.187,30.1616],[74.0853,30.1447],[74.0654,30.1109],[74.0652,29.9684],[74.4483,29.9472],[74.3891,30.0743],[74.3755,30.1534],[74.336,30.1636],[74.3583,30.2406],[74.2631,30.2487],[74.1388,30.2986]]]},"properties":{"AC_NO":82,"AC_NAME":"Balluana (SC)","district":"FAZILKA","PC_NO":10,"PC_NAME":"FIROZPUR"}},
{"type":"Feature","geometry":{"type":"Polygon","coordinates":[[[76.1961,30.1227],[76.2545,30.1211],[76.3228,30.0952],[76.334,30.1386],[76.3329,30.1783],[76.3913,30.2131],[76.4039,30.2658],[76.3625,30.2953],[76.3447,30.3767],[76.2802,30.3942],[76.25,30.3518],[76.202,30.2859],[76.0842,30.2187],[76.0562,30.1681],[76.0627,30.1488],[76.062,30.144],[76.0937,30.1165],[76.1088,30.1761],[76.1961,30.1227]]]},"properties":{"AC_NO":116,"AC_NAME":"Samana","district":"PATIALA","PC_NO":13,"PC_NAME":"PATIALA"}},
{"type":"Feature","geometry":{"type":"Polygon","coordinates":[[[76.202,30.2859],[76.1699,30.3167],[76.0881,30.3094],[75.9858,30.3632],[75.9636,30.3172],[75.903,30.3378],[75.8322,30.2954],[75.7801,30.294],[75.8352,30.2227],[75.9068,30.2622],[75.9254,30.2007],[76.0072,30.1791],[76.0264,30.1609],[76.0179,30.1532],[76.062,30.144],[76.0627,30.1488],[76.0562,30.1681],[76.0842,30.2187],[76.202,30.2859]]]},"properties":{"AC_NO":108,"AC_NAME":"Sangrur","district":"SANGRUR","PC_NO":13,"PC_NAME":"PATIALA"}},
{"type":"Feature","geometry":{"type":"Polygon","coordinates":[[[75.2211,30.2618],[75.1767,30.2068],[75.0901,30.1773],[75.0689,30.1504],[75.109,30.0944],[75.0447,30.0863],[75.143,30.0393],[75.1943,29.9807],[75.2363,29.9602],[75.281,29.9795],[75.2496,30.0386],[75.3025,30.07],[75.297,30.1101],[75.3492,30.136],[75.3696,30.1989],[75.3639,30.2827],[75.3136,30.3272],[75.2893,30.3343],[75.2211,30.2618]]]},"properties":{"AC_NO":95,"AC_NAME":"Maur","district":"BATHINDA","PC_NO":11,"PC_NAME":"BATHINDA"}},
{"type":"Feature","geometry":{"type":"Polygon","coordinates":[[[74.7062,29.9766],[74.7794,29.972],[74.8115,29.9921],[74.8338,30.0613],[74.885,30.0868],[75.0447,30.0863],[75.109,30.0944],[75.0689,30.1504],[75.0143,30.1479],[75.0048,30.1977],[74.9422,30.1625],[74.8802,30.1942],[74.8982,30.2431],[74.8488,30.2812],[74.7521,30.287],[74.7181,30.2453],[74.7039,30.1603],[74.6474,30.1547],[74.6846,30.1037],[74.7062,29.9766]]]},"properties":{"AC_NO":93,"AC_NAME":"Bathinda Rural (SC)","district":"BATHINDA","PC_NO":11,"PC_NAME":"BATHINDA"}},
{"type":"Feature","geometry":{"type":"Polygon","coordinates":[[[76.3625,30.2953],[76.4039,30.2658],[76.4823,30.3029],[76.4534,30.3324],[76.4246,30.3029],[76.3625,30.2953]]]},"properties":{"AC_NO":115,"AC_NAME":"Patiala","district":"PATIALA","PC_NO":13,"PC_NAME":"PATIALA"}},
{"type":"Feature","geometry":{"type":"Polygon","coordinates":[[[74.8982,30.2431],[74.8802,30.1942],[74.9422,30.1625],[75.0048,30.1977],[74.9547,30.2658],[74.8982,30.2431]]]},"properties":{"AC_NO":92,"AC_NAME":"Bathinda Urban","district":"BATHINDA","PC_NO":11,"PC_NAME":"BATHINDA"}},
{"type":"Feature","geometry":{"type":"Polygon","coordinates":[[[75.6233,30.224],[75.5869,30.2278],[75.5838,30.2282],[75.5555,30.1943],[75.5769,30.1443],[75.6256,30.1307],[75.6336,30.0698],[75.6406,30.0653],[75.7851,30.0756],[75.8809,30.1317],[75.9149,30.1837],[75.9678,30.1418],[76.0179,30.1532],[76.0264,30.1609],[76.0072,30.1791],[75.9254,30.2007],[75.9068,30.2622],[75.8352,30.2227],[75.7801,30.294],[75.7311,30.2751],[75.6976,30.2419],[75.6233,30.224]]]},"properties":{"AC_NO":101,"AC_NAME":"Sunam","district":"SANGRUR","PC_NO":12,"PC_NAME":"SANGRUR"}},
{"type":"Feature","geometry":{"type":"Polygon","coordinates":[[[73.9755,30.1205],[73.9035,30.0491],[73.8941,29.9743],[74.0652,29.9684],[74.0654,30.1109],[74.0853,30.1447],[74.187,30.1616],[74.0148,30.1983],[74.0082,30.1391],[73.9755,30.1205]]]},"properties":{"AC_NO":81,"AC_NAME":"Abohar","district":"FAZILKA","PC_NO":10,"PC_NAME":"FIROZPUR"}},
{"type":"Feature","geometry":{"type":"Polygon","coordinates":[[[75.5769,30.1443],[75.5068,30.1439],[75.4612,30.1953],[75.3696,30.1989],[75.3492,30.136],[75.297,30.1101],[75.3025,30.07],[75.2496,30.0386],[75.281,29.9795],[75.33,30.0067],[75.3746,29.9757],[75.5199,29.995],[75.6129,30.0253],[75.6336,30.0698],[75.6256,30.1307],[75.5769,30.1443]]]},"properties":{"AC_NO":96,"AC_NAME":"Mansa","district":"MANSA","PC_NO":11,"PC_NAME":"BATHINDA"}},
{"type":"Feature","geometry":{"type":"Polygon","coordinates":[[[76.0937,30.1165],[76.062,30.144],[76.0179,30.1532],[75.9678,30.1418],[75.9149,30.1837],[75.8809,30.1317],[75.7851,30.0756],[75.6406,30.0653],[75.688,30.0235],[75.6408,29.9369],[75.7657,29.9184],[75.8106,29.9747],[75.8608,29.994],[75.9962,29.9482],[76.0202,29.9592],[76.0515,30.0644],[76.0937,30.1165]]]},"properties":{"AC_NO":100,"AC_NAME":"Dirba (SC)","district":"SANGRUR","PC_NO":12,"PC_NAME":"SANGRUR"}},
{"type":"Feature","geometry":{"type":"Polygon","coordinates":[[[76.1049,29.8121],[76.1855,29.8224],[76.2471,29.8752],[76.1849,29.8907],[76.1713,29.9287],[76.2092,29.9879],[76.2422,30.1006],[76.1961,30.1227],[76.1088,30.1761],[76.0937,30.1165],[76.0515,30.0644],[76.0202,29.9592],[75.9962,29.9482],[75.9822,29.9056],[76.0364,29.8794],[76.1049,29.8121]]]},"properties":{"AC_NO":117,"AC_NAME":"Shutrana (SC)","district":"PATIALA","PC_NO":13,"PC_NAME":"PATIALA"}},
{"type":"Feature","geometry":{"type":"Polygon","coordinates":[[[74.8115,29.9921],[74.8558,29.9566],[74.9265,29.9505],[74.9946,29.8657],[75.0701,29.8774],[75.135,29.8074],[75.1913,29.8409],[75.2182,29.8655],[75.1713,29.9282],[75.1943,29.9807],[75.143,30.0393],[75.0447,30.0863],[74.885,30.0868],[74.8338,30.0613],[74.8115,29.9921]]]},"properties":{"AC_NO":94,"AC_NAME":"Talwandi Sabo","district":"BATHINDA","PC_NO":11,"PC_NAME":"BATHINDA"}},
{"type":"Feature","geometry":{"type":"Polygon","coordinates":[[[75.4297,29.7739],[75.4578,29.7943],[75.6344,29.7543],[75.7375,29.8147],[75.7657,29.9184],[75.6408,29.9369],[75.688,30.0235],[75.6406,30.0653],[75.6336,30.0698],[75.6129,30.0253],[75.5199,29.995],[75.4391,29.8934],[75.3802,29.8464],[75.4303,29.8151],[75.4297,29.7739]]]},"properties":{"AC_NO":98,"AC_NAME":"Budhlada (SC)","district":"MANSA","PC_NO":11,"PC_NAME":"BATHINDA"}},
{"type":"Feature","geometry":{"type":"Polygon","coordinates":[[[75.1913,29.8409],[75.2413,29.7537],[75.2096,29.7384],[75.1825,29.6307],[75.2356,29.6033],[75.2373,29.5433],[75.3095,29.5612],[75.2895,29.6074],[75.3465,29.6951],[75.4297,29.7739],[75.4303,29.8151],[75.3802,29.8464],[75.4391,29.8934],[75.5199,29.995],[75.3746,29.9757],[75.33,30.0067],[75.281,29.9795],[75.2363,29.9602],[75.1943,29.9807],[75.1713,29.9282],[75.2182,29.8655],[75.1913,29.8409]]]},"properties":{"AC_NO":97,"AC_NAME":"Sardulgarh","district":"MANSA","PC_NO":11,"PC_NAME":"BATHINDA"}},
{"type":"Feature","geometry":{"type":"Polygon","coordinates":[[[75.7375,29.8147],[75.8372,29.7942],[75.8698,29.7495],[75.9843,29.7272],[76.0824,29.7814],[76.1049,29.8121],[76.0364,29.8794],[75.9822,29.9056],[75.9962,29.9482],[75.8608,29.994],[75.8106,29.9747],[75.7657,29.9184],[75.7375,29.8147]]]},"properties":{"AC_NO":99,"AC_NAME":"Lehra","district":"SANGRUR","PC_NO":12,"PC_NAME":"SANGRUR"}}
]}