{"type":"FeatureCollection", "features": [
{"type":"Feature","geometry":{"type":"Polygon","coordinates":[[[75.5395,32.2951],[75.3758,32.3356],[75.3755,32.3363],[75.3755,32.3364],[75.374,32.3373],[75.3734,32.3366],[75.3732,32.3356],[75.3384,32.3421],[75.327,32.214],[75.4422,32.1669],[75.4379,32.159],[75.4808,32.1599],[75.5854,32.1411],[75.6025,32.0867],[75.6726,32.1589],[75.704,32.2673],[75.7526,32.2799],[75.8713,32.3946],[75.936,32.3977],[75.832,32.5101],[75.6873,32.3909],[75.636,32.381],[75.6352,32.3807],[75.6325,32.38],[75.5395,32.2951]]]},"properties":{"district":"PATHANKOT"}},
{"type":"Feature","geometry":{"type":"Polygon","coordinates":[[[75.327,32.214],[75.2408,32.0922],[74.9828,32.0402],[74.9083,32.0515],[74.8894,31.9315],[74.9187,31.8873],[74.9619,31.841],[75.2013,31.7278],[75.2609,31.6925],[75.302,31.6527],[75.4044,31.5937],[75.4746,31.6499],[75.5398,31.7468],[75.5352,31.7719],[75.5509,31.8905],[75.5342,31.9603],[75.5963,32.086],[75.6025,32.0867],[75.5854,32.1411],[75.4808,32.1599],[75.4379,32.159],[75.4422,32.1669],[75.327,32.214]]]},"properties":{"district":"GURDASPUR"}},
{"type":"Feature","geometry":{"type":"Polygon","coordinates":[[[75.5342,31.9603],[75.5509,31.8905],[75.5352,31.7719],[75.5398,31.7468],[75.4746,31.6499],[75.5943,31.6032],[75.6817,31.5902],[75.7168,31.5202],[75.816,31.4312],[75.7877,31.3687],[75.8912,31.3402],[75.8924,31.276],[75.9923,31.2588],[76.0491,31.2142],[76.1934,31.1339],[76.238,31.2435],[76.3291,31.2252],[76.3267,31.2679],[76.2888,31.3064],[76.1886,31.2999],[76.1566,31.3475],[76.1688,31.3973],[76.1046,31.5161],[76.1043,31.5169],[76.1042,31.517],[76.0762,31.5609],[76.0005,31.6838],[75.9354,31.8157],[75.9593,31.8575],[75.9154,31.9314],[75.9151,31.9319],[75.9148,31.9325],[75.9009,31.9549],[75.8999,31.9559],[75.7429,32.0395],[75.5963,32.086],[75.5342,31.9603]]]},"properties":{"district":"HOSHIARPUR"}},
{"type":"Feature","geometry":{"type":"Polygon","coordinates":[[[74.9083,32.0515],[74.8189,31.9587],[74.6346,31.8843],[74.5706,31.837],[74.5019,31.6956],[74.5448,31.6484],[74.6108,31.499],[74.6492,31.5404],[74.7953,31.5706],[74.9407,31.5212],[74.9382,31.5094],[75.0483,31.517],[75.1575,31.5526],[75.302,31.6527],[75.2609,31.6925],[75.2013,31.7278],[74.9619,31.841],[74.9187,31.8873],[74.8894,31.9315],[74.9083,32.0515]]]},"properties":{"district":"AMRITSAR"}},
{"type":"Feature","geometry":{"type":"Polygon","coordinates":[[[75.302,31.6527],[75.1575,31.5526],[75.0483,31.517],[74.9382,31.5094],[74.9407,31.5212],[74.7953,31.5706],[74.6492,31.5404],[74.6108,31.499],[74.6546,31.4263],[74.5517,31.3644],[74.5103,31.132],[74.6891,31.128],[74.6957,31.0743],[74.8032,31.1189],[74.9644,31.1533],[74.9855,31.1576],[75.0808,31.2575],[75.2311,31.4503],[75.4044,31.5937],[75.302,31.6527]]]},"properties":{"district":"TARN TARAN"}},
{"type":"Feature","geometry":{"type":"MultiPolygon","coordinates":[[[[75.4746,31.6499],[75.4044,31.5937],[75.2311,31.4503],[75.0808,31.2575],[74.9855,31.1576],[74.9644,31.1533],[75.0807,31.1511],[75.2699,31.1483],[75.3448,31.2319],[75.3646,31.2268],[75.4609,31.2355],[75.4811,31.3521],[75.4426,31.4323],[75.4411,31.4948],[75.5961,31.5554],[75.5943,31.6032],[75.4746,31.6499]]],[[[75.6744,31.2824],[75.7086,31.1651],[75.787,31.198],[75.8924,31.276],[75.8912,31.3402],[75.7877,31.3687],[75.6744,31.2824]]]]},"properties":{"district":"KAPURTHALA"}},
{"type":"Feature","geometry":{"type":"Polygon","coordinates":[[[75.5943,31.6032],[75.5961,31.5554],[75.4411,31.4948],[75.4426,31.4323],[75.4811,31.3521],[75.4609,31.2355],[75.3646,31.2268],[75.3448,31.2319],[75.2699,31.1483],[75.0807,31.1511],[75.1458,31.0857],[75.3566,30.9902],[75.4992,30.9703],[75.562,30.9772],[75.6512,30.9803],[75.6849,30.9916],[75.8233,30.9996],[75.957,31.0171],[75.9323,31.0737],[75.8978,31.1542],[75.787,31.198],[75.7086,31.1651],[75.6744,31.2824],[75.7877,31.3687],[75.816,31.4312],[75.7168,31.5202],[75.6817,31.5902],[75.5943,31.6032]]]},"properties":{"district":"JALANDHAR"}},
{"type":"Feature","geometry":{"type":"Polygon","coordinates":[[[76.3267,31.2679],[76.3291,31.2252],[76.4675,31.0317],[76.4579,30.9744],[76.304,30.9885],[76.3195,30.8771],[76.4112,30.84],[76.4695,30.7454],[76.5716,30.6758],[76.6264,30.7219],[76.553,30.8383],[76.6275,30.9017],[76.7371,30.9389],[76.7002,30.9701],[76.6115,31.046],[76.645,31.2073],[76.4317,31.3268],[76.3947,31.4083],[76.3738,31.4376],[76.3145,31.3428],[76.2888,31.3064],[76.3267,31.2679]]]},"properties":{"district":"RUPNAGAR"}},
{"type":"Feature","geometry":{"type":"Polygon","coordinates":[[[75.8924,31.276],[75.787,31.198],[75.8978,31.1542],[75.9323,31.0737],[75.957,31.0171],[76.1425,30.9873],[76.257,30.9955],[76.304,30.9885],[76.4579,30.9744],[76.4675,31.0317],[76.3291,31.2252],[76.238,31.2435],[76.1934,31.1339],[76.0491,31.2142],[75.9923,31.2588],[75.8924,31.276]]]},"properties":{"district":"SHAHID BHAGAT SINGH NAGAR"}},
{"type":"Feature","geometry":{"type":"Polygon","coordinates":[[[74.9644,31.1533],[74.8032,31.1189],[74.6957,31.0743],[74.5682,31.0548],[74.5162,30.9795],[74.3659,30.8929],[74.3736,30.8593],[74.3204,30.8466],[74.1693,30.6487],[74.3774,30.5577],[74.5042,30.6689],[74.47,30.7483],[74.595,30.8088],[74.754,30.813],[74.8123,30.7694],[74.91,30.7373],[74.9312,30.7888],[74.9437,30.8779],[75.0304,30.8968],[75.0938,30.9755],[75.0836,31.0688],[75.1458,31.0857],[75.0807,31.1511],[74.9644,31.1533]]]},"properties":{"district":"FIROZPUR"}},
{"type":"Feature","geometry":{"type":"Polygon","coordinates":[[[75.6512,30.9803],[75.562,30.9772],[75.4992,30.9703],[75.3566,30.9902],[75.3729,30.8514],[75.3964,30.8087],[75.3677,30.6855],[75.4086,30.5833],[75.4643,30.6057],[75.5789,30.5696],[75.6771,30.5975],[75.7823,30.6247],[75.763,30.6652],[75.822,30.6906],[75.8437,30.6805],[75.888,30.6072],[76.0276,30.6164],[76.0845,30.5616],[76.1209,30.6005],[76.1524,30.6548],[76.298,30.7168],[76.2755,30.7344],[76.3195,30.8771],[76.304,30.9885],[76.257,30.9955],[76.1425,30.9873],[75.957,31.0171],[75.8233,30.9996],[75.6849,30.9916],[75.6512,30.9803]]]},"properties":{"district":"LUDHIANA"}},
{"type":"Feature","geometry":{"type":"Polygon","coordinates":[[[74.9437,30.8779],[74.9312,30.7888],[74.91,30.7373],[74.9144,30.6865],[74.9448,30.5715],[75.0204,30.4906],[75.1636,30.5798],[75.1818,30.5095],[75.2824,30.5076],[75.4007,30.5283],[75.4086,30.5833],[75.3677,30.6855],[75.3964,30.8087],[75.3729,30.8514],[75.3566,30.9902],[75.1458,31.0857],[75.0836,31.0688],[75.0938,30.9755],[75.0304,30.8968],[74.9437,30.8779]]]},"properties":{"district":"MOGA"}},
{"type":"Feature","geometry":{"type":"Polygon","coordinates":[[[76.6275,30.9017],[76.553,30.8383],[76.6264,30.7219],[76.5716,30.6758],[76.6335,30.6201],[76.6514,30.6261],[76.7623,30.6049],[76.7531,30.4699],[76.7481,30.4288],[76.7981,30.4173],[76.8994,30.36],[76.9279,30.5241],[76.9256,30.6114],[76.8288,30.6807],[76.7967,30.6678],[76.7174,30.7631],[76.8381,30.7542],[76.8474,30.7801],[76.7741,30.9071],[76.7371,30.9389],[76.6275,30.9017]]]},"properties":{"district":"SAS NAGAR (SAHIBZADA AJIT SINGH NAGAR)"}},
{"type":"Feature","geometry":{"type":"Polygon","coordinates":[[[74.595,30.8088],[74.47,30.7483],[74.5042,30.6689],[74.636,30.6158],[74.6902,30.519],[74.7637,30.4845],[74.8217,30.3932],[74.9307,30.368],[75.052,30.3879],[75.0204,30.4906],[74.9448,30.5715],[74.9144,30.6865],[74.91,30.7373],[74.8123,30.7694],[74.754,30.813],[74.595,30.8088]]]},"properties":{"district":"FARIDKOT"}},
{"type":"Feature","geometry":{"type":"Polygon","coordinates":[[[76.2755,30.7344],[76.298,30.7168],[76.1524,30.6548],[76.1209,30.6005],[76.0845,30.5616],[76.086,30.5372],[76.2746,30.56],[76.3144,30.5479],[76.3297,30.4934],[76.4312,30.4422],[76.4992,30.4628],[76.4971,30.5076],[76.5984,30.5965],[76.6335,30.6201],[76.5716,30.6758],[76.4695,30.7454],[76.4112,30.84],[76.3195,30.8771],[76.2755,30.7344]]]},"properties":{"district":"FATEHGARH SAHIB"}},
{"type":"Feature","geometry":{"type":"Polygon","coordinates":[[[74.3774,30.5577],[74.3823,30.4999],[74.3272,30.4452],[74.3247,30.3297],[74.2631,30.2487],[74.3583,30.2406],[74.3891,30.0743],[74.4483,29.9472],[74.5267,29.9428],[74.6305,29.9051],[74.7062,29.9766],[74.6474,30.1547],[74.7039,30.1603],[74.7521,30.287],[74.8217,30.3932],[74.7637,30.4845],[74.6902,30.519],[74.636,30.6158],[74.5042,30.6689],[74.3774,30.5577]]]},"properties":{"district":"SRI MUKTSAR SAHIB"}},
{"type":"Feature","geometry":{"type":"Polygon","coordinates":[[[74.1693,30.6487],[74.0909,30.5494],[73.9927,30.5142],[73.9644,30.4242],[73.8841,30.3669],[73.9727,30.1983],[73.9755,30.1205],[73.9035,30.0491],[73.8941,29.9743],[74.0652,29.9684],[74.3509,29.9523],[74.4483,29.9472],[74.3891,30.0743],[74.3583,30.2406],[74.2631,30.2487],[74.3247,30.3297],[74.3272,30.4452],[74.3823,30.4999],[74.3774,30.5577],[74.1693,30.6487]]]},"properties":{"district":"FAZILKA"}},
{"type":"Feature","geometry":{"type":"Polygon","coordinates":[[[75.822,30.6906],[75.763,30.6652],[75.7823,30.6247],[75.6771,30.5975],[75.7822,30.4999],[75.8496,30.4487],[75.9653,30.4615],[76.0239,30.3905],[76.086,30.5372],[76.0845,30.5616],[76.0276,30.6164],[75.888,30.6072],[75.8437,30.6805],[75.822,30.6906]]]},"properties":{"district":"MALER KOTLA"}},
{"type":"Feature","geometry":{"type":"Polygon","coordinates":[[[75.4086,30.5833],[75.4007,30.5283],[75.2824,30.5076],[75.3136,30.3272],[75.3696,30.1989],[75.4612,30.1953],[75.5769,30.1443],[75.5838,30.2282],[75.5869,30.2278],[75.6233,30.224],[75.7311,30.2751],[75.6555,30.3101],[75.6769,30.3793],[75.7822,30.4999],[75.6771,30.5975],[75.5789,30.5696],[75.4643,30.6057],[75.4086,30.5833]]]},"properties":{"district":"BARNALA"}},
{"type":"Feature","geometry":{"type":"Polygon","coordinates":[[[75.1636,30.5798],[75.0204,30.4906],[75.052,30.3879],[74.9307,30.368],[74.8217,30.3932],[74.7521,30.287],[74.7039,30.1603],[74.6474,30.1547],[74.7062,29.9766],[74.8115,29.9921],[74.9265,29.9505],[74.9519,29.9029],[75.0701,29.8774],[75.135,29.8074],[75.1913,29.8409],[75.1943,29.9807],[75.281,29.9795],[75.3696,30.1989],[75.3136,30.3272],[75.2824,30.5076],[75.1818,30.5095],[75.1636,30.5798]]]},"properties":{"district":"BATHINDA"}},
{"type":"Feature","geometry":{"type":"Polygon","coordinates":[[[76.6335,30.6201],[76.5984,30.5965],[76.4971,30.5076],[76.4992,30.4628],[76.4312,30.4422],[76.3297,30.4934],[76.3144,30.5479],[76.2746,30.56],[76.086,30.5372],[76.0239,30.3905],[75.9858,30.3632],[76.202,30.2859],[76.0842,30.2187],[76.0562,30.1681],[76.0627,30.1488],[76.062,30.144],[76.0937,30.1165],[75.9962,29.9482],[75.9822,29.9056],[76.1049,29.8121],[76.214,29.8425],[76.2151,29.8418],[76.2435,29.8633],[76.1713,29.9287],[76.2422,30.1006],[76.1961,30.1227],[76.334,30.1386],[76.4291,30.1507],[76.4675,30.0989],[76.5743,30.1009],[76.637,30.1474],[76.6429,30.15],[76.6357,30.2895],[76.7266,30.3614],[76.7481,30.4288],[76.7531,30.4699],[76.7623,30.6049],[76.6514,30.6261],[76.6335,30.6201]]]},"properties":{"district":"PATIALA"}},
{"type":"Feature","geometry":{"type":"Polygon","coordinates":[[[75.8496,30.4487],[75.7822,30.4999],[75.6769,30.3793],[75.6555,30.3101],[75.7311,30.2751],[75.6233,30.224],[75.5869,30.2278],[75.5838,30.2282],[75.5769,30.1443],[75.6336,30.0698],[75.6406,30.0653],[75.688,30.0235],[75.6408,29.9369],[75.7657,29.9184],[75.7375,29.8147],[75.8372,29.7942],[75.9465,29.7299],[76.1049,29.8121],[75.9822,29.9056],[75.9962,29.9482],[76.0937,30.1165],[76.062,30.144],[76.0627,30.1488],[76.0562,30.1681],[76.0842,30.2187],[76.202,30.2859],[75.9858,30.3632],[76.0239,30.3905],[75.9653,30.4615],[75.8496,30.4487]]]},"properties":{"district":"SANGRUR"}},
{"type":"Feature","geometry":{"type":"Polygon","coordinates":[[[75.3696,30.1989],[75.281,29.9795],[75.1943,29.9807],[75.1913,29.8409],[75.2096,29.7384],[75.1825,29.6307],[75.3026,29.5601],[75.3465,29.6951],[75.4297,29.7739],[75.4578,29.7943],[75.6982,29.7533],[75.7375,29.8147],[75.7657,29.9184],[75.6408,29.9369],[75.688,30.0235],[75.6406,30.0653],[75.6336,30.0698],[75.5769,30.1443],[75.4612,30.1953],[75.3696,30.1989]]]},"properties":{"district":"MANSA"}}
]}