{"type":"FeatureCollection", "features": [
{"type":"Feature","geometry":{"type":"Polygon","coordinates":[[[77.459,30.1659],[77.4269,30.1594],[77.4068,30.0882],[77.2849,30.0425],[77.2759,29.9967],[77.1907,29.9022],[77.1844,29.8501],[77.1638,29.787],[77.1273,29.7709],[77.1417,29.6923],[77.3238,29.6584],[77.4008,29.6467],[77.4616,29.6739],[77.4941,29.6478],[77.4941,29.6348],[77.6007,29.6266],[77.6588,29.5683],[77.6937,29.6188],[77.7406,29.6092],[77.8202,29.6735],[77.7702,29.7162],[77.7806,29.7656],[77.7183,29.8649],[77.7483,29.9116],[77.7439,29.9839],[77.7791,30.0176],[77.9077,30.181],[77.9427,30.2397],[77.8391,30.2745],[77.7217,30.3305],[77.6477,30.4046],[77.6042,30.368],[77.5844,30.3095],[77.459,30.1659]]]},"properties":{"district":"SAHARANPUR"}},
{"type":"Feature","geometry":{"type":"Polygon","coordinates":[[[78.1125,29.6419],[77.9983,29.5413],[78.0267,29.3862],[78.088,29.3196],[78.114,29.2559],[78.1155,29.2448],[78.1236,29.1819],[78.0778,29.0795],[78.2154,29.0293],[78.382,29.0206],[78.4134,29.0373],[78.4711,29.0515],[78.526,29.0671],[78.5888,29.068],[78.6593,29.1767],[78.6717,29.1917],[78.6909,29.2257],[78.7712,29.2645],[78.7347,29.299],[78.7664,29.3375],[78.8406,29.3451],[78.9186,29.404],[78.921,29.4342],[78.7051,29.5013],[78.5811,29.5852],[78.5214,29.6585],[78.496,29.7346],[78.3435,29.7915],[78.2424,29.6984],[78.1439,29.6734],[78.1125,29.6419]]]},"properties":{"district":"BIJNOR"}},
{"type":"Feature","geometry":{"type":"Polygon","coordinates":[[[77.6588,29.5683],[77.6007,29.6266],[77.4941,29.6348],[77.4986,29.6],[77.4535,29.533],[77.4494,29.4388],[77.4369,29.4308],[77.438,29.3598],[77.3319,29.2845],[77.3225,29.2522],[77.4044,29.2483],[77.5045,29.1915],[77.5584,29.2316],[77.5904,29.2634],[77.6444,29.2261],[77.6871,29.2375],[77.7958,29.185],[77.8596,29.2283],[77.9197,29.2154],[77.9257,29.2303],[78.0221,29.2588],[78.114,29.2559],[78.088,29.3196],[78.0267,29.3862],[77.9983,29.5413],[77.9741,29.5782],[77.9878,29.6365],[77.9481,29.7107],[77.8202,29.6735],[77.7406,29.6092],[77.6937,29.6188],[77.6588,29.5683]]]},"properties":{"district":"MUZAFFARNAGAR"}},
{"type":"Feature","geometry":{"type":"Polygon","coordinates":[[[77.1417,29.6923],[77.0954,29.594],[77.0928,29.5265],[77.1605,29.3362],[77.1524,29.2975],[77.19,29.2788],[77.3225,29.2522],[77.3319,29.2845],[77.438,29.3598],[77.4369,29.4308],[77.4494,29.4388],[77.4535,29.533],[77.4986,29.6],[77.4941,29.6348],[77.4941,29.6478],[77.4616,29.6739],[77.4008,29.6467],[77.3238,29.6584],[77.1417,29.6923]]]},"properties":{"district":"SHAMLI"}},
{"type":"Feature","geometry":{"type":"Polygon","coordinates":[[[77.1524,29.2975],[77.1315,29.2175],[77.1361,29.1478],[77.2022,28.9881],[77.1993,28.9352],[77.234,28.9118],[77.2226,28.8334],[77.2814,28.8341],[77.3238,28.802],[77.4057,28.7822],[77.3908,28.8282],[77.4212,28.8834],[77.4583,28.9254],[77.4567,29.0126],[77.431,29.0861],[77.4724,29.178],[77.5045,29.1915],[77.4044,29.2483],[77.3225,29.2522],[77.19,29.2788],[77.1524,29.2975]]]},"properties":{"district":"BAGHPAT"}},
{"type":"Feature","geometry":{"type":"Polygon","coordinates":[[[77.5584,29.2316],[77.5045,29.1915],[77.4724,29.178],[77.431,29.0861],[77.4567,29.0126],[77.4583,28.9254],[77.5319,28.8877],[77.5862,28.8907],[77.6868,28.8706],[77.7074,28.789],[77.6997,28.7428],[77.758,28.7559],[77.8237,28.8031],[77.8617,28.7952],[77.8925,28.868],[77.9623,28.8409],[78.0134,28.8708],[78.1192,28.8747],[78.0832,28.935],[78.0778,29.0795],[78.1236,29.1819],[78.1155,29.2448],[78.114,29.2559],[78.0221,29.2588],[77.9257,29.2303],[77.9197,29.2154],[77.8596,29.2283],[77.7958,29.185],[77.6871,29.2375],[77.6444,29.2261],[77.5904,29.2634],[77.5584,29.2316]]]},"properties":{"district":"MEERUT"}},
{"type":"Feature","geometry":{"type":"Polygon","coordinates":[[[78.6909,29.2257],[78.6717,29.1917],[78.6593,29.1767],[78.5888,29.068],[78.526,29.0671],[78.5706,29.0171],[78.5305,28.9861],[78.6288,28.9228],[78.64,28.8734],[78.6495,28.8461],[78.6513,28.8366],[78.6607,28.8163],[78.6776,28.7745],[78.6373,28.6755],[78.6847,28.6329],[78.7019,28.6065],[78.6659,28.5336],[78.7073,28.5011],[78.7836,28.5554],[78.8671,28.4654],[78.9414,28.4599],[78.9586,28.5502],[78.8601,28.6599],[78.9247,28.6983],[78.9588,28.703],[78.9994,28.7611],[78.9744,28.8237],[78.9214,28.9255],[78.916,28.964],[78.9329,29.0497],[78.9741,29.13],[78.9068,29.1261],[78.9092,29.1781],[78.8588,29.2332],[78.7712,29.2645],[78.6909,29.2257]]]},"properties":{"district":"MORADABAD"}},
{"type":"Feature","geometry":{"type":"Polygon","coordinates":[[[78.9329,29.0497],[78.916,28.964],[78.9214,28.9255],[78.9744,28.8237],[78.9994,28.7611],[78.9588,28.703],[78.9247,28.6983],[78.8601,28.6599],[78.9586,28.5502],[78.9414,28.4599],[78.9698,28.4221],[79.1047,28.5085],[79.1656,28.5604],[79.205,28.5719],[79.3064,28.7424],[79.3802,28.7717],[79.3866,28.8315],[79.4223,28.9012],[79.4078,28.9522],[79.3071,28.9667],[79.2524,28.9992],[79.1657,29.0201],[79.1536,29.1157],[79.0407,29.1586],[78.9741,29.13],[78.9329,29.0497]]]},"properties":{"district":"RAMPUR"}},
{"type":"Feature","geometry":{"type":"Polygon","coordinates":[[[78.0778,29.0795],[78.0832,28.935],[78.1192,28.8747],[78.1375,28.775],[78.1992,28.6723],[78.1864,28.628],[78.2089,28.5305],[78.2568,28.4792],[78.296,28.4259],[78.38,28.4717],[78.4123,28.461],[78.44,28.5862],[78.4022,28.6515],[78.4153,28.7246],[78.4164,28.7831],[78.5001,28.7763],[78.6176,28.8085],[78.6495,28.8461],[78.64,28.8734],[78.6288,28.9228],[78.5305,28.9861],[78.5706,29.0171],[78.526,29.0671],[78.4711,29.0515],[78.4134,29.0373],[78.382,29.0206],[78.2154,29.0293],[78.0778,29.0795]]]},"properties":{"district":"AMROHA"}},
{"type":"Feature","geometry":{"type":"Polygon","coordinates":[[[77.4583,28.9254],[77.4212,28.8834],[77.3908,28.8282],[77.4057,28.7822],[77.3238,28.802],[77.2814,28.8341],[77.2226,28.8334],[77.1995,28.7977],[77.2558,28.7389],[77.3263,28.6948],[77.3204,28.6583],[77.392,28.6562],[77.4471,28.6218],[77.465,28.6551],[77.4193,28.6995],[77.3962,28.6931],[77.4492,28.7554],[77.5217,28.7631],[77.6102,28.7104],[77.6997,28.7428],[77.7074,28.789],[77.6868,28.8706],[77.5862,28.8907],[77.5319,28.8877],[77.4583,28.9254]]]},"properties":{"district":"GHAZIABAD"}},
{"type":"Feature","geometry":{"type":"Polygon","coordinates":[[[78.0134,28.8708],[77.9623,28.8409],[77.8925,28.868],[77.8617,28.7952],[77.8237,28.8031],[77.758,28.7559],[77.6997,28.7428],[77.6102,28.7104],[77.5217,28.7631],[77.4492,28.7554],[77.3962,28.6931],[77.4193,28.6995],[77.465,28.6551],[77.4471,28.6218],[77.4651,28.6112],[77.5635,28.6176],[77.6891,28.5478],[77.7528,28.5784],[77.8282,28.629],[77.833,28.6331],[77.895,28.6332],[77.9394,28.7044],[78.1864,28.628],[78.1992,28.6723],[78.1375,28.775],[78.1192,28.8747],[78.0134,28.8708]]]},"properties":{"district":"HAPUR"}},
{"type":"Feature","geometry":{"type":"Polygon","coordinates":[[[79.3802,28.7717],[79.3064,28.7424],[79.205,28.5719],[79.1656,28.5604],[79.1047,28.5085],[78.9698,28.4221],[79.0667,28.3737],[79.0939,28.2522],[79.1445,28.1909],[79.2058,28.2032],[79.3277,28.1628],[79.4226,28.1729],[79.4957,28.1222],[79.5038,28.0156],[79.5995,28.0754],[79.6571,28.0935],[79.6356,28.1447],[79.7094,28.2532],[79.6973,28.3096],[79.7335,28.3675],[79.6965,28.3845],[79.7535,28.4263],[79.7817,28.5021],[79.7142,28.5218],[79.6708,28.6069],[79.6215,28.6413],[79.6278,28.6871],[79.6899,28.7534],[79.6835,28.85],[79.584,28.8791],[79.452,28.8716],[79.4223,28.9012],[79.3866,28.8315],[79.3802,28.7717]]]},"properties":{"district":"BAREILLY"}},
{"type":"Feature","geometry":{"type":"Polygon","coordinates":[[[79.6215,28.6413],[79.6708,28.6069],[79.7142,28.5218],[79.7817,28.5021],[79.7535,28.4263],[79.6965,28.3845],[79.7335,28.3675],[79.6973,28.3096],[79.7094,28.2532],[79.7391,28.1829],[79.7786,28.1656],[79.8678,28.1939],[79.8967,28.1401],[79.9782,28.107],[79.9961,28.1605],[79.9731,28.304],[80.0073,28.3779],[80.0477,28.3693],[80.1452,28.402],[80.1839,28.358],[80.3084,28.4638],[80.39,28.4693],[80.4495,28.5138],[80.3459,28.6306],[80.3279,28.6723],[80.2691,28.7436],[80.2091,28.76],[80.1318,28.8222],[80.0522,28.8204],[80.0604,28.7827],[80.0066,28.7411],[79.9434,28.76],[79.863,28.8404],[79.8105,28.7988],[79.8416,28.8774],[79.7998,28.8867],[79.6835,28.85],[79.6899,28.7534],[79.6278,28.6871],[79.6215,28.6413]]]},"properties":{"district":"PILIBHIT"}},
{"type":"Feature","geometry":{"type":"Polygon","coordinates":[[[78.6495,28.8461],[78.6176,28.8085],[78.5001,28.7763],[78.4164,28.7831],[78.4153,28.7246],[78.4022,28.6515],[78.44,28.5862],[78.4123,28.461],[78.38,28.4717],[78.296,28.4259],[78.2749,28.3683],[78.3129,28.2751],[78.354,28.2695],[78.4018,28.1795],[78.4587,28.1607],[78.4891,28.0989],[78.5301,28.0512],[78.5823,28.0612],[78.6569,28.3077],[78.6637,28.336],[78.7881,28.3942],[78.8141,28.4442],[78.8671,28.4654],[78.7836,28.5554],[78.7073,28.5011],[78.6659,28.5336],[78.7019,28.6065],[78.6847,28.6329],[78.6373,28.6755],[78.6776,28.7745],[78.6607,28.8163],[78.6513,28.8366],[78.6495,28.8461]]]},"properties":{"district":"SAMBHAL"}},
{"type":"Feature","geometry":{"type":"Polygon","coordinates":[[[77.9394,28.7044],[77.895,28.6332],[77.833,28.6331],[77.8282,28.629],[77.7528,28.5784],[77.6891,28.5478],[77.6392,28.4506],[77.6419,28.4091],[77.7332,28.3249],[77.7152,28.2775],[77.7328,28.1214],[77.84,28.1794],[77.8836,28.1235],[77.9326,28.0859],[78.0019,28.0943],[78.051,28.125],[78.1346,28.0596],[78.2238,28.1013],[78.2272,28.103],[78.3476,28.1463],[78.4005,28.0877],[78.4891,28.0989],[78.4587,28.1607],[78.4018,28.1795],[78.354,28.2695],[78.3129,28.2751],[78.2749,28.3683],[78.296,28.4259],[78.2568,28.4792],[78.2089,28.5305],[78.1864,28.628],[77.9394,28.7044]]]},"properties":{"district":"BULANDSHAHR"}},
{"type":"Feature","geometry":{"type":"Polygon","coordinates":[[[77.4471,28.6218],[77.392,28.6562],[77.3204,28.6583],[77.3412,28.6052],[77.303,28.553],[77.3552,28.4993],[77.4111,28.4529],[77.4775,28.4188],[77.5027,28.3725],[77.4972,28.3132],[77.5212,28.225],[77.5113,28.1254],[77.4748,28.0852],[77.5672,28.0879],[77.6023,28.1185],[77.7328,28.1214],[77.7152,28.2775],[77.7332,28.3249],[77.6419,28.4091],[77.6392,28.4506],[77.6891,28.5478],[77.5635,28.6176],[77.4651,28.6112],[77.4471,28.6218]]]},"properties":{"district":"GAUTAM BUDDHA NAGAR"}},
{"type":"Feature","geometry":{"type":"Polygon","coordinates":[[[80.3084,28.4638],[80.3668,28.3952],[80.3679,28.336],[80.3055,28.2691],[80.2983,28.1616],[80.2377,28.1432],[80.2532,28.0912],[80.1601,28.0228],[80.123,28.001],[80.0783,27.9283],[80.0338,27.9089],[80.052,27.873],[80.0339,27.8337],[80.0594,27.7695],[80.1318,27.7542],[80.2013,27.7758],[80.2883,27.7083],[80.3101,27.6794],[80.3783,27.7062],[80.4898,27.7755],[80.5633,27.7525],[80.6031,27.7623],[80.6545,27.817],[80.7219,27.8083],[80.7888,27.8183],[80.8259,27.791],[80.9576,27.8997],[81.0118,27.8794],[81.0026,27.8242],[81.1045,27.797],[81.1798,27.7842],[81.203,27.7189],[81.2657,27.7135],[81.2789,27.6759],[81.2793,27.7569],[81.2803,27.8647],[81.3042,27.9048],[81.196,28.0076],[81.1695,28.0581],[81.1954,28.0946],[81.1452,28.151],[81.1069,28.2156],[81.0631,28.2316],[81.0344,28.2895],[81.0598,28.3429],[81.0565,28.404],[81.0122,28.4481],[80.9685,28.435],[80.8663,28.4967],[80.7854,28.5247],[80.7697,28.5654],[80.701,28.5755],[80.6587,28.6377],[80.507,28.6659],[80.4606,28.6244],[80.3706,28.6334],[80.3279,28.6723],[80.3459,28.6306],[80.4495,28.5138],[80.39,28.4693],[80.3084,28.4638]]]},"properties":{"district":"KHERI"}},
{"type":"Feature","geometry":{"type":"Polygon","coordinates":[[[78.9414,28.4599],[78.8671,28.4654],[78.8141,28.4442],[78.7881,28.3942],[78.6637,28.336],[78.6569,28.3077],[78.5823,28.0612],[78.6077,28.0178],[78.7667,27.963],[78.8431,27.9293],[78.8996,27.8998],[78.9137,27.8812],[78.918,27.8499],[79.1475,27.8292],[79.1815,27.7153],[79.2226,27.6959],[79.3522,27.6582],[79.3397,27.7114],[79.3589,27.7995],[79.3989,27.8389],[79.4732,27.8562],[79.4698,27.986],[79.5038,28.0156],[79.4957,28.1222],[79.4226,28.1729],[79.3277,28.1628],[79.2058,28.2032],[79.1445,28.1909],[79.0939,28.2522],[79.0667,28.3737],[78.9698,28.4221],[78.9414,28.4599]]]},"properties":{"district":"BUDAUN"}},
{"type":"Feature","geometry":{"type":"Polygon","coordinates":[[[80.0073,28.3779],[79.9731,28.304],[79.9961,28.1605],[79.9782,28.107],[79.8967,28.1401],[79.8678,28.1939],[79.7786,28.1656],[79.7391,28.1829],[79.7094,28.2532],[79.6356,28.1447],[79.6571,28.0935],[79.5995,28.0754],[79.5038,28.0156],[79.4698,27.986],[79.4732,27.8562],[79.3989,27.8389],[79.3589,27.7995],[79.3397,27.7114],[79.3522,27.6582],[79.4751,27.5993],[79.5318,27.5926],[79.5862,27.592],[79.6479,27.6379],[79.6623,27.4977],[79.737,27.4449],[79.7169,27.586],[79.6842,27.6252],[79.73,27.6735],[79.736,27.7192],[79.807,27.6579],[79.8592,27.6497],[79.9604,27.7307],[80.0064,27.7258],[80.0594,27.7695],[80.0339,27.8337],[80.052,27.873],[80.0338,27.9089],[80.0783,27.9283],[80.123,28.001],[80.1601,28.0228],[80.2532,28.0912],[80.2377,28.1432],[80.2983,28.1616],[80.3055,28.2691],[80.3679,28.336],[80.3668,28.3952],[80.3084,28.4638],[80.1839,28.358],[80.1452,28.402],[80.0477,28.3693],[80.0073,28.3779]]]},"properties":{"district":"SHAHJAHANPUR"}},
{"type":"Feature","geometry":{"type":"Polygon","coordinates":[[[81.1452,28.151],[81.1954,28.0946],[81.1695,28.0581],[81.196,28.0076],[81.3042,27.9048],[81.2803,27.8647],[81.2793,27.7569],[81.2789,27.6759],[81.2723,27.5893],[81.3311,27.4625],[81.4109,27.3351],[81.4198,27.3306],[81.4387,27.3128],[81.447,27.1309],[81.5049,27.059],[81.5161,27.086],[81.6413,27.1662],[81.6473,27.189],[81.7337,27.3301],[81.7973,27.2735],[81.8532,27.3267],[81.9134,27.352],[81.9413,27.4285],[81.9778,27.4355],[81.9941,27.4827],[81.8799,27.5288],[81.7663,27.5297],[81.7657,27.559],[81.6768,27.584],[81.6431,27.623],[81.6826,27.6355],[81.689,27.7178],[81.6535,27.7547],[81.6219,27.8443],[81.6845,27.9032],[81.6896,27.9083],[81.7482,27.9484],[81.6982,27.9878],[81.6421,27.994],[81.5315,28.0562],[81.4274,28.1712],[81.3179,28.1356],[81.3187,28.202],[81.2387,28.2811],[81.214,28.3576],[81.1016,28.3779],[81.0565,28.404],[81.0598,28.3429],[81.0344,28.2895],[81.0631,28.2316],[81.1069,28.2156],[81.1452,28.151]]]},"properties":{"district":"BAHRAICH"}},
{"type":"Feature","geometry":{"type":"Polygon","coordinates":[[[77.4748,28.0852],[77.4834,28.0399],[77.5431,27.9872],[77.5262,27.9273],[77.5265,27.921],[77.6728,27.9448],[77.7354,27.9302],[77.7771,27.8643],[77.808,27.8592],[77.7804,27.8458],[77.8339,27.7568],[77.7922,27.7353],[77.789,27.6838],[77.8478,27.6546],[77.8492,27.6065],[77.8994,27.5798],[77.9928,27.6019],[77.9908,27.6918],[78.0411,27.7817],[78.179,27.7553],[78.1735,27.7155],[78.2483,27.6707],[78.3737,27.756],[78.4218,27.8452],[78.4748,27.8086],[78.5285,27.9057],[78.6,27.9818],[78.6077,28.0178],[78.5823,28.0612],[78.5301,28.0512],[78.4891,28.0989],[78.4005,28.0877],[78.3476,28.1463],[78.2272,28.103],[78.2238,28.1013],[78.1346,28.0596],[78.051,28.125],[78.0019,28.0943],[77.9326,28.0859],[77.8836,28.1235],[77.84,28.1794],[77.7328,28.1214],[77.6023,28.1185],[77.5672,28.0879],[77.4748,28.0852]]]},"properties":{"district":"ALIGARH"}},
{"type":"Feature","geometry":{"type":"Polygon","coordinates":[[[78.6077,28.0178],[78.6,27.9818],[78.5285,27.9057],[78.4748,27.8086],[78.4737,27.762],[78.5182,27.7351],[78.5372,27.7807],[78.614,27.7428],[78.6792,27.7374],[78.7282,27.6367],[78.8007,27.6059],[78.8388,27.5988],[78.8925,27.5534],[78.9518,27.5726],[78.9988,27.6331],[79.0323,27.5812],[79.114,27.5569],[79.2068,27.5807],[79.1371,27.6426],[79.1297,27.691],[79.1815,27.7153],[79.1475,27.8292],[78.918,27.8499],[78.9137,27.8812],[78.8996,27.8998],[78.8431,27.9293],[78.7667,27.963],[78.6077,28.0178]]]},"properties":{"district":"KASGANJ"}},
{"type":"Feature","geometry":{"type":"Polygon","coordinates":[[[77.5265,27.921],[77.5262,27.9273],[77.4717,27.8836],[77.4095,27.8753],[77.2964,27.8258],[77.3029,27.7261],[77.3411,27.7035],[77.3549,27.5923],[77.3403,27.5262],[77.4381,27.456],[77.4395,27.3909],[77.5073,27.3767],[77.5478,27.3367],[77.6223,27.3363],[77.6183,27.2696],[77.6461,27.2424],[77.7593,27.248],[77.8454,27.2911],[77.9135,27.2849],[77.9193,27.235],[77.9496,27.2823],[77.9024,27.3231],[77.9178,27.3739],[77.9015,27.4409],[77.9428,27.4854],[77.8929,27.5508],[77.8994,27.5798],[77.8492,27.6065],[77.8478,27.6546],[77.789,27.6838],[77.7922,27.7353],[77.8339,27.7568],[77.7804,27.8458],[77.808,27.8592],[77.7771,27.8643],[77.7354,27.9302],[77.6728,27.9448],[77.5265,27.921]]]},"properties":{"district":"MATHURA"}},
{"type":"Feature","geometry":{"type":"Polygon","coordinates":[[[81.6896,27.9083],[81.6845,27.9032],[81.6219,27.8443],[81.6535,27.7547],[81.689,27.7178],[81.6826,27.6355],[81.6431,27.623],[81.6768,27.584],[81.7657,27.559],[81.7663,27.5297],[81.8799,27.5288],[81.9941,27.4827],[81.9778,27.4355],[82.0017,27.409],[82.0739,27.4049],[82.0493,27.523],[82.0353,27.5972],[82.1235,27.6908],[82.1447,27.7697],[82.2052,27.8444],[82.121,27.8656],[82.0696,27.9235],[81.968,27.9289],[81.8851,27.8562],[81.7482,27.9484],[81.6896,27.9083]]]},"properties":{"district":"SHRAWASTI"}},
{"type":"Feature","geometry":{"type":"Polygon","coordinates":[[[81.0026,27.8242],[81.0118,27.8794],[80.9576,27.8997],[80.8259,27.791],[80.7888,27.8183],[80.7219,27.8083],[80.6545,27.817],[80.6031,27.7623],[80.5633,27.7525],[80.4898,27.7755],[80.3783,27.7062],[80.3101,27.6794],[80.299,27.6314],[80.3251,27.5222],[80.3625,27.4811],[80.4306,27.4229],[80.4536,27.3597],[80.5173,27.2676],[80.5693,27.2931],[80.622,27.2646],[80.6556,27.2267],[80.7245,27.236],[80.7977,27.1998],[80.827,27.0999],[80.8353,27.1033],[80.9306,27.1587],[80.9689,27.2402],[81.0764,27.2295],[81.113,27.2746],[81.1828,27.2455],[81.2426,27.2848],[81.2839,27.3495],[81.3176,27.2855],[81.359,27.2575],[81.4109,27.3351],[81.3311,27.4625],[81.2723,27.5893],[81.2789,27.6759],[81.2657,27.7135],[81.203,27.7189],[81.1798,27.7842],[81.1045,27.797],[81.0026,27.8242]]]},"properties":{"district":"SITAPUR"}},
{"type":"Feature","geometry":{"type":"Polygon","coordinates":[[[78.4748,27.8086],[78.4218,27.8452],[78.3737,27.756],[78.2483,27.6707],[78.1735,27.7155],[78.179,27.7553],[78.0411,27.7817],[77.9908,27.6918],[77.9928,27.6019],[77.8994,27.5798],[77.8929,27.5508],[77.9428,27.4854],[77.9015,27.4409],[77.9178,27.3739],[77.9024,27.3231],[77.9496,27.2823],[77.969,27.2692],[78.0665,27.3679],[78.1358,27.3647],[78.1969,27.4029],[78.1739,27.4304],[78.2042,27.5022],[78.2521,27.5183],[78.3314,27.5771],[78.3751,27.5657],[78.4349,27.5908],[78.5051,27.6233],[78.5182,27.7351],[78.4737,27.762],[78.4748,27.8086]]]},"properties":{"district":"HATHRAS"}},
{"type":"Feature","geometry":{"type":"Polygon","coordinates":[[[82.0353,27.5972],[82.0493,27.523],[82.0739,27.4049],[82.2873,27.2534],[82.3063,27.2236],[82.2458,27.2223],[82.2337,27.167],[82.2846,27.1221],[82.337,27.0541],[82.41,27.0784],[82.4794,27.1523],[82.5529,27.2152],[82.5117,27.2114],[82.472,27.3203],[82.487,27.3412],[82.5424,27.3689],[82.5838,27.4227],[82.694,27.4089],[82.7362,27.5027],[82.7542,27.5854],[82.6993,27.7221],[82.541,27.6859],[82.447,27.6814],[82.3675,27.7436],[82.3041,27.7736],[82.2052,27.8444],[82.1447,27.7697],[82.1235,27.6908],[82.0353,27.5972]]]},"properties":{"district":"BALRAMPUR"}},
{"type":"Feature","geometry":{"type":"Polygon","coordinates":[[[78.5182,27.7351],[78.5051,27.6233],[78.4349,27.5908],[78.3751,27.5657],[78.3314,27.5771],[78.2521,27.5183],[78.2042,27.5022],[78.1739,27.4304],[78.1969,27.4029],[78.292,27.3755],[78.2793,27.3218],[78.3128,27.3175],[78.3995,27.372],[78.4779,27.3431],[78.4641,27.4254],[78.5432,27.4424],[78.5977,27.5044],[78.5994,27.5082],[78.6614,27.4908],[78.6395,27.4322],[78.7194,27.3679],[78.7203,27.3442],[78.7646,27.3371],[78.8346,27.3613],[78.8518,27.4179],[78.9008,27.4679],[78.9603,27.4182],[79.0551,27.4208],[79.107,27.4347],[79.1401,27.3776],[79.2127,27.3327],[79.2553,27.3304],[79.2542,27.3939],[79.2463,27.4716],[79.2734,27.5147],[79.2207,27.5364],[79.2068,27.5807],[79.114,27.5569],[79.0323,27.5812],[78.9988,27.6331],[78.9518,27.5726],[78.8925,27.5534],[78.8388,27.5988],[78.8007,27.6059],[78.7282,27.6367],[78.6792,27.7374],[78.614,27.7428],[78.5372,27.7807],[78.5182,27.7351]]]},"properties":{"district":"ETAH"}},
{"type":"Feature","geometry":{"type":"Polygon","coordinates":[[[80.0594,27.7695],[80.0064,27.7258],[79.9604,27.7307],[79.8592,27.6497],[79.807,27.6579],[79.736,27.7192],[79.73,27.6735],[79.6842,27.6252],[79.7169,27.586],[79.737,27.4449],[79.6914,27.3899],[79.7313,27.2817],[79.6959,27.2498],[79.7156,27.2223],[79.7635,27.1975],[79.9103,27.135],[79.9512,27.1141],[80.016,26.9551],[80.0445,26.9251],[80.1136,26.9965],[80.1899,26.9613],[80.2837,27.0293],[80.3313,26.9908],[80.3628,26.9214],[80.3995,26.9113],[80.4709,26.979],[80.4904,26.9896],[80.5604,27.0104],[80.6465,27.0782],[80.7007,27.0624],[80.7398,27.1023],[80.827,27.0999],[80.7977,27.1998],[80.7245,27.236],[80.6556,27.2267],[80.622,27.2646],[80.5693,27.2931],[80.5173,27.2676],[80.4536,27.3597],[80.4306,27.4229],[80.3625,27.4811],[80.3251,27.5222],[80.299,27.6314],[80.3101,27.6794],[80.2883,27.7083],[80.2013,27.7758],[80.1318,27.7542],[80.0594,27.7695]]]},"properties":{"district":"HARDOI"}},
{"type":"Feature","geometry":{"type":"Polygon","coordinates":[[[79.2226,27.6959],[79.1815,27.7153],[79.1297,27.691],[79.1371,27.6426],[79.2068,27.5807],[79.2207,27.5364],[79.2734,27.5147],[79.2463,27.4716],[79.2542,27.3939],[79.2553,27.3304],[79.3196,27.2783],[79.3146,27.2425],[79.3772,27.2039],[79.3962,27.1968],[79.4496,27.2159],[79.5188,27.2089],[79.5552,27.1569],[79.6309,27.1856],[79.6598,27.165],[79.7156,27.2223],[79.6959,27.2498],[79.7313,27.2817],[79.6914,27.3899],[79.737,27.4449],[79.6623,27.4977],[79.6479,27.6379],[79.5862,27.592],[79.5318,27.5926],[79.4751,27.5993],[79.3522,27.6582],[79.2226,27.6959]]]},"properties":{"district":"FARRUKHABAD"}},
{"type":"Feature","geometry":{"type":"Polygon","coordinates":[[[78.5977,27.5044],[78.5432,27.4424],[78.4641,27.4254],[78.4779,27.3431],[78.3995,27.372],[78.3128,27.3175],[78.2793,27.3218],[78.198,27.3131],[78.2152,27.2714],[78.1988,27.2005],[78.2209,27.1581],[78.2018,27.1157],[78.224,27.077],[78.2945,27.0871],[78.2979,27.1206],[78.4231,27.0524],[78.4508,26.9854],[78.5428,26.9615],[78.6232,26.9423],[78.6353,26.8825],[78.6734,26.8782],[78.7456,26.9142],[78.8062,26.9586],[78.762,27.0525],[78.8067,27.1438],[78.7448,27.1796],[78.7384,27.2441],[78.7203,27.3442],[78.7194,27.3679],[78.6395,27.4322],[78.6614,27.4908],[78.5994,27.5082],[78.5977,27.5044]]]},"properties":{"district":"FIROZABAD"}},
{"type":"Feature","geometry":{"type":"Polygon","coordinates":[[[82.694,27.4089],[82.5838,27.4227],[82.5424,27.3689],[82.487,27.3412],[82.472,27.3203],[82.5117,27.2114],[82.5529,27.2152],[82.4794,27.1523],[82.563,27.0772],[82.671,27.125],[82.7572,27.1053],[82.7995,27.0731],[82.8721,27.0391],[82.9029,27.0214],[82.9491,27.0271],[83.0325,27.0961],[83.1238,27.1006],[83.1284,27.141],[83.1286,27.1416],[83.174,27.1552],[83.2022,27.2267],[83.2684,27.3257],[83.2928,27.3361],[83.2722,27.3833],[83.1882,27.4539],[83.1042,27.4542],[82.9668,27.4643],[82.9298,27.5013],[82.7362,27.5027],[82.694,27.4089]]]},"properties":{"district":"SIDDHARTHNAGAR"}},
{"type":"Feature","geometry":{"type":"Polygon","coordinates":[[[78.9008,27.4679],[78.8518,27.4179],[78.8346,27.3613],[78.7646,27.3371],[78.7203,27.3442],[78.7384,27.2441],[78.7448,27.1796],[78.8067,27.1438],[78.762,27.0525],[78.8062,26.9586],[78.8671,26.9577],[78.925,26.9846],[78.9974,26.9289],[79.0348,26.9672],[79.1342,27.0008],[79.2088,26.97],[79.2727,26.9895],[79.325,26.9599],[79.3553,26.965],[79.4247,27.0623],[79.3911,27.1011],[79.4132,27.1383],[79.3962,27.1968],[79.3772,27.2039],[79.3146,27.2425],[79.3196,27.2783],[79.2553,27.3304],[79.2127,27.3327],[79.1401,27.3776],[79.107,27.4347],[79.0551,27.4208],[78.9603,27.4182],[78.9008,27.4679]]]},"properties":{"district":"MAINPURI"}},
{"type":"Feature","geometry":{"type":"Polygon","coordinates":[[[83.3375,27.3338],[83.2928,27.3361],[83.2684,27.3257],[83.2022,27.2267],[83.174,27.1552],[83.1286,27.1416],[83.1758,27.0878],[83.3156,27.0498],[83.3395,27.0916],[83.4014,27.0857],[83.3294,26.9813],[83.3715,26.958],[83.4492,26.9602],[83.4875,26.8976],[83.5449,26.8858],[83.5705,26.9336],[83.6243,26.9557],[83.724,26.9512],[83.7644,27.0005],[83.7443,27.0184],[83.7482,27.0789],[83.8019,27.111],[83.8074,27.2498],[83.873,27.2971],[83.9068,27.2756],[83.9319,27.3125],[83.7352,27.4141],[83.6149,27.4691],[83.388,27.4793],[83.4094,27.4125],[83.3375,27.3338]]]},"properties":{"district":"MAHRAJGANJ"}},
{"type":"Feature","geometry":{"type":"Polygon","coordinates":[[[77.969,27.2692],[77.9496,27.2823],[77.9193,27.235],[77.9135,27.2849],[77.8454,27.2911],[77.7593,27.248],[77.6461,27.2424],[77.681,27.1941],[77.6047,27.1234],[77.5502,27.1105],[77.5976,27.0244],[77.6898,27.0266],[77.7628,27.0032],[77.6608,26.971],[77.5832,26.9242],[77.4603,26.8855],[77.4224,26.8403],[77.4549,26.7776],[77.5006,26.8163],[77.5575,26.8176],[77.675,26.8577],[77.7595,26.9327],[77.9086,26.8903],[77.9873,26.8895],[78.1014,26.9175],[78.1251,26.9493],[78.2643,26.9274],[78.2085,26.8688],[78.223,26.8307],[78.3626,26.8692],[78.3989,26.8185],[78.5212,26.7805],[78.5762,26.7488],[78.6732,26.7644],[78.7219,26.7963],[78.7797,26.7587],[78.7927,26.8012],[78.8491,26.8176],[78.7794,26.8646],[78.7456,26.9142],[78.6734,26.8782],[78.6353,26.8825],[78.6232,26.9423],[78.5428,26.9615],[78.4508,26.9854],[78.4231,27.0524],[78.2979,27.1206],[78.2945,27.0871],[78.224,27.077],[78.2018,27.1157],[78.2209,27.1581],[78.1988,27.2005],[78.2152,27.2714],[78.198,27.3131],[78.2793,27.3218],[78.292,27.3755],[78.1969,27.4029],[78.1358,27.3647],[78.0665,27.3679],[77.969,27.2692]]]},"properties":{"district":"AGRA"}},
{"type":"Feature","geometry":{"type":"Polygon","coordinates":[[[81.9778,27.4355],[81.9413,27.4285],[81.9134,27.352],[81.8532,27.3267],[81.7973,27.2735],[81.7337,27.3301],[81.6473,27.189],[81.6413,27.1662],[81.5161,27.086],[81.5049,27.059],[81.5659,27.0202],[81.646,27.0159],[81.658,26.9648],[81.7665,26.8846],[81.7816,26.8708],[81.8553,26.8386],[81.9173,26.791],[81.9939,26.7861],[82.0653,26.8076],[82.1862,26.8371],[82.229,26.8124],[82.2339,26.92],[82.2999,26.9637],[82.3545,26.9314],[82.3885,26.9492],[82.4884,26.9057],[82.5833,26.9964],[82.563,27.0772],[82.4794,27.1523],[82.41,27.0784],[82.337,27.0541],[82.2846,27.1221],[82.2337,27.167],[82.2458,27.2223],[82.3063,27.2236],[82.2873,27.2534],[82.0739,27.4049],[82.0017,27.409],[81.9778,27.4355]]]},"properties":{"district":"GONDA"}},
{"type":"Feature","geometry":{"type":"Polygon","coordinates":[[[81.2839,27.3495],[81.2426,27.2848],[81.1828,27.2455],[81.113,27.2746],[81.0764,27.2295],[80.9689,27.2402],[80.9306,27.1587],[81.0091,27.1426],[81.0485,27.0929],[81.0123,27.0659],[80.9965,27.0002],[81.0274,26.9859],[81.0412,26.9399],[81.0982,26.8838],[81.0901,26.8361],[81.1207,26.8358],[81.1863,26.7796],[81.2144,26.7225],[81.1665,26.6438],[81.166,26.5957],[81.2184,26.5991],[81.3425,26.5461],[81.3915,26.5754],[81.5417,26.5255],[81.5587,26.6421],[81.5571,26.6875],[81.5171,26.7714],[81.5797,26.8277],[81.6394,26.8188],[81.7816,26.8708],[81.7665,26.8846],[81.658,26.9648],[81.646,27.0159],[81.5659,27.0202],[81.5049,27.059],[81.447,27.1309],[81.4387,27.3128],[81.4198,27.3306],[81.4109,27.3351],[81.359,27.2575],[81.3176,27.2855],[81.2839,27.3495]]]},"properties":{"district":"BARA BANKI"}},
{"type":"Feature","geometry":{"type":"Polygon","coordinates":[[[83.7482,27.0789],[83.7443,27.0184],[83.7644,27.0005],[83.724,26.9512],[83.6243,26.9557],[83.5705,26.9336],[83.5449,26.8858],[83.5245,26.8524],[83.5849,26.8068],[83.6129,26.7472],[83.6297,26.6574],[83.6813,26.7003],[83.7194,26.6867],[83.8376,26.7512],[83.888,26.7339],[83.9049,26.6914],[83.9598,26.6595],[84.009,26.5766],[84.0559,26.5481],[84.0886,26.6161],[84.1593,26.6361],[84.2847,26.5996],[84.3074,26.6163],[84.4195,26.6261],[84.4065,26.6726],[84.3303,26.684],[84.3078,26.748],[84.256,26.7268],[84.2546,26.856],[84.2195,26.8717],[84.1619,26.8354],[84.1464,26.8855],[84.0877,26.8818],[84.0524,26.9064],[84.0493,27.0439],[84,27.0695],[83.9477,27.1125],[83.9874,27.197],[83.9068,27.2756],[83.873,27.2971],[83.8074,27.2498],[83.8019,27.111],[83.7482,27.0789]]]},"properties":{"district":"KUSHINAGAR"}},
{"type":"Feature","geometry":{"type":"Polygon","coordinates":[[[79.7156,27.2223],[79.6598,27.165],[79.6309,27.1856],[79.5552,27.1569],[79.5188,27.2089],[79.4496,27.2159],[79.3962,27.1968],[79.4132,27.1383],[79.3911,27.1011],[79.4247,27.0623],[79.3553,26.965],[79.325,26.9599],[79.3485,26.9344],[79.4366,26.9411],[79.4554,26.9037],[79.5603,26.8594],[79.6142,26.8924],[79.6649,26.8863],[79.7007,26.8232],[79.7562,26.7821],[79.842,26.7736],[79.857,26.8267],[79.8931,26.8244],[79.9385,26.8766],[79.9448,26.9452],[80.016,26.9551],[79.9512,27.1141],[79.9103,27.135],[79.7635,27.1975],[79.7156,27.2223]]]},"properties":{"district":"KANNAUJ"}},
{"type":"Feature","geometry":{"type":"Polygon","coordinates":[[[80.8353,27.1033],[80.827,27.0999],[80.7398,27.1023],[80.7007,27.0624],[80.6465,27.0782],[80.5604,27.0104],[80.6001,26.9834],[80.6267,26.8892],[80.6915,26.8452],[80.7401,26.7903],[80.6924,26.7606],[80.7283,26.6562],[80.7994,26.6482],[80.871,26.6425],[80.8888,26.599],[81.0045,26.5272],[81.0526,26.5057],[81.099,26.5629],[81.166,26.5957],[81.1665,26.6438],[81.2144,26.7225],[81.1863,26.7796],[81.1207,26.8358],[81.0901,26.8361],[81.0982,26.8838],[81.0412,26.9399],[81.0274,26.9859],[80.9965,27.0002],[81.0123,27.0659],[81.0485,27.0929],[81.0091,27.1426],[80.9306,27.1587],[80.8353,27.1033]]]},"properties":{"district":"LUCKNOW"}},
{"type":"Feature","geometry":{"type":"Polygon","coordinates":[[[83.1284,27.141],[83.1238,27.1006],[83.1682,27.0004],[83.2259,26.9783],[83.2157,26.8856],[83.164,26.8804],[83.0976,26.8059],[83.1445,26.765],[83.093,26.7216],[83.1009,26.6586],[83.1342,26.634],[83.1401,26.5619],[83.1674,26.5066],[83.0951,26.4861],[83.0678,26.408],[83.132,26.3854],[83.2271,26.3951],[83.2522,26.3796],[83.2768,26.365],[83.3395,26.3489],[83.423,26.2712],[83.5088,26.278],[83.6315,26.2246],[83.6561,26.3182],[83.6174,26.3308],[83.5784,26.3759],[83.5349,26.3679],[83.4766,26.4606],[83.5001,26.4963],[83.5981,26.5138],[83.6255,26.5678],[83.6297,26.6574],[83.6129,26.7472],[83.5849,26.8068],[83.5245,26.8524],[83.5449,26.8858],[83.4875,26.8976],[83.4492,26.9602],[83.3715,26.958],[83.3294,26.9813],[83.4014,27.0857],[83.3395,27.0916],[83.3156,27.0498],[83.1758,27.0878],[83.1286,27.1416],[83.1284,27.141]]]},"properties":{"district":"GORAKHPUR"}},
{"type":"Feature","geometry":{"type":"Polygon","coordinates":[[[82.8721,27.0391],[82.7995,27.0731],[82.7572,27.1053],[82.671,27.125],[82.563,27.0772],[82.5833,26.9964],[82.4884,26.9057],[82.3885,26.9492],[82.3545,26.9314],[82.2999,26.9637],[82.2339,26.92],[82.229,26.8124],[82.3741,26.7127],[82.3751,26.6815],[82.4512,26.64],[82.4781,26.6682],[82.4799,26.6695],[82.5078,26.6406],[82.6032,26.608],[82.6373,26.5942],[82.7606,26.5587],[82.8292,26.5875],[82.8778,26.5262],[82.9111,26.5735],[82.9138,26.6464],[82.9668,26.6781],[82.9629,26.7268],[82.8845,26.7857],[82.8458,26.8753],[82.8706,26.9396],[82.9182,26.9179],[82.9029,27.0214],[82.8721,27.0391]]]},"properties":{"district":"BASTI"}},
{"type":"Feature","geometry":{"type":"Polygon","coordinates":[[[82.9029,27.0214],[82.9182,26.9179],[82.8706,26.9396],[82.8458,26.8753],[82.8845,26.7857],[82.9629,26.7268],[82.9668,26.6781],[82.9138,26.6464],[82.9111,26.5735],[82.8778,26.5262],[82.8796,26.5238],[83.0022,26.4819],[83.0678,26.408],[83.0951,26.4861],[83.1674,26.5066],[83.1401,26.5619],[83.1342,26.634],[83.1009,26.6586],[83.093,26.7216],[83.1445,26.765],[83.0976,26.8059],[83.164,26.8804],[83.2157,26.8856],[83.2259,26.9783],[83.1682,27.0004],[83.1238,27.1006],[83.0325,27.0961],[82.9491,27.0271],[82.9029,27.0214]]]},"properties":{"district":"SANT KABIR NAGAR"}},
{"type":"Feature","geometry":{"type":"Polygon","coordinates":[[[80.2837,27.0293],[80.1899,26.9613],[80.1136,26.9965],[80.0445,26.9251],[80.1423,26.8595],[80.1176,26.7749],[80.1975,26.6997],[80.2988,26.6777],[80.2798,26.6373],[80.2951,26.5497],[80.3343,26.5244],[80.3793,26.4953],[80.3697,26.4732],[80.4106,26.4331],[80.4282,26.4182],[80.5164,26.359],[80.5915,26.231],[80.5918,26.1769],[80.6439,26.1315],[80.6702,26.1028],[80.685,26.1442],[80.823,26.2206],[80.8859,26.2935],[80.827,26.3409],[80.8446,26.3713],[80.9475,26.3483],[80.9959,26.3111],[81.0291,26.3977],[80.9903,26.4715],[81.0045,26.5272],[80.8888,26.599],[80.871,26.6425],[80.7994,26.6482],[80.7283,26.6562],[80.6924,26.7606],[80.7401,26.7903],[80.6915,26.8452],[80.6267,26.8892],[80.6001,26.9834],[80.5604,27.0104],[80.4904,26.9896],[80.4709,26.979],[80.3995,26.9113],[80.3628,26.9214],[80.3313,26.9908],[80.2837,27.0293]]]},"properties":{"district":"UNNAO"}},
{"type":"Feature","geometry":{"type":"Polygon","coordinates":[[[78.8062,26.9586],[78.7456,26.9142],[78.7794,26.8646],[78.8491,26.8176],[78.7927,26.8012],[78.7797,26.7587],[78.8182,26.7615],[78.8723,26.6978],[78.9123,26.7068],[79.0087,26.6647],[79.004,26.6287],[79.0139,26.5464],[79.0997,26.4524],[79.135,26.4399],[79.2315,26.4266],[79.287,26.4825],[79.22,26.5659],[79.256,26.6087],[79.3312,26.6609],[79.3349,26.7902],[79.3382,26.8004],[79.3485,26.9344],[79.325,26.9599],[79.2727,26.9895],[79.2088,26.97],[79.1342,27.0008],[79.0348,26.9672],[78.9974,26.9289],[78.925,26.9846],[78.8671,26.9577],[78.8062,26.9586]]]},"properties":{"district":"ETAWAH"}},
{"type":"Feature","geometry":{"type":"Polygon","coordinates":[[[80.016,26.9551],[79.9448,26.9452],[79.9385,26.8766],[79.8931,26.8244],[79.9407,26.7964],[80.0256,26.6069],[80.1612,26.5429],[80.1634,26.5225],[80.1282,26.4785],[80.1376,26.3678],[80.1852,26.3347],[80.1606,26.2919],[80.0141,26.2546],[80.0057,26.1881],[79.9641,26.1524],[79.9566,26.0753],[80.0436,26.0731],[80.1117,26.0437],[80.0845,25.9977],[80.2375,25.9238],[80.2544,26.0453],[80.3025,26.0612],[80.321,26.1108],[80.3694,26.1405],[80.4695,26.1827],[80.5915,26.231],[80.5164,26.359],[80.4282,26.4182],[80.4106,26.4331],[80.3697,26.4732],[80.3793,26.4953],[80.3343,26.5244],[80.2951,26.5497],[80.2798,26.6373],[80.2988,26.6777],[80.1975,26.6997],[80.1176,26.7749],[80.1423,26.8595],[80.0445,26.9251],[80.016,26.9551]]]},"properties":{"district":"KANPUR NAGAR"}},
{"type":"Feature","geometry":{"type":"Polygon","coordinates":[[[79.3485,26.9344],[79.3382,26.8004],[79.3349,26.7902],[79.3312,26.6609],[79.256,26.6087],[79.22,26.5659],[79.287,26.4825],[79.2315,26.4266],[79.2872,26.4423],[79.3236,26.3985],[79.4036,26.4242],[79.4867,26.4187],[79.5059,26.3642],[79.5895,26.4631],[79.6384,26.5291],[79.6337,26.5902],[79.7071,26.6436],[79.7204,26.6908],[79.6906,26.7316],[79.7562,26.7821],[79.7007,26.8232],[79.6649,26.8863],[79.6142,26.8924],[79.5603,26.8594],[79.4554,26.9037],[79.4366,26.9411],[79.3485,26.9344]]]},"properties":{"district":"AURAIYA"}},
{"type":"Feature","geometry":{"type":"Polygon","coordinates":[[[81.7816,26.8708],[81.6394,26.8188],[81.5797,26.8277],[81.5171,26.7714],[81.5571,26.6875],[81.5587,26.6421],[81.6425,26.6398],[81.7025,26.5883],[81.698,26.5434],[81.783,26.5438],[81.8936,26.5131],[81.974,26.5144],[82.0077,26.4929],[82.0905,26.4775],[82.1646,26.4308],[82.2189,26.4094],[82.2982,26.4858],[82.3365,26.5787],[82.3907,26.5415],[82.4572,26.5769],[82.4765,26.6112],[82.4683,26.6296],[82.4799,26.6695],[82.4781,26.6682],[82.4512,26.64],[82.3751,26.6815],[82.3741,26.7127],[82.229,26.8124],[82.1862,26.8371],[82.0653,26.8076],[81.9939,26.7861],[81.9173,26.791],[81.8553,26.8386],[81.7816,26.8708]]]},"properties":{"district":"AYODHYA"}},
{"type":"Feature","geometry":{"type":"Polygon","coordinates":[[[79.857,26.8267],[79.842,26.7736],[79.7562,26.7821],[79.6906,26.7316],[79.7204,26.6908],[79.7071,26.6436],[79.6337,26.5902],[79.6384,26.5291],[79.5895,26.4631],[79.5059,26.3642],[79.5287,26.2958],[79.5719,26.2594],[79.6432,26.2485],[79.656,26.2095],[79.7621,26.1838],[79.7444,26.1369],[79.7825,26.1103],[79.8662,26.1168],[79.9188,26.0904],[79.9641,26.1524],[80.0057,26.1881],[80.0141,26.2546],[80.1606,26.2919],[80.1852,26.3347],[80.1376,26.3678],[80.1282,26.4785],[80.1634,26.5225],[80.1612,26.5429],[80.0256,26.6069],[79.9407,26.7964],[79.8931,26.8244],[79.857,26.8267]]]},"properties":{"district":"KANPUR DEHAT"}},
{"type":"Feature","geometry":{"type":"Polygon","coordinates":[[[83.9598,26.6595],[83.9049,26.6914],[83.888,26.7339],[83.8376,26.7512],[83.7194,26.6867],[83.6813,26.7003],[83.6297,26.6574],[83.6255,26.5678],[83.5981,26.5138],[83.5001,26.4963],[83.4766,26.4606],[83.5349,26.3679],[83.5784,26.3759],[83.6174,26.3308],[83.6561,26.3182],[83.6315,26.2246],[83.7423,26.2663],[83.8084,26.1904],[83.869,26.1599],[83.9212,26.1198],[84.0562,26.1],[84.0085,26.1888],[84.0133,26.2301],[84.0621,26.2223],[84.1766,26.2646],[84.1756,26.373],[84.0681,26.3884],[83.9906,26.4326],[83.9109,26.4498],[83.9314,26.5208],[83.9738,26.508],[84.0559,26.5481],[84.009,26.5766],[83.9598,26.6595]]]},"properties":{"district":"DEORIA"}},
{"type":"Feature","geometry":{"type":"Polygon","coordinates":[[[82.4799,26.6695],[82.4683,26.6296],[82.4765,26.6112],[82.4572,26.5769],[82.3907,26.5415],[82.3365,26.5787],[82.2982,26.4858],[82.2189,26.4094],[82.3729,26.3819],[82.4208,26.3183],[82.4949,26.2862],[82.5518,26.287],[82.5822,26.2557],[82.6788,26.2563],[82.7454,26.2501],[82.786,26.1876],[82.8859,26.1857],[82.8715,26.2734],[82.8902,26.3384],[82.8823,26.3822],[82.9533,26.3893],[82.9657,26.359],[83.0912,26.2816],[83.132,26.3854],[83.0678,26.408],[83.0022,26.4819],[82.8796,26.5238],[82.8778,26.5262],[82.8292,26.5875],[82.7606,26.5587],[82.6373,26.5942],[82.6032,26.608],[82.5078,26.6406],[82.4799,26.6695]]]},"properties":{"district":"AMBEDKAR NAGAR"}},
{"type":"Feature","geometry":{"type":"Polygon","coordinates":[[[81.5587,26.6421],[81.5417,26.5255],[81.3915,26.5754],[81.3425,26.5461],[81.4115,26.4182],[81.4118,26.3463],[81.3803,26.3307],[81.3912,26.2151],[81.549,26.2048],[81.5896,26.2421],[81.6181,26.1806],[81.6828,26.1138],[81.7666,26.0545],[81.8579,26.0463],[81.8845,26.0817],[82.0521,26.0557],[82.0444,26.1527],[81.9838,26.1867],[81.8402,26.2868],[81.8321,26.3283],[81.8675,26.3713],[81.8054,26.4306],[81.8499,26.5081],[81.8936,26.5131],[81.783,26.5438],[81.698,26.5434],[81.7025,26.5883],[81.6425,26.6398],[81.5587,26.6421]]]},"properties":{"district":"AMETHI"}},
{"type":"Feature","geometry":{"type":"Polygon","coordinates":[[[81.0045,26.5272],[80.9903,26.4715],[81.0291,26.3977],[80.9959,26.3111],[80.9475,26.3483],[80.8446,26.3713],[80.827,26.3409],[80.8859,26.2935],[80.823,26.2206],[80.685,26.1442],[80.6702,26.1028],[80.7143,26.0766],[80.8005,26.0655],[80.8228,26.0214],[80.8746,26.0546],[80.9516,26.0546],[80.9983,26.0776],[81.0438,26.0364],[81.1181,25.9696],[81.2163,25.9398],[81.2134,25.8743],[81.2921,25.8474],[81.3383,25.8107],[81.3689,25.8667],[81.4394,25.9188],[81.447,25.9366],[81.5239,25.9555],[81.5599,25.9953],[81.5672,26.0726],[81.5491,26.1321],[81.6181,26.1806],[81.5896,26.2421],[81.549,26.2048],[81.3912,26.2151],[81.3803,26.3307],[81.4118,26.3463],[81.4115,26.4182],[81.3425,26.5461],[81.2184,26.5991],[81.166,26.5957],[81.099,26.5629],[81.0526,26.5057],[81.0045,26.5272]]]},"properties":{"district":"RAE BARELI"}},
{"type":"Feature","geometry":{"type":"Polygon","coordinates":[[[81.8936,26.5131],[81.8499,26.5081],[81.8054,26.4306],[81.8675,26.3713],[81.8321,26.3283],[81.8402,26.2868],[81.9838,26.1867],[82.0444,26.1527],[82.0521,26.0557],[82.1159,26.0658],[82.2054,26.0238],[82.2427,26.0564],[82.3182,26.0395],[82.3569,26.0055],[82.3991,26.0247],[82.4349,26.0067],[82.4984,25.9749],[82.511,26.0309],[82.4357,26.0998],[82.4552,26.1352],[82.5425,26.1372],[82.6109,26.1957],[82.6786,26.1519],[82.6788,26.2563],[82.5822,26.2557],[82.5518,26.287],[82.4949,26.2862],[82.4208,26.3183],[82.3729,26.3819],[82.2189,26.4094],[82.1646,26.4308],[82.0905,26.4775],[82.0077,26.4929],[81.974,26.5144],[81.8936,26.5131]]]},"properties":{"district":"SULTANPUR"}},
{"type":"Feature","geometry":{"type":"Polygon","coordinates":[[[79.135,26.4399],[79.0889,26.3968],[79.1155,26.3205],[79.0641,26.277],[79.0282,26.2037],[78.9833,26.1842],[78.9583,26.1279],[79.012,26.0829],[78.948,26.0271],[78.9363,25.9523],[79.0842,25.9173],[79.0383,25.8683],[79.1207,25.8478],[79.1348,25.809],[79.2118,25.7887],[79.2431,25.8064],[79.3242,25.7663],[79.3961,25.7955],[79.4982,25.8578],[79.6127,25.9064],[79.6238,25.9325],[79.6598,25.904],[79.7477,25.9094],[79.786,25.8633],[79.8706,25.882],[79.8663,25.9359],[79.9332,25.9765],[79.9545,26.0232],[79.9188,26.0904],[79.8662,26.1168],[79.7825,26.1103],[79.7444,26.1369],[79.7621,26.1838],[79.656,26.2095],[79.6432,26.2485],[79.5719,26.2594],[79.5287,26.2958],[79.5059,26.3642],[79.4867,26.4187],[79.4036,26.4242],[79.3236,26.3985],[79.2872,26.4423],[79.2315,26.4266],[79.135,26.4399]]]},"properties":{"district":"JALAUN"}},
{"type":"Feature","geometry":{"type":"Polygon","coordinates":[[[82.8902,26.3384],[82.8715,26.2734],[82.8859,26.1857],[82.786,26.1876],[82.7454,26.2501],[82.6788,26.2563],[82.6786,26.1519],[82.7184,26.0416],[82.7255,25.9937],[82.7663,25.8947],[82.7592,25.8364],[82.8056,25.8056],[82.8668,25.772],[82.8985,25.7737],[82.9802,25.6791],[83.0311,25.7052],[83.0664,25.6523],[83.0984,25.6577],[83.1483,25.6358],[83.1863,25.6886],[83.2184,25.7594],[83.3456,25.8146],[83.3251,25.8419],[83.3528,26.0439],[83.3803,26.0801],[83.4187,26.1237],[83.4314,26.204],[83.5088,26.278],[83.423,26.2712],[83.3395,26.3489],[83.2768,26.365],[83.2522,26.3796],[83.2271,26.3951],[83.132,26.3854],[83.0912,26.2816],[82.9657,26.359],[82.9533,26.3893],[82.8823,26.3822],[82.8902,26.3384]]]},"properties":{"district":"AZAMGARH"}},
{"type":"Feature","geometry":{"type":"Polygon","coordinates":[[[83.5088,26.278],[83.4314,26.204],[83.4187,26.1237],[83.3803,26.0801],[83.3528,26.0439],[83.3251,25.8419],[83.3456,25.8146],[83.4605,25.8501],[83.4788,25.8397],[83.5529,25.8674],[83.6673,25.8801],[83.7312,25.8571],[83.7964,25.9312],[83.7958,25.9842],[83.6778,26.0218],[83.6853,26.0637],[83.7923,26.1159],[83.8084,26.1904],[83.7423,26.2663],[83.6315,26.2246],[83.5088,26.278]]]},"properties":{"district":"MAU"}},
{"type":"Feature","geometry":{"type":"Polygon","coordinates":[[[80.3694,26.1405],[80.321,26.1108],[80.3025,26.0612],[80.2544,26.0453],[80.2375,25.9238],[80.3087,25.8888],[80.3457,25.9],[80.4053,25.9135],[80.5549,25.8659],[80.4697,25.8123],[80.5669,25.7189],[80.6781,25.6963],[80.7816,25.6909],[80.8214,25.7203],[80.8577,25.6788],[80.9484,25.6688],[80.956,25.6088],[81.022,25.6351],[81.0206,25.5471],[81.0367,25.5305],[81.1892,25.4902],[81.1877,25.4476],[81.2164,25.4488],[81.2495,25.522],[81.2556,25.5574],[81.2069,25.5984],[81.2697,25.7558],[81.3383,25.8107],[81.2921,25.8474],[81.2134,25.8743],[81.2163,25.9398],[81.1181,25.9696],[81.0438,26.0364],[80.9983,26.0776],[80.9516,26.0546],[80.8746,26.0546],[80.8228,26.0214],[80.8005,26.0655],[80.7143,26.0766],[80.6702,26.1028],[80.6439,26.1315],[80.5918,26.1769],[80.5915,26.231],[80.4695,26.1827],[80.3694,26.1405]]]},"properties":{"district":"FATEHPUR"}},
{"type":"Feature","geometry":{"type":"Polygon","coordinates":[[[82.4984,25.9749],[82.4349,26.0067],[82.3603,25.9638],[82.372,25.913],[82.2946,25.8915],[82.2786,25.8491],[82.2158,25.8378],[82.2037,25.8225],[82.1749,25.8246],[82.1869,25.7054],[82.1608,25.68],[82.1372,25.6222],[82.186,25.5769],[82.2242,25.5892],[82.3323,25.5354],[82.3416,25.5342],[82.3568,25.5089],[82.4433,25.5185],[82.5082,25.4704],[82.5488,25.4366],[82.6096,25.4493],[82.6196,25.3935],[82.6942,25.3947],[82.7213,25.535],[82.7788,25.5293],[82.8299,25.5532],[82.9336,25.5666],[82.9501,25.5294],[82.9774,25.5565],[83.0708,25.5513],[83.0861,25.5906],[83.0664,25.6523],[83.0311,25.7052],[82.9802,25.6791],[82.8985,25.7737],[82.8668,25.772],[82.8056,25.8056],[82.7592,25.8364],[82.7663,25.8947],[82.7255,25.9937],[82.7184,26.0416],[82.6786,26.1519],[82.6109,26.1957],[82.5425,26.1372],[82.4552,26.1352],[82.4357,26.0998],[82.511,26.0309],[82.4984,25.9749]]]},"properties":{"district":"JAUNPUR"}},
{"type":"Feature","geometry":{"type":"Polygon","coordinates":[[[83.8084,26.1904],[83.7923,26.1159],[83.6853,26.0637],[83.6778,26.0218],[83.7958,25.9842],[83.7964,25.9312],[83.7312,25.8571],[83.7699,25.8174],[83.9007,25.7574],[83.9409,25.7595],[83.9446,25.67],[83.93,25.5575],[84.0834,25.6447],[84.1051,25.7211],[84.1737,25.7211],[84.2222,25.6628],[84.3244,25.6712],[84.3284,25.7321],[84.3736,25.7442],[84.5205,25.6754],[84.5619,25.6859],[84.6248,25.7919],[84.5108,25.8718],[84.4276,25.8913],[84.384,25.9394],[84.3119,25.9438],[84.2073,25.9991],[84.1825,25.9949],[84.1725,26.0246],[84.0887,26.1003],[84.0562,26.1],[83.9212,26.1198],[83.869,26.1599],[83.8084,26.1904]]]},"properties":{"district":"BALLIA"}},
{"type":"Feature","geometry":{"type":"Polygon","coordinates":[[[81.6181,26.1806],[81.5491,26.1321],[81.5672,26.0726],[81.5599,25.9953],[81.5239,25.9555],[81.447,25.9366],[81.4394,25.9188],[81.3689,25.8667],[81.3383,25.8107],[81.3845,25.7742],[81.3689,25.7129],[81.4676,25.62],[81.5366,25.6017],[81.6102,25.5977],[81.637,25.623],[81.7204,25.6419],[81.752,25.6687],[81.7774,25.7441],[81.862,25.717],[81.9303,25.7531],[82.021,25.7427],[82.0624,25.6567],[82.1151,25.6517],[82.1608,25.68],[82.1869,25.7054],[82.1749,25.8246],[82.2037,25.8225],[82.2158,25.8378],[82.2786,25.8491],[82.2946,25.8915],[82.372,25.913],[82.3603,25.9638],[82.4349,26.0067],[82.3991,26.0247],[82.3569,26.0055],[82.3182,26.0395],[82.2427,26.0564],[82.2054,26.0238],[82.1159,26.0658],[82.0521,26.0557],[81.8845,26.0817],[81.8579,26.0463],[81.7666,26.0545],[81.6828,26.1138],[81.6181,26.1806]]]},"properties":{"district":"PRATAPGARH"}},
{"type":"Feature","geometry":{"type":"Polygon","coordinates":[[[79.8706,25.882],[79.786,25.8633],[79.7477,25.9094],[79.6598,25.904],[79.6238,25.9325],[79.6127,25.9064],[79.4982,25.8578],[79.3961,25.7955],[79.37,25.7753],[79.3779,25.664],[79.3552,25.6439],[79.4107,25.5381],[79.3892,25.523],[79.5304,25.4814],[79.6018,25.498],[79.7101,25.5671],[79.7402,25.5232],[79.8134,25.5015],[79.8699,25.5758],[79.956,25.6085],[79.9489,25.6363],[80.0248,25.5873],[79.983,25.5344],[80.0372,25.4919],[80.0277,25.4347],[80.1172,25.4075],[80.1438,25.4587],[80.1931,25.4431],[80.2268,25.4723],[80.2244,25.5266],[80.3189,25.6511],[80.3086,25.7019],[80.3456,25.7203],[80.2705,25.7829],[80.3514,25.871],[80.3457,25.9],[80.3087,25.8888],[80.2375,25.9238],[80.0845,25.9977],[80.1117,26.0437],[80.0436,26.0731],[79.9566,26.0753],[79.9641,26.1524],[79.9188,26.0904],[79.9545,26.0232],[79.9332,25.9765],[79.8663,25.9359],[79.8706,25.882]]]},"properties":{"district":"HAMIRPUR"}},
{"type":"Feature","geometry":{"type":"Polygon","coordinates":[[[78.9363,25.9523],[78.8832,25.9089],[78.8574,25.7916],[78.8082,25.8015],[78.763,25.7204],[78.8,25.7048],[78.819,25.6449],[78.8104,25.6194],[78.588,25.5565],[78.4935,25.5786],[78.4302,25.553],[78.4308,25.4736],[78.347,25.4357],[78.3081,25.3812],[78.3375,25.3302],[78.3117,25.3031],[78.3722,25.2595],[78.3957,25.1872],[78.4468,25.1218],[78.5563,25.2106],[78.578,25.2538],[78.5312,25.3001],[78.5652,25.3855],[78.6449,25.4139],[78.662,25.4409],[78.6589,25.3855],[78.7141,25.3725],[78.7711,25.4226],[78.7965,25.483],[78.8665,25.4658],[78.904,25.5515],[78.9441,25.5563],[78.9441,25.4827],[78.9089,25.4423],[78.9702,25.3898],[78.9386,25.3469],[78.8801,25.3856],[78.8195,25.3068],[78.961,25.345],[78.9556,25.2825],[78.9172,25.2734],[78.8706,25.1869],[78.9707,25.2163],[78.9947,25.2729],[79.0636,25.2216],[79.0716,25.1704],[79.1732,25.1077],[79.3081,25.1298],[79.2789,25.324],[79.2944,25.3581],[79.3406,25.4027],[79.3892,25.523],[79.4107,25.5381],[79.3552,25.6439],[79.3779,25.664],[79.37,25.7753],[79.3961,25.7955],[79.3242,25.7663],[79.2431,25.8064],[79.2118,25.7887],[79.1348,25.809],[79.1207,25.8478],[79.0383,25.8683],[79.0842,25.9173],[78.9363,25.9523]]]},"properties":{"district":"JHANSI"}},
{"type":"Feature","geometry":{"type":"Polygon","coordinates":[[[80.3457,25.9],[80.3514,25.871],[80.2705,25.7829],[80.3456,25.7203],[80.3086,25.7019],[80.3189,25.6511],[80.2244,25.5266],[80.2268,25.4723],[80.1931,25.4431],[80.1438,25.4587],[80.1172,25.4075],[80.1045,25.3496],[80.1946,25.3781],[80.1956,25.402],[80.2944,25.4106],[80.3228,25.3322],[80.3111,25.2862],[80.3742,25.2439],[80.4037,25.2435],[80.4306,25.1732],[80.3548,25.1385],[80.3555,25.0556],[80.4523,25.0748],[80.4519,25.0154],[80.5308,25.0014],[80.5521,25.063],[80.5924,25.1033],[80.7189,25.0638],[80.6839,25.132],[80.7138,25.1885],[80.7777,25.2203],[80.7719,25.3295],[80.8564,25.3675],[80.8861,25.4194],[81.0237,25.5032],[81.0206,25.5471],[81.022,25.6351],[80.956,25.6088],[80.9484,25.6688],[80.8577,25.6788],[80.8214,25.7203],[80.7816,25.6909],[80.6781,25.6963],[80.5669,25.7189],[80.4697,25.8123],[80.5549,25.8659],[80.4053,25.9135],[80.3457,25.9]]]},"properties":{"district":"BANDA"}},
{"type":"Feature","geometry":{"type":"Polygon","coordinates":[[[83.5529,25.8674],[83.4788,25.8397],[83.4605,25.8501],[83.3456,25.8146],[83.2184,25.7594],[83.1863,25.6886],[83.1483,25.6358],[83.0984,25.6577],[83.0664,25.6523],[83.0861,25.5906],[83.0708,25.5513],[83.0831,25.5005],[83.1778,25.5221],[83.2469,25.5227],[83.2951,25.4958],[83.3626,25.4816],[83.4042,25.494],[83.5301,25.3901],[83.5397,25.3157],[83.6283,25.3286],[83.7173,25.3974],[83.7901,25.3972],[83.8417,25.4471],[83.8762,25.5178],[83.93,25.5575],[83.9446,25.67],[83.9409,25.7595],[83.9007,25.7574],[83.7699,25.8174],[83.7312,25.8571],[83.6673,25.8801],[83.5529,25.8674]]]},"properties":{"district":"GHAZIPUR"}},
{"type":"Feature","geometry":{"type":"Polygon","coordinates":[[[81.2697,25.7558],[81.2069,25.5984],[81.2556,25.5574],[81.2495,25.522],[81.2164,25.4488],[81.1877,25.4476],[81.1496,25.3972],[81.2428,25.3584],[81.2663,25.3254],[81.3311,25.3489],[81.3877,25.3342],[81.3885,25.2734],[81.4978,25.2679],[81.5499,25.292],[81.6295,25.351],[81.6984,25.3574],[81.8131,25.3393],[81.8214,25.4129],[81.8105,25.4288],[81.7996,25.4708],[81.7297,25.4753],[81.7007,25.5121],[81.642,25.5255],[81.6102,25.5977],[81.5366,25.6017],[81.4676,25.62],[81.3689,25.7129],[81.3845,25.7742],[81.3383,25.8107],[81.2697,25.7558]]]},"properties":{"district":"KAUSHAMBI"}},
{"type":"Feature","geometry":{"type":"Polygon","coordinates":[[[81.862,25.717],[81.7774,25.7441],[81.752,25.6687],[81.7204,25.6419],[81.637,25.623],[81.6102,25.5977],[81.642,25.5255],[81.7007,25.5121],[81.7297,25.4753],[81.7996,25.4708],[81.8105,25.4288],[81.8214,25.4129],[81.8131,25.3393],[81.6984,25.3574],[81.6295,25.351],[81.5499,25.292],[81.5402,25.1859],[81.6263,25.1605],[81.5971,25.119],[81.7076,25.0351],[81.7424,25.0388],[81.8039,25.0017],[81.8911,24.9958],[81.92,24.928],[81.9031,24.8919],[81.9367,24.8521],[82.0159,24.846],[82.1067,24.8043],[82.1019,24.8622],[82.2258,24.9298],[82.2645,24.9645],[82.2958,25.0488],[82.3252,25.0699],[82.2683,25.1827],[82.201,25.1941],[82.2218,25.2734],[82.29,25.2971],[82.3421,25.4407],[82.2887,25.4797],[82.3323,25.5354],[82.2242,25.5892],[82.186,25.5769],[82.1372,25.6222],[82.1608,25.68],[82.1151,25.6517],[82.0624,25.6567],[82.021,25.7427],[81.9303,25.7531],[81.862,25.717]]]},"properties":{"district":"PRAYAGRAJ"}},
{"type":"Feature","geometry":{"type":"Polygon","coordinates":[[[79.9489,25.6363],[79.956,25.6085],[79.8699,25.5758],[79.8134,25.5015],[79.7402,25.5232],[79.7101,25.5671],[79.6018,25.498],[79.5304,25.4814],[79.3892,25.523],[79.3406,25.4027],[79.2944,25.3581],[79.2789,25.324],[79.3522,25.3299],[79.3687,25.2924],[79.4462,25.2442],[79.4392,25.1975],[79.3901,25.1702],[79.3929,25.1168],[79.4596,25.12],[79.5252,25.0974],[79.5606,25.1701],[79.6065,25.1502],[79.6732,25.1203],[79.7493,25.1394],[79.8287,25.0994],[79.8657,25.1408],[79.853,25.2248],[79.9529,25.2646],[80.0051,25.2652],[80.0336,25.3423],[80.1045,25.3496],[80.1172,25.4075],[80.0277,25.4347],[80.0372,25.4919],[79.983,25.5344],[80.0248,25.5873],[79.9489,25.6363]]]},"properties":{"district":"MAHOBA"}},
{"type":"Feature","geometry":{"type":"Polygon","coordinates":[[[82.7213,25.535],[82.6942,25.3947],[82.7058,25.3886],[82.6903,25.3006],[82.6688,25.2504],[82.713,25.2615],[82.7827,25.2033],[82.8668,25.1856],[82.8716,25.2013],[83.0061,25.2048],[83.0301,25.2434],[83.0301,25.2437],[83.0123,25.3073],[83.046,25.3275],[83.1373,25.3228],[83.1692,25.3523],[83.1862,25.4187],[83.1271,25.4436],[83.1778,25.5221],[83.0831,25.5005],[83.0708,25.5513],[82.9774,25.5565],[82.9501,25.5294],[82.9336,25.5666],[82.8299,25.5532],[82.7788,25.5293],[82.7213,25.535]]]},"properties":{"district":"VARANASI"}},
{"type":"Feature","geometry":{"type":"Polygon","coordinates":[[[81.0206,25.5471],[81.0237,25.5032],[80.8861,25.4194],[80.8564,25.3675],[80.7719,25.3295],[80.7777,25.2203],[80.7138,25.1885],[80.6839,25.132],[80.7189,25.0638],[80.735,25.1395],[80.8366,25.1336],[80.9076,25.1591],[80.8687,25.1161],[80.8778,25.0651],[80.8554,25.0036],[80.8099,24.9526],[80.861,24.9288],[80.9462,24.9664],[81.0333,24.9528],[81.14,24.8881],[81.1646,24.947],[81.2153,24.9329],[81.2211,24.9976],[81.2689,25.0746],[81.2522,25.1093],[81.2896,25.1687],[81.3575,25.17],[81.3926,25.1378],[81.4995,25.1488],[81.5402,25.1859],[81.5499,25.292],[81.4978,25.2679],[81.3885,25.2734],[81.3877,25.3342],[81.3311,25.3489],[81.2663,25.3254],[81.2428,25.3584],[81.1496,25.3972],[81.1877,25.4476],[81.1892,25.4902],[81.0367,25.5305],[81.0206,25.5471]]]},"properties":{"district":"CHITRAKOOT"}},
{"type":"Feature","geometry":{"type":"Polygon","coordinates":[[[83.1778,25.5221],[83.1271,25.4436],[83.1862,25.4187],[83.1692,25.3523],[83.1373,25.3228],[83.046,25.3275],[83.0123,25.3073],[83.0301,25.2437],[83.1747,25.1669],[83.1327,25.1275],[83.1322,25.0601],[83.0653,25.0621],[83.0649,24.9327],[83.1007,24.8198],[83.0863,24.7816],[83.1519,24.7368],[83.303,24.7197],[83.3163,24.7549],[83.3935,24.7823],[83.4021,24.8141],[83.3548,24.9045],[83.35,25.0093],[83.3243,25.0375],[83.3638,25.1115],[83.3556,25.1964],[83.5397,25.3157],[83.5301,25.3901],[83.4042,25.494],[83.3626,25.4816],[83.2951,25.4958],[83.2469,25.5227],[83.1778,25.5221]]]},"properties":{"district":"CHANDAULI"}},
{"type":"Feature","geometry":{"type":"Polygon","coordinates":[[[82.3323,25.5354],[82.2887,25.4797],[82.3421,25.4407],[82.29,25.2971],[82.2218,25.2734],[82.201,25.1941],[82.2683,25.1827],[82.2486,25.2398],[82.2861,25.2721],[82.3466,25.207],[82.4105,25.2529],[82.5765,25.2464],[82.6688,25.2504],[82.6903,25.3006],[82.7058,25.3886],[82.6942,25.3947],[82.6196,25.3935],[82.6096,25.4493],[82.5488,25.4366],[82.5082,25.4704],[82.4433,25.5185],[82.3568,25.5089],[82.3416,25.5342],[82.3323,25.5354]]]},"properties":{"district":"BHADOHI"}},
{"type":"Feature","geometry":{"type":"Polygon","coordinates":[[[82.6688,25.2504],[82.5765,25.2464],[82.4105,25.2529],[82.3466,25.207],[82.2861,25.2721],[82.2486,25.2398],[82.2683,25.1827],[82.3252,25.0699],[82.2958,25.0488],[82.2645,24.9645],[82.2258,24.9298],[82.1019,24.8622],[82.1067,24.8043],[82.2095,24.7714],[82.2499,24.6973],[82.3648,24.5974],[82.4161,24.5912],[82.429,24.7026],[82.5234,24.6761],[82.5494,24.6952],[82.5466,24.7803],[82.5827,24.8305],[82.6594,24.7815],[82.8264,24.8537],[82.8779,24.8348],[82.9783,24.8713],[83.0669,24.8056],[83.1007,24.8198],[83.0649,24.9327],[83.0653,25.0621],[83.1322,25.0601],[83.1327,25.1275],[83.1747,25.1669],[83.0301,25.2437],[83.0301,25.2434],[83.0061,25.2048],[82.8716,25.2013],[82.8668,25.1856],[82.7827,25.2033],[82.713,25.2615],[82.6688,25.2504]]]},"properties":{"district":"MIRZAPUR"}},
{"type":"Feature","geometry":{"type":"Polygon","coordinates":[[[78.4468,25.1218],[78.4077,25.1292],[78.3385,25.0858],[78.3326,24.9942],[78.1732,24.8787],[78.2355,24.7715],[78.2258,24.7469],[78.2765,24.6633],[78.2641,24.5518],[78.2289,24.5162],[78.2652,24.4521],[78.3204,24.4099],[78.3581,24.3675],[78.3291,24.3273],[78.3878,24.2688],[78.4776,24.3384],[78.5007,24.3894],[78.5959,24.3353],[78.6256,24.2809],[78.7026,24.2269],[78.7643,24.2317],[78.7898,24.1771],[78.9166,24.2689],[78.9096,24.2981],[78.9623,24.3434],[78.9858,24.4413],[78.9142,24.4595],[78.9528,24.5468],[78.8831,24.6411],[78.8343,24.6045],[78.7519,24.6001],[78.7467,24.6626],[78.7811,24.7073],[78.774,24.8511],[78.715,24.8795],[78.6764,24.8984],[78.6365,24.9592],[78.6526,25.0502],[78.6024,25.0944],[78.6035,25.1454],[78.5563,25.2106],[78.4468,25.1218]]]},"properties":{"district":"LALITPUR"}},
{"type":"Feature","geometry":{"type":"Polygon","coordinates":[[[82.5234,24.6761],[82.5396,24.6478],[82.6711,24.697],[82.6983,24.6462],[82.7739,24.6417],[82.806,24.5633],[82.7434,24.4964],[82.713,24.3803],[82.7713,24.3283],[82.741,24.1912],[82.7116,24.0896],[82.7739,24.0762],[82.7507,24.0118],[82.884,23.9091],[82.952,23.8708],[83.1416,23.885],[83.2162,23.938],[83.2236,23.9865],[83.2792,24.0182],[83.2952,24.0721],[83.3449,24.1109],[83.4081,24.2623],[83.3798,24.3115],[83.4336,24.3384],[83.4496,24.377],[83.385,24.4548],[83.4028,24.5037],[83.5035,24.5255],[83.5419,24.6127],[83.4894,24.7366],[83.4581,24.7318],[83.3935,24.7823],[83.3163,24.7549],[83.303,24.7197],[83.1519,24.7368],[83.0863,24.7816],[83.1007,24.8198],[83.0669,24.8056],[82.9783,24.8713],[82.8779,24.8348],[82.8264,24.8537],[82.6594,24.7815],[82.5827,24.8305],[82.5466,24.7803],[82.5494,24.6952],[82.5234,24.6761]]]},"properties":{"district":"SONBHADRA"}}
]}