{"type":"FeatureCollection","features":[{"type":"Feature","geometry":{"type":"Polygon","coordinates":[[[72.5275,23.0414],[72.4657,23.0089],[72.4752,22.9708],[72.5304,22.9523],[72.5392,22.976],[72.5379,22.978],[72.5275,23.0414]]]},"properties":{"AC_NO":"42","AC_NAME":"Vejalpur","PC_NO":"6","PC_NAME":"GANDHINAGAR","district":"AHMADABAD"}},{"type":"Feature","geometry":{"type":"Polygon","coordinates":[[[70.1132,22.4605],[69.9672,22.4635],[70.024,22.4056],[70.1132,22.4605]]]},"properties":{"AC_NO":"79","AC_NAME":"Jamnagar South","PC_NO":"12","PC_NAME":"JAMNAGAR","district":"JAMNAGAR"}},{"type":"Feature","geometry":{"type":"Polygon","coordinates":[[[73.2365,22.2912],[73.1709,22.2559],[73.2636,22.2838],[73.2365,22.2912]]]},"properties":{"AC_NO":"145","AC_NAME":"Manjalpur","PC_NO":"20","PC_NAME":"VADODARA","district":"VADODARA"}},{"type":"Feature","geometry":{"type":"Polygon","coordinates":[[[72.0808,21.8134],[72.0459,21.7942],[72.0854,21.7206],[72.0737,21.7926],[72.0808,21.8134]]]},"properties":{"AC_NO":"105","AC_NAME":"Bhavnagar West","PC_NO":"15","PC_NAME":"BHAVNAGAR","district":"BHAVNAGAR"}},{"type":"Feature","geometry":{"type":"Polygon","coordinates":[[[73.1618,20.9022],[73.1079,20.8039],[73.117,20.681],[73.155,20.6059],[73.259,20.5798],[73.4072,20.6242],[73.4664,20.7219],[73.4964,20.8196],[73.3816,20.8239],[73.3171,20.88],[73.2539,20.8198],[73.1618,20.9022]]]},"properties":{"AC_NO":"177","AC_NAME":"Vansda (ST)","PC_NO":"26","PC_NAME":"VALSAD (ST)","district":"NAVSARI"}},{"type":"Feature","geometry":{"type":"Polygon","coordinates":[[[70.8,22.3408],[70.7256,22.3256],[70.6949,22.3143],[70.7749,22.2766],[70.7857,22.2851],[70.802,22.2879],[70.8493,22.2785],[70.8612,22.2861],[70.8522,22.3056],[70.8,22.3408]]]},"properties":{"AC_NO":"70","AC_NAME":"Rajkot South","PC_NO":"10","PC_NAME":"RAJKOT","district":"RAJKOT"}},{"type":"Feature","geometry":{"type":"Polygon","coordinates":[[[72.2035,24.1764],[72.0417,24.1893],[71.8557,24.1418],[71.812,24.0629],[71.6837,24.0654],[71.6335,23.9541],[71.776,23.8394],[71.9721,23.8883],[71.9615,23.9909],[72.0673,24.0343],[72.1327,24.0526],[72.2038,24.1488],[72.2035,24.1764]]]},"properties":{"AC_NO":"15","AC_NAME":"Kankrej","PC_NO":"3","PC_NAME":"PATAN","district":"BANAS KANTHA"}},{"type":"Feature","geometry":{"type":"Polygon","coordinates":[[[69.431,23.1503],[69.5568,23.0204],[69.6273,23.0393],[69.5822,23.1057],[69.7145,23.2017],[69.6717,23.3167],[69.6865,23.3944],[69.7673,23.3821],[69.9003,23.4361],[70.0858,23.3745],[70.1397,23.4096],[70.1677,23.4216],[69.9983,23.4728],[70.0235,23.5603],[69.9018,23.685],[69.9542,23.7506],[69.8925,23.871],[69.8466,23.8762],[69.7353,23.9782],[69.6911,23.9387],[69.6843,23.7767],[69.6213,23.7532],[69.5295,23.8217],[69.3501,23.7723],[69.2523,23.8207],[69.141,23.7834],[69.1458,23.7298],[69.1816,23.63],[69.4212,23.6118],[69.6308,23.6333],[69.6337,23.5692],[69.7978,23.5497],[69.8049,23.475],[69.6604,23.5026],[69.5867,23.4631],[69.5045,23.4146],[69.4246,23.2941],[69.4347,23.217],[69.3731,23.159],[69.431,23.1503]]]},"properties":{"AC_NO":"3","AC_NAME":"Bhuj","PC_NO":"1","PC_NAME":"KACHCHH (SC)","district":"KACHCHH"}},{"type":"Feature","geometry":{"type":"Polygon","coordinates":[[[72.6665,22.9978],[72.6729,23.0247],[72.6519,23.0292],[72.6172,23.0288],[72.6154,23.0196],[72.6665,22.9978]]]},"properties":{"AC_NO":"50","AC_NAME":"Amraiwadi","PC_NO":"8","PC_NAME":"AHMEDABAD WEST(SC)","district":"AHMADABAD"}},{"type":"Feature","geometry":{"type":"Polygon","coordinates":[[[72.8661,24.0248],[72.7824,24.1018],[72.6501,24.08],[72.5839,23.936],[72.4829,23.934],[72.4699,23.8937],[72.5883,23.8647],[72.6821,23.7372],[72.808,23.7892],[72.8195,23.9502],[72.8661,24.0248]]]},"properties":{"AC_NO":"20","AC_NAME":"Kheralu","PC_NO":"3","PC_NAME":"PATAN","district":"MAHESANA"}},{"type":"Feature","geometry":{"type":"Polygon","coordinates":[[[72.6623,23.7026],[72.5861,23.7637],[72.4324,23.7726],[72.3389,23.7273],[72.4432,23.6391],[72.5134,23.5573],[72.6623,23.7026]]]},"properties":{"AC_NO":"22","AC_NAME":"Visnagar","PC_NO":"4","PC_NAME":"MAHESANA","district":"MAHESANA"}},{"type":"Feature","geometry":{"type":"Polygon","coordinates":[[[72.7987,23.504],[72.6366,23.5418],[72.5898,23.4947],[72.507,23.3897],[72.5231,23.3611],[72.596,23.3352],[72.7071,23.3282],[72.7234,23.3884],[72.8074,23.4407],[72.7987,23.504]]]},"properties":{"AC_NO":"37","AC_NAME":"Mansa","PC_NO":"4","PC_NAME":"MAHESANA","district":"GANDHINAGAR"}},{"type":"Feature","geometry":{"type":"Polygon","coordinates":[[[72.3937,23.4183],[72.2981,23.4166],[72.2089,23.3136],[72.168,23.1974],[72.1892,23.1069],[72.3343,23.1082],[72.4149,23.131],[72.4103,23.2803],[72.5231,23.3611],[72.507,23.3897],[72.3937,23.4183]]]},"properties":{"AC_NO":"24","AC_NAME":"Kadi (SC)","PC_NO":"4","PC_NAME":"MAHESANA","district":"MAHESANA"}},{"type":"Feature","geometry":{"type":"Polygon","coordinates":[[[72.8076,21.1893],[72.831,21.1835],[72.8438,21.1944],[72.816,21.2041],[72.8076,21.1893]]]},"properties":{"AC_NO":"159","AC_NAME":"Surat East","PC_NO":"24","PC_NAME":"SURAT","district":"SURAT"}},{"type":"Feature","geometry":{"type":"Polygon","coordinates":[[[73.6274,23.4485],[73.5943,23.3788],[73.5258,23.2856],[73.5117,23.145],[73.4266,23.1561],[73.4361,22.9961],[73.5943,22.9904],[73.6707,23.0983],[73.7171,23.1662],[73.7508,23.2355],[73.6881,23.3329],[73.7206,23.4104],[73.6274,23.4485]]]},"properties":{"AC_NO":"122","AC_NAME":"Lunawada","PC_NO":"18","PC_NAME":"PANCHMAHAL","district":"MAHISAGAR"}},{"type":"Feature","geometry":{"type":"Polygon","coordinates":[[[72.596,23.3352],[72.5351,23.2591],[72.6214,23.1834],[72.689,23.2145],[72.7071,23.3282],[72.596,23.3352]]]},"properties":{"AC_NO":"36","AC_NAME":"Gandhinagar(North)","PC_NO":"6","PC_NAME":"GANDHINAGAR","district":"GANDHINAGAR"}},{"type":"Feature","geometry":{"type":"Polygon","coordinates":[[[72.5909,22.9422],[72.7462,22.9422],[72.6852,23.027],[72.6729,23.0247],[72.6665,22.9978],[72.5909,22.9422]]]},"properties":{"AC_NO":"43","AC_NAME":"Vatva","PC_NO":"7","PC_NAME":"AHMEDABAD EAST","district":"AHMADABAD"}},{"type":"Feature","geometry":{"type":"Polygon","coordinates":[[[73.0167,23.1604],[72.8407,22.9967],[72.8403,22.9768],[72.9337,22.875],[73.0916,22.8865],[73.1046,23.1115],[73.155,23.1598],[73.0167,23.1604]]]},"properties":{"AC_NO":"120","AC_NAME":"Kapadvanj","PC_NO":"17","PC_NAME":"KHEDA","district":"KHEDA"}},{"type":"Feature","geometry":{"type":"Polygon","coordinates":[[[72.5373,23.166],[72.4449,23.0471],[72.4657,23.0089],[72.5275,23.0414],[72.5293,23.0613],[72.5498,23.0932],[72.5611,23.109],[72.5373,23.166]]]},"properties":{"AC_NO":"41","AC_NAME":"Ghatlodia","PC_NO":"6","PC_NAME":"GANDHINAGAR","district":"AHMADABAD"}},{"type":"Feature","geometry":{"type":"Polygon","coordinates":[[[72.5379,22.978],[72.5392,22.976],[72.6106,23.0362],[72.5735,23.0401],[72.5379,22.978]]]},"properties":{"AC_NO":"52","AC_NAME":"Jamalpur-Khadia","PC_NO":"8","PC_NAME":"AHMEDABAD WEST(SC)","district":"AHMADABAD"}},{"type":"Feature","geometry":{"type":"Polygon","coordinates":[[[73.7171,23.1662],[73.6707,23.0983],[73.7829,22.998],[73.7921,22.8931],[73.8131,22.8359],[73.7321,22.7559],[73.8052,22.6943],[73.8705,22.8468],[73.9077,23.0093],[73.9448,23.1069],[73.7171,23.1662]]]},"properties":{"AC_NO":"125","AC_NAME":"Morva Hadaf","PC_NO":"18","PC_NAME":"PANCHMAHAL","district":"PANCH MAHALS"}},{"type":"Feature","geometry":{"type":"Polygon","coordinates":[[[74.3383,22.963],[74.2674,23.1583],[74.1208,23.1771],[74.115,23.0708],[74.045,22.9992],[74.1378,22.8921],[74.3383,22.963]]]},"properties":{"AC_NO":"130","AC_NAME":"Jhalod (ST)","PC_NO":"19","PC_NAME":"DAHOD (ST)","district":"DAHOD"}},{"type":"Feature","geometry":{"type":"Polygon","coordinates":[[[70.9968,22.9225],[70.8221,22.8043],[70.7629,22.9647],[70.7022,22.9585],[70.6185,22.8791],[70.6635,22.8312],[70.6139,22.7633],[70.645,22.7039],[70.5502,22.5666],[70.5862,22.4895],[70.4924,22.4113],[70.5081,22.2721],[70.6967,22.2951],[70.6949,22.3143],[70.7256,22.3256],[70.7899,22.4374],[70.785,22.6153],[70.8716,22.6531],[70.8674,22.72],[70.997,22.789],[70.9968,22.9225]]]},"properties":{"AC_NO":"66","AC_NAME":"Tankara","PC_NO":"10","PC_NAME":"RAJKOT","district":"MORBI"}},{"type":"Feature","geometry":{"type":"Polygon","coordinates":[[[73.4169,22.7845],[73.3502,22.7923],[73.255,22.7605],[73.2694,22.6673],[73.2201,22.6262],[73.1462,22.5419],[73.092,22.5104],[73.0677,22.4117],[73.17,22.4413],[73.2122,22.4064],[73.3412,22.4454],[73.4065,22.5063],[73.4196,22.5472],[73.3721,22.5561],[73.3889,22.6988],[73.4169,22.7845]]]},"properties":{"AC_NO":"135","AC_NAME":"Savli","PC_NO":"20","PC_NAME":"VADODARA","district":"VADODARA"}},{"type":"Feature","geometry":{"type":"Polygon","coordinates":[[[72.8677,22.5824],[72.9052,22.487],[72.9582,22.4849],[72.9924,22.5368],[72.9185,22.5951],[72.8677,22.5824]]]},"properties":{"AC_NO":"112","AC_NAME":"Anand","PC_NO":"16","PC_NAME":"ANAND","district":"ANAND"}},{"type":"Feature","geometry":{"type":"Polygon","coordinates":[[[70.7749,22.2766],[70.6949,22.3143],[70.6967,22.2951],[70.7601,22.2723],[70.7749,22.2766]]]},"properties":{"AC_NO":"69","AC_NAME":"Rajkot West","PC_NO":"10","PC_NAME":"RAJKOT","district":"RAJKOT"}},{"type":"Feature","geometry":{"type":"Polygon","coordinates":[[[72.7901,21.1805],[72.8076,21.1893],[72.816,21.2041],[72.8133,21.207],[72.8208,21.26],[72.7848,21.2066],[72.7897,21.1841],[72.7901,21.1805]]]},"properties":{"AC_NO":"167","AC_NAME":"Surat West","PC_NO":"24","PC_NAME":"SURAT","district":"SURAT"}},{"type":"Feature","geometry":{"type":"Polygon","coordinates":[[[73.219,22.3515],[73.1249,22.3266],[73.2038,22.3256],[73.219,22.3515]]]},"properties":{"AC_NO":"142","AC_NAME":"Sayajigunj","PC_NO":"20","PC_NAME":"VADODARA","district":"VADODARA"}},{"type":"Feature","geometry":{"type":"Polygon","coordinates":[[[73.1234,22.3215],[73.0527,22.3416],[72.9478,22.2958],[72.8495,22.2748],[72.905,22.0677],[72.9849,22.0472],[72.9849,22.1195],[73.0876,22.1204],[73.1532,22.1823],[73.134,22.2966],[73.1234,22.3215]]]},"properties":{"AC_NO":"146","AC_NAME":"Padra","PC_NO":"21","PC_NAME":"CHHOTA UDAIPUR(ST)","district":"VADODARA"}},{"type":"Feature","geometry":{"type":"Polygon","coordinates":[[[72.8495,22.2748],[72.8016,22.2489],[72.6605,22.2238],[72.5887,22.2055],[72.5392,22.0634],[72.5646,21.9277],[72.7033,21.918],[72.7842,21.8847],[72.9474,21.8804],[72.9982,21.9172],[73.0492,21.976],[72.9849,22.0472],[72.905,22.0677],[72.8495,22.2748]]]},"properties":{"AC_NO":"150","AC_NAME":"Jambusar","PC_NO":"22","PC_NAME":"BHARUCH","district":"BHARUCH"}},{"type":"Feature","geometry":{"type":"Polygon","coordinates":[[[69.7,21.8008],[69.6726,21.9038],[69.6103,21.9476],[69.372,21.8298],[69.643,21.597],[69.6591,21.7206],[69.7,21.8008]]]},"properties":{"AC_NO":"83","AC_NAME":"Porbandar","PC_NO":"11","PC_NAME":"PORBANDAR","district":"PORBANDAR"}},{"type":"Feature","geometry":{"type":"Polygon","coordinates":[[[73.064,21.7143],[72.9657,21.6709],[72.9745,21.6698],[73.0578,21.5972],[73.064,21.7143]]]},"properties":{"AC_NO":"153","AC_NAME":"Bharuch","PC_NO":"22","PC_NAME":"BHARUCH","district":"BHARUCH"}},{"type":"Feature","geometry":{"type":"Polygon","coordinates":[[[72.8513,21.2105],[72.8438,21.1944],[72.8666,21.2024],[72.8677,21.2111],[72.8513,21.2105]]]},"properties":{"AC_NO":"162","AC_NAME":"Karanj","PC_NO":"24","PC_NAME":"SURAT","district":"SURAT"}},{"type":"Feature","geometry":{"type":"Polygon","coordinates":[[[72.9745,21.6698],[72.8577,21.6201],[72.7243,21.5006],[72.7866,21.4221],[72.9103,21.4325],[72.9414,21.5121],[73.0552,21.5689],[73.0578,21.5972],[72.9745,21.6698]]]},"properties":{"AC_NO":"154","AC_NAME":"Ankleshwar","PC_NO":"22","PC_NAME":"BHARUCH","district":"BHARUCH"}},{"type":"Feature","geometry":{"type":"Polygon","coordinates":[[[70.4451,21.0402],[70.3994,21.0565],[70.2254,21.0005],[70.4056,20.8835],[70.5569,20.9386],[70.4451,21.0402]]]},"properties":{"AC_NO":"90","AC_NAME":"Somnath","PC_NO":"13","PC_NAME":"JUNAGADH","district":"GIR SOMNATH"}},{"type":"Feature","geometry":{"type":"Polygon","coordinates":[[[72.6225,23.049],[72.6574,23.0465],[72.6819,23.0483],[72.687,23.1024],[72.6037,23.0884],[72.5898,23.0629],[72.5925,23.0619],[72.6225,23.049]]]},"properties":{"AC_NO":"47","AC_NAME":"Naroda","PC_NO":"7","PC_NAME":"AHMEDABAD EAST","district":"AHMADABAD"}},{"type":"Feature","geometry":{"type":"Polygon","coordinates":[[[73.2334,21.2316],[73.1565,21.228],[73.0181,21.1644],[72.8798,21.1876],[72.9178,21.1142],[72.8891,21.0497],[73.0187,21.0497],[73.0518,20.9907],[73.2279,21.1747],[73.2334,21.2316]]]},"properties":{"AC_NO":"169","AC_NAME":"Bardoli (SC)","PC_NO":"23","PC_NAME":"BARDOLI (ST)","district":"SURAT"}},{"type":"Feature","geometry":{"type":"Polygon","coordinates":[[[71.5101,24.6798],[71.533,24.6002],[71.4904,24.5465],[71.5547,24.4906],[71.5361,24.3888],[71.5931,24.2944],[71.6656,24.2782],[71.721,24.3343],[71.7941,24.3105],[71.9074,24.4096],[71.939,24.478],[71.9191,24.564],[71.8491,24.6113],[71.8031,24.6715],[71.6556,24.6391],[71.5101,24.6798]]]},"properties":{"AC_NO":"8","AC_NAME":"Tharad","PC_NO":"2","PC_NAME":"BANASKANTHA","district":"BANAS KANTHA"}},{"type":"Feature","geometry":{"type":"Polygon","coordinates":[[[72.2378,24.4604],[72.0196,24.4573],[72.062,24.3277],[72.02,24.2615],[72.0417,24.1893],[72.2035,24.1764],[72.2729,24.2623],[72.2552,24.3302],[72.3005,24.4077],[72.2378,24.4604]]]},"properties":{"AC_NO":"13","AC_NAME":"Deesa","PC_NO":"2","PC_NAME":"BANASKANTHA","district":"BANAS KANTHA"}},{"type":"Feature","geometry":{"type":"Polygon","coordinates":[[[72.8471,21.2317],[72.8513,21.2105],[72.8677,21.2111],[72.8968,21.2409],[72.8502,21.2386],[72.8471,21.2317]]]},"properties":{"AC_NO":"161","AC_NAME":"Varachha Road","PC_NO":"24","PC_NAME":"SURAT","district":"SURAT"}},{"type":"Feature","geometry":{"type":"Polygon","coordinates":[[[71.5101,24.6798],[71.3776,24.6255],[71.2791,24.5249],[71.3341,24.4799],[71.3831,24.3501],[71.2744,24.2576],[71.3272,24.1663],[71.319,23.9837],[71.4458,23.9422],[71.488,23.9743],[71.6335,23.9541],[71.6837,24.0654],[71.6452,24.2356],[71.6656,24.2782],[71.5931,24.2944],[71.5361,24.3888],[71.5547,24.4906],[71.4904,24.5465],[71.533,24.6002],[71.5101,24.6798]]]},"properties":{"AC_NO":"7","AC_NAME":"Vav","PC_NO":"2","PC_NAME":"BANASKANTHA","district":"BANAS KANTHA"}},{"type":"Feature","geometry":{"type":"Polygon","coordinates":[[[72.831,21.1835],[72.8076,21.1893],[72.7901,21.1805],[72.8215,21.1621],[72.8345,21.1776],[72.831,21.1835]]]},"properties":{"AC_NO":"165","AC_NAME":"Majura","PC_NO":"24","PC_NAME":"SURAT","district":"SURAT"}},{"type":"Feature","geometry":{"type":"Polygon","coordinates":[[[72.4699,23.8937],[72.4129,23.9041],[72.2888,23.8527],[72.2835,23.7113],[72.3389,23.7273],[72.4324,23.7726],[72.5861,23.7637],[72.6623,23.7026],[72.6821,23.7372],[72.5883,23.8647],[72.4699,23.8937]]]},"properties":{"AC_NO":"21","AC_NAME":"Unjha","PC_NO":"4","PC_NAME":"MAHESANA","district":"MAHESANA"}},{"type":"Feature","geometry":{"type":"Polygon","coordinates":[[[72.8345,21.1776],[72.8215,21.1621],[72.869,21.1469],[72.8345,21.1776]]]},"properties":{"AC_NO":"164","AC_NAME":"Udhna","PC_NO":"24","PC_NAME":"SURAT","district":"SURAT"}},{"type":"Feature","geometry":{"type":"Polygon","coordinates":[[[72.8438,21.1944],[72.831,21.1835],[72.8345,21.1776],[72.869,21.1469],[72.8659,21.1885],[72.8666,21.2024],[72.8438,21.1944]]]},"properties":{"AC_NO":"163","AC_NAME":"Limbayat","PC_NO":"24","PC_NAME":"SURAT","district":"SURAT"}},{"type":"Feature","geometry":{"type":"Polygon","coordinates":[[[72.4575,24.4155],[72.3537,24.5634],[72.2954,24.5465],[72.2318,24.6405],[72.1649,24.621],[72.0582,24.7123],[71.8491,24.6113],[71.9191,24.564],[71.939,24.478],[72.0196,24.4573],[72.2378,24.4604],[72.3005,24.4077],[72.2552,24.3302],[72.2729,24.2623],[72.3416,24.2356],[72.3891,24.3615],[72.4575,24.4155]]]},"properties":{"AC_NO":"9","AC_NAME":"Dhanera","PC_NO":"2","PC_NAME":"BANASKANTHA","district":"BANAS KANTHA"}},{"type":"Feature","geometry":{"type":"Polygon","coordinates":[[[72.8133,21.207],[72.816,21.2041],[72.8438,21.1944],[72.8513,21.2105],[72.8471,21.2317],[72.8133,21.207]]]},"properties":{"AC_NO":"160","AC_NAME":"Surat North","PC_NO":"24","PC_NAME":"SURAT","district":"SURAT"}},{"type":"Feature","geometry":{"type":"Polygon","coordinates":[[[72.4575,24.4155],[72.3891,24.3615],[72.5222,24.2934],[72.5719,24.2383],[72.6881,24.161],[72.6501,24.08],[72.7824,24.1018],[72.8661,24.0248],[72.8997,24.0259],[73.028,24.2737],[72.9595,24.361],[72.7245,24.3672],[72.6556,24.4622],[72.5392,24.5192],[72.4575,24.4155]]]},"properties":{"AC_NO":"10","AC_NAME":"Danta (ST)","PC_NO":"2","PC_NAME":"BANASKANTHA","district":"BANAS KANTHA"}},{"type":"Feature","geometry":{"type":"Polygon","coordinates":[[[72.0196,24.4573],[71.939,24.478],[71.9074,24.4096],[71.7941,24.3105],[71.721,24.3343],[71.6656,24.2782],[71.6452,24.2356],[71.6837,24.0654],[71.812,24.0629],[71.8557,24.1418],[72.0417,24.1893],[72.02,24.2615],[72.062,24.3277],[72.0196,24.4573]]]},"properties":{"AC_NO":"14","AC_NAME":"Deodar","PC_NO":"2","PC_NAME":"BANASKANTHA","district":"BANAS KANTHA"}},{"type":"Feature","geometry":{"type":"Polygon","coordinates":[[[73.3783,23.9039],[73.4151,23.9854],[73.3615,24.104],[73.2429,24.0022],[73.0658,24.1933],[73.1519,24.3539],[73.102,24.4316],[72.9918,24.4783],[72.9595,24.361],[73.028,24.2737],[72.8997,24.0259],[73.1596,23.9543],[73.2162,23.8965],[73.2888,23.8632],[73.3783,23.9039]]]},"properties":{"AC_NO":"29","AC_NAME":"Khedbrahma(ST)","PC_NO":"5","PC_NAME":"SABARKANTHA","district":"SABAR KANTHA"}},{"type":"Feature","geometry":{"type":"Polygon","coordinates":[[[72.8133,21.207],[72.8471,21.2317],[72.8502,21.2386],[72.8208,21.26],[72.8133,21.207]]]},"properties":{"AC_NO":"166","AC_NAME":"Katargam","PC_NO":"24","PC_NAME":"SURAT","district":"SURAT"}},{"type":"Feature","geometry":{"type":"Polygon","coordinates":[[[72.3891,24.3615],[72.3416,24.2356],[72.2729,24.2623],[72.2035,24.1764],[72.2038,24.1488],[72.2535,24.0818],[72.3107,24.1398],[72.439,24.1272],[72.5719,24.2383],[72.5222,24.2934],[72.3891,24.3615]]]},"properties":{"AC_NO":"12","AC_NAME":"Palanpur","PC_NO":"2","PC_NAME":"BANASKANTHA","district":"BANAS KANTHA"}},{"type":"Feature","geometry":{"type":"Polygon","coordinates":[[[72.808,23.7892],[72.6821,23.7372],[72.6623,23.7026],[72.5134,23.5573],[72.5898,23.4947],[72.6366,23.5418],[72.7987,23.504],[72.8312,23.5459],[72.8047,23.7306],[72.808,23.7892]]]},"properties":{"AC_NO":"26","AC_NAME":"Vijapur","PC_NO":"4","PC_NAME":"MAHESANA","district":"MAHESANA"}},{"type":"Feature","geometry":{"type":"Polygon","coordinates":[[[72.6501,24.08],[72.6881,24.161],[72.5719,24.2383],[72.439,24.1272],[72.3107,24.1398],[72.2535,24.0818],[72.3707,23.9811],[72.4829,23.934],[72.5839,23.936],[72.6501,24.08]]]},"properties":{"AC_NO":"11","AC_NAME":"Vadgam (SC)","PC_NO":"3","PC_NAME":"PATAN","district":"BANAS KANTHA"}},{"type":"Feature","geometry":{"type":"Polygon","coordinates":[[[72.2535,24.0818],[72.2038,24.1488],[72.1327,24.0526],[72.0673,24.0343],[72.1099,23.971],[72.2888,23.8527],[72.4129,23.9041],[72.4699,23.8937],[72.4829,23.934],[72.3707,23.9811],[72.2535,24.0818]]]},"properties":{"AC_NO":"19","AC_NAME":"Sidhpur","PC_NO":"3","PC_NAME":"PATAN","district":"PATAN"}},{"type":"Feature","geometry":{"type":"Polygon","coordinates":[[[72.5379,22.978],[72.5735,23.0401],[72.5777,23.0537],[72.5293,23.0613],[72.5275,23.0414],[72.5379,22.978]]]},"properties":{"AC_NO":"44","AC_NAME":"Ellisbridge","PC_NO":"8","PC_NAME":"AHMEDABAD WEST(SC)","district":"AHMADABAD"}},{"type":"Feature","geometry":{"type":"Polygon","coordinates":[[[71.6335,23.9541],[71.488,23.9743],[71.4458,23.9422],[71.319,23.9837],[71.0973,23.9019],[71.056,23.7867],[71.0814,23.5984],[71.2219,23.6562],[71.3758,23.6496],[71.4482,23.5359],[71.5198,23.5279],[71.5997,23.6444],[71.7272,23.6539],[71.7877,23.7187],[71.776,23.8394],[71.6335,23.9541]]]},"properties":{"AC_NO":"16","AC_NAME":"Radhanpur","PC_NO":"3","PC_NAME":"PATAN","district":"PATAN"}},{"type":"Feature","geometry":{"type":"Polygon","coordinates":[[[69.1458,23.7298],[69.0454,23.7142],[68.9762,23.7822],[68.8444,23.8342],[68.72,23.839],[68.6257,23.7434],[68.5509,23.7234],[68.4797,23.547],[68.5151,23.4508],[68.6094,23.4086],[68.7214,23.2589],[68.6469,23.2145],[68.8033,23.0636],[69.0195,22.9503],[69.1728,23.1143],[69.3731,23.159],[69.4347,23.217],[69.4246,23.2941],[69.5045,23.4146],[69.5867,23.4631],[69.5796,23.5817],[69.4581,23.5153],[69.3373,23.5258],[69.2742,23.5934],[69.1816,23.63],[69.1458,23.7298]]]},"properties":{"AC_NO":"1","AC_NAME":"Abdasa","PC_NO":"1","PC_NAME":"KACHCHH (SC)","district":"KACHCHH"}},{"type":"Feature","geometry":{"type":"Polygon","coordinates":[[[72.5777,23.0537],[72.5898,23.0629],[72.5498,23.0932],[72.5293,23.0613],[72.5777,23.0537]]]},"properties":{"AC_NO":"45","AC_NAME":"Naranpura","PC_NO":"6","PC_NAME":"GANDHINAGAR","district":"AHMADABAD"}},{"type":"Feature","geometry":{"type":"Polygon","coordinates":[[[72.0673,24.0343],[71.9615,23.9909],[71.9721,23.8883],[71.9929,23.7945],[72.1128,23.747],[72.1881,23.7713],[72.28,23.7133],[72.2835,23.7113],[72.2888,23.8527],[72.1099,23.971],[72.0673,24.0343]]]},"properties":{"AC_NO":"18","AC_NAME":"Patan","PC_NO":"3","PC_NAME":"PATAN","district":"PATAN"}},{"type":"Feature","geometry":{"type":"Polygon","coordinates":[[[72.5898,23.0629],[72.6037,23.0884],[72.5611,23.109],[72.5498,23.0932],[72.5898,23.0629]]]},"properties":{"AC_NO":"55","AC_NAME":"Sabarmati","PC_NO":"6","PC_NAME":"GANDHINAGAR","district":"AHMADABAD"}},{"type":"Feature","geometry":{"type":"Polygon","coordinates":[[[71.9721,23.8883],[71.776,23.8394],[71.7877,23.7187],[71.7272,23.6539],[71.5997,23.6444],[71.5198,23.5279],[71.5341,23.4791],[71.6134,23.5013],[71.8637,23.4721],[71.9686,23.5268],[72.0125,23.6319],[72.1132,23.6019],[72.1927,23.6325],[72.2833,23.613],[72.28,23.7133],[72.1881,23.7713],[72.1128,23.747],[71.9929,23.7945],[71.9721,23.8883]]]},"properties":{"AC_NO":"17","AC_NAME":"Chanasma","PC_NO":"3","PC_NAME":"PATAN","district":"PATAN"}},{"type":"Feature","geometry":{"type":"Polygon","coordinates":[[[73.6274,23.4485],[73.6554,23.621],[73.4737,23.7055],[73.3679,23.8223],[73.3783,23.9039],[73.2888,23.8632],[73.2162,23.8965],[73.1488,23.7378],[73.2374,23.7096],[73.2557,23.6309],[73.3986,23.6122],[73.4545,23.51],[73.5209,23.3506],[73.5943,23.3788],[73.6274,23.4485]]]},"properties":{"AC_NO":"30","AC_NAME":"Bhiloda (ST)","PC_NO":"5","PC_NAME":"SABARKANTHA","district":"ARVALLI"}},{"type":"Feature","geometry":{"type":"MultiPolygon","coordinates":[[[[70.4244,23.2165],[70.579,23.1775],[70.7004,23.2161],[70.8685,23.381],[71.0971,23.4841],[71.001,23.6124],[70.9882,23.6767],[70.8424,23.7736],[70.9204,23.8351],[70.8539,23.8965],[70.6174,23.9574],[70.5394,23.905],[70.6286,23.761],[70.484,23.7672],[70.4948,23.7028],[70.4361,23.643],[70.2907,23.562],[70.2618,23.5044],[70.4741,23.407],[70.5023,23.2912],[70.4244,23.2165]]],[[[70.1777,23.899],[70.2015,23.853],[70.3532,23.7853],[70.4573,23.8947],[70.4252,23.9327],[70.1777,23.899]]]]},"properties":{"AC_NO":"6","AC_NAME":"Rapar","PC_NO":"1","PC_NAME":"KACHCHH (SC)","district":"KACHCHH"}},{"type":"Feature","geometry":{"type":"Polygon","coordinates":[[[72.8997,24.0259],[72.8661,24.0248],[72.8195,23.9502],[72.808,23.7892],[72.8047,23.7306],[72.9173,23.7359],[72.9549,23.6973],[73.109,23.6921],[73.1488,23.7378],[73.2162,23.8965],[73.1596,23.9543],[72.8997,24.0259]]]},"properties":{"AC_NO":"28","AC_NAME":"Idar (SC)","PC_NO":"5","PC_NAME":"SABARKANTHA","district":"SABAR KANTHA"}},{"type":"Feature","geometry":{"type":"Polygon","coordinates":[[[72.4432,23.6391],[72.3933,23.6502],[72.3937,23.4183],[72.507,23.3897],[72.5898,23.4947],[72.5134,23.5573],[72.4432,23.6391]]]},"properties":{"AC_NO":"25","AC_NAME":"Mahesana","PC_NO":"4","PC_NAME":"MAHESANA","district":"MAHESANA"}},{"type":"Feature","geometry":{"type":"Polygon","coordinates":[[[72.1132,23.6019],[72.0125,23.6319],[71.9686,23.5268],[71.9984,23.4989],[72.0876,23.4592],[72.2981,23.4166],[72.3937,23.4183],[72.3933,23.6502],[72.4432,23.6391],[72.3389,23.7273],[72.2835,23.7113],[72.28,23.7133],[72.2833,23.613],[72.1927,23.6325],[72.1132,23.6019]]]},"properties":{"AC_NO":"23","AC_NAME":"Becharaji","PC_NO":"4","PC_NAME":"MAHESANA","district":"MAHESANA"}},{"type":"Feature","geometry":{"type":"Polygon","coordinates":[[[72.8047,23.7306],[72.8312,23.5459],[73.0931,23.4892],[73.1603,23.4915],[73.2084,23.6113],[73.2557,23.6309],[73.2374,23.7096],[73.1488,23.7378],[73.109,23.6921],[72.9549,23.6973],[72.9173,23.7359],[72.8047,23.7306]]]},"properties":{"AC_NO":"27","AC_NAME":"Himatnagar","PC_NO":"5","PC_NAME":"SABARKANTHA","district":"SABAR KANTHA"}},{"type":"Feature","geometry":{"type":"Polygon","coordinates":[[[73.2557,23.6309],[73.2084,23.6113],[73.1603,23.4915],[73.1316,23.3782],[73.0684,23.2614],[73.1691,23.2895],[73.3144,23.2893],[73.3644,23.3899],[73.4149,23.4004],[73.4545,23.51],[73.3986,23.6122],[73.2557,23.6309]]]},"properties":{"AC_NO":"31","AC_NAME":"Modasa","PC_NO":"5","PC_NAME":"SABARKANTHA","district":"ARVALLI"}},{"type":"Feature","geometry":{"type":"MultiPolygon","coordinates":[[[[70.2159,23.4084],[70.1677,23.4216],[70.1397,23.4096],[70.2159,23.4084]]],[[[70.4244,23.2165],[70.5023,23.2912],[70.4741,23.407],[70.2618,23.5044],[70.2282,23.4088],[70.1945,23.3621],[70.2051,23.2005],[70.1244,23.1053],[70.0224,23.0465],[70.1134,22.9846],[70.2243,23.1608],[70.3022,23.2085],[70.4244,23.2165]]]]},"properties":{"AC_NO":"5","AC_NAME":"Gandhidham(SC)","PC_NO":"1","PC_NAME":"KACHCHH (SC)","district":"KACHCHH"}},{"type":"Feature","geometry":{"type":"Polygon","coordinates":[[[70.2159,23.4084],[70.1397,23.4096],[70.0858,23.3745],[69.9003,23.4361],[69.7673,23.3821],[69.6865,23.3944],[69.6717,23.3167],[69.7145,23.2017],[69.5822,23.1057],[69.6273,23.0393],[69.7837,23.0457],[69.8276,22.985],[69.9451,22.9607],[69.9789,22.9024],[70.09,22.9305],[70.1134,22.9846],[70.0224,23.0465],[70.1244,23.1053],[70.2051,23.2005],[70.1945,23.3621],[70.2282,23.4088],[70.2159,23.4084]]]},"properties":{"AC_NO":"4","AC_NAME":"Anjar","PC_NO":"1","PC_NAME":"KACHCHH (SC)","district":"KACHCHH"}},{"type":"Feature","geometry":{"type":"Polygon","coordinates":[[[72.8312,23.5459],[72.7987,23.504],[72.8074,23.4407],[72.7234,23.3884],[72.81,23.3187],[72.9156,23.3228],[73.0147,23.2778],[73.0684,23.2614],[73.1316,23.3782],[73.1603,23.4915],[73.0931,23.4892],[72.8312,23.5459]]]},"properties":{"AC_NO":"33","AC_NAME":"Prantij","PC_NO":"5","PC_NAME":"SABARKANTHA","district":"SABAR KANTHA"}},{"type":"Feature","geometry":{"type":"Polygon","coordinates":[[[72.7234,23.3884],[72.7071,23.3282],[72.689,23.2145],[72.6214,23.1834],[72.5351,23.2591],[72.5373,23.166],[72.5611,23.109],[72.6037,23.0884],[72.687,23.1024],[72.744,23.0995],[72.7943,23.1431],[72.81,23.3187],[72.7234,23.3884]]]},"properties":{"AC_NO":"35","AC_NAME":"Gandhinagar(South)","PC_NO":"7","PC_NAME":"AHMEDABAD EAST","district":"GANDHINAGAR"}},{"type":"Feature","geometry":{"type":"Polygon","coordinates":[[[71.9686,23.5268],[71.8637,23.4721],[71.6134,23.5013],[71.5341,23.4791],[71.564,23.3736],[71.641,23.3387],[71.7627,23.1555],[71.7069,23.1164],[71.6262,23.1427],[71.6258,23.095],[71.7146,22.9819],[71.6386,22.9466],[71.6594,22.8444],[71.7764,22.7983],[71.7883,22.6934],[72.0646,22.6044],[72.0529,22.7975],[71.99,22.882],[72.0156,23.0578],[71.9182,23.0664],[71.8727,23.2791],[71.8705,23.3817],[71.9562,23.3878],[71.9984,23.4989],[71.9686,23.5268]]]},"properties":{"AC_NO":"60","AC_NAME":"Dasada (SC)","PC_NO":"9","PC_NAME":"SURENDRANAGAR","district":"SURENDRANAGAR"}},{"type":"Feature","geometry":{"type":"Polygon","coordinates":[[[71.9984,23.4989],[71.9562,23.3878],[71.8705,23.3817],[71.8727,23.2791],[71.9182,23.0664],[72.0156,23.0578],[71.99,22.882],[72.0529,22.7975],[72.1499,22.8795],[72.1391,22.9856],[72.191,23.0109],[72.1892,23.1069],[72.168,23.1974],[72.2089,23.3136],[72.2981,23.4166],[72.0876,23.4592],[71.9984,23.4989]]]},"properties":{"AC_NO":"39","AC_NAME":"Viramgam","PC_NO":"9","PC_NAME":"SURENDRANAGAR","district":"AHMADABAD"}},{"type":"Feature","geometry":{"type":"Polygon","coordinates":[[[72.6115,23.0389],[72.6188,23.0455],[72.6225,23.049],[72.5925,23.0619],[72.6112,23.0389],[72.6115,23.0389]]]},"properties":{"AC_NO":"56","AC_NAME":"Asarwa","PC_NO":"8","PC_NAME":"AHMEDABAD WEST(SC)","district":"AHMADABAD"}},{"type":"Feature","geometry":{"type":"Polygon","coordinates":[[[73.4545,23.51],[73.4149,23.4004],[73.3644,23.3899],[73.3144,23.2893],[73.1691,23.2895],[73.0684,23.2614],[73.0147,23.2778],[73.0167,23.1604],[73.155,23.1598],[73.2413,23.0705],[73.3261,23.0819],[73.4143,23.2655],[73.5258,23.2856],[73.5943,23.3788],[73.5209,23.3506],[73.4545,23.51]]]},"properties":{"AC_NO":"32","AC_NAME":"Bayad","PC_NO":"5","PC_NAME":"SABARKANTHA","district":"ARVALLI"}},{"type":"Feature","geometry":{"type":"Polygon","coordinates":[[[72.81,23.3187],[72.7943,23.1431],[72.744,23.0995],[72.8407,22.9967],[73.0167,23.1604],[73.0147,23.2778],[72.9156,23.3228],[72.81,23.3187]]]},"properties":{"AC_NO":"34","AC_NAME":"Dahegam","PC_NO":"7","PC_NAME":"AHMEDABAD EAST","district":"GANDHINAGAR"}},{"type":"Feature","geometry":{"type":"Polygon","coordinates":[[[72.5735,23.0401],[72.6106,23.0362],[72.6112,23.0389],[72.5925,23.0619],[72.5898,23.0629],[72.5777,23.0537],[72.5735,23.0401]]]},"properties":{"AC_NO":"51","AC_NAME":"Dariyapur","PC_NO":"8","PC_NAME":"AHMEDABAD WEST(SC)","district":"AHMADABAD"}},{"type":"Feature","geometry":{"type":"Polygon","coordinates":[[[69.3731,23.159],[69.1728,23.1143],[69.0195,22.9503],[69.1222,22.8806],[69.268,22.825],[69.4321,22.803],[69.6094,22.816],[69.7108,22.7812],[69.8007,22.8509],[69.9789,22.9024],[69.9451,22.9607],[69.8276,22.985],[69.7837,23.0457],[69.6273,23.0393],[69.5568,23.0204],[69.431,23.1503],[69.3731,23.159]]]},"properties":{"AC_NO":"2","AC_NAME":"Mandvi","PC_NO":"1","PC_NAME":"KACHCHH (SC)","district":"KACHCHH"}},{"type":"Feature","geometry":{"type":"Polygon","coordinates":[[[73.9991,23.3356],[73.8935,23.3331],[73.8301,23.4261],[73.7206,23.4104],[73.6881,23.3329],[73.7508,23.2355],[73.7171,23.1662],[73.9448,23.1069],[73.9991,23.3356]]]},"properties":{"AC_NO":"123","AC_NAME":"Santrampur","PC_NO":"19","PC_NAME":"DAHOD (ST)","district":"MAHISAGAR"}},{"type":"Feature","geometry":{"type":"Polygon","coordinates":[[[71.6262,23.1427],[71.4672,23.1396],[71.3502,23.1744],[71.2221,23.147],[71.1094,23.2221],[71.0452,23.1693],[70.9542,23.0011],[70.9968,22.9225],[70.997,22.789],[71.1196,22.7572],[71.1825,22.8322],[71.3115,22.8331],[71.3877,22.7927],[71.4833,22.8359],[71.5693,22.8143],[71.6594,22.8444],[71.6386,22.9466],[71.7146,22.9819],[71.6258,23.095],[71.6262,23.1427]]]},"properties":{"AC_NO":"64","AC_NAME":"Dhrangadhra","PC_NO":"9","PC_NAME":"SURENDRANAGAR","district":"SURENDRANAGAR"}},{"type":"Feature","geometry":{"type":"Polygon","coordinates":[[[71.0452,23.1693],[70.8362,23.1121],[70.7486,23.146],[70.5608,23.0288],[70.5458,22.9237],[70.6185,22.8791],[70.7022,22.9585],[70.7629,22.9647],[70.8221,22.8043],[70.9968,22.9225],[70.9542,23.0011],[71.0452,23.1693]]]},"properties":{"AC_NO":"65","AC_NAME":"Morbi","PC_NO":"1","PC_NAME":"KACHCHH (SC)","district":"MORBI"}},{"type":"Feature","geometry":{"type":"Polygon","coordinates":[[[73.9991,23.3356],[73.9448,23.1069],[73.9077,23.0093],[73.9821,23.0481],[74.045,22.9992],[74.115,23.0708],[74.1208,23.1771],[74.1325,23.2661],[73.9991,23.3356]]]},"properties":{"AC_NO":"129","AC_NAME":"Fatepura (ST)","PC_NO":"19","PC_NAME":"DAHOD (ST)","district":"DAHOD"}},{"type":"Feature","geometry":{"type":"Polygon","coordinates":[[[72.6112,23.0389],[72.6106,23.0362],[72.5392,22.976],[72.5304,22.9523],[72.5684,22.9523],[72.6154,23.0196],[72.6172,23.0288],[72.6115,23.0389],[72.6112,23.0389]]]},"properties":{"AC_NO":"54","AC_NAME":"Danilimda","PC_NO":"8","PC_NAME":"AHMEDABAD WEST(SC)","district":"AHMADABAD"}},{"type":"Feature","geometry":{"type":"Polygon","coordinates":[[[72.6574,23.0465],[72.6225,23.049],[72.6188,23.0455],[72.6552,23.0399],[72.6574,23.0465]]]},"properties":{"AC_NO":"48","AC_NAME":"Thakkar Bapanagar","PC_NO":"7","PC_NAME":"AHMEDABAD EAST","district":"AHMADABAD"}},{"type":"Feature","geometry":{"type":"Polygon","coordinates":[[[72.596,23.3352],[72.5231,23.3611],[72.4103,23.2803],[72.4149,23.131],[72.3343,23.1082],[72.4449,23.0471],[72.5373,23.166],[72.5351,23.2591],[72.596,23.3352]]]},"properties":{"AC_NO":"38","AC_NAME":"Kalol","PC_NO":"6","PC_NAME":"GANDHINAGAR","district":"GANDHINAGAR"}},{"type":"Feature","geometry":{"type":"Polygon","coordinates":[[[72.6819,23.0483],[72.6574,23.0465],[72.6552,23.0399],[72.6519,23.0292],[72.6729,23.0247],[72.6852,23.027],[72.6819,23.0483]]]},"properties":{"AC_NO":"46","AC_NAME":"Nikol","PC_NO":"7","PC_NAME":"AHMEDABAD EAST","district":"AHMADABAD"}},{"type":"Feature","geometry":{"type":"Polygon","coordinates":[[[73.5258,23.2856],[73.4143,23.2655],[73.3261,23.0819],[73.2413,23.0705],[73.155,23.1598],[73.1046,23.1115],[73.0916,22.8865],[73.0947,22.8865],[73.1846,22.8884],[73.3105,22.9402],[73.4174,22.939],[73.4361,22.9961],[73.4266,23.1561],[73.5117,23.145],[73.5258,23.2856]]]},"properties":{"AC_NO":"121","AC_NAME":"Balasinor","PC_NO":"18","PC_NAME":"PANCHMAHAL","district":"MAHISAGAR"}},{"type":"Feature","geometry":{"type":"Polygon","coordinates":[[[72.6115,23.0389],[72.6172,23.0288],[72.6519,23.0292],[72.6552,23.0399],[72.6188,23.0455],[72.6115,23.0389]]]},"properties":{"AC_NO":"49","AC_NAME":"Bapunagar","PC_NO":"7","PC_NAME":"AHMEDABAD EAST","district":"AHMADABAD"}},{"type":"Feature","geometry":{"type":"Polygon","coordinates":[[[72.3343,23.1082],[72.1892,23.1069],[72.191,23.0109],[72.1391,22.9856],[72.1499,22.8795],[72.0529,22.7975],[72.0646,22.6044],[72.1636,22.5736],[72.2775,22.7635],[72.4392,22.8588],[72.4752,22.9708],[72.4657,23.0089],[72.4449,23.0471],[72.3343,23.1082]]]},"properties":{"AC_NO":"40","AC_NAME":"Sanand","PC_NO":"6","PC_NAME":"GANDHINAGAR","district":"AHMADABAD"}},{"type":"Feature","geometry":{"type":"Polygon","coordinates":[[[71.6594,22.8444],[71.5693,22.8143],[71.4833,22.8359],[71.3877,22.7927],[71.5615,22.7483],[71.5953,22.6657],[71.5149,22.562],[71.6384,22.5024],[71.7181,22.5516],[71.7883,22.6934],[71.7764,22.7983],[71.6594,22.8444]]]},"properties":{"AC_NO":"62","AC_NAME":"Wadhwan","PC_NO":"9","PC_NAME":"SURENDRANAGAR","district":"SURENDRANAGAR"}},{"type":"Feature","geometry":{"type":"Polygon","coordinates":[[[72.6154,23.0196],[72.5684,22.9523],[72.5909,22.9422],[72.6665,22.9978],[72.6154,23.0196]]]},"properties":{"AC_NO":"53","AC_NAME":"Maninagar","PC_NO":"8","PC_NAME":"AHMEDABAD WEST(SC)","district":"AHMADABAD"}},{"type":"Feature","geometry":{"type":"Polygon","coordinates":[[[72.744,23.0995],[72.687,23.1024],[72.6819,23.0483],[72.6852,23.027],[72.7462,22.9422],[72.5909,22.9422],[72.5684,22.9523],[72.5304,22.9523],[72.4752,22.9708],[72.4392,22.8588],[72.5399,22.8059],[72.6084,22.8861],[72.7915,22.9079],[72.8403,22.9768],[72.8407,22.9967],[72.744,23.0995]]]},"properties":{"AC_NO":"57","AC_NAME":"Daskroi","PC_NO":"17","PC_NAME":"KHEDA","district":"AHMADABAD"}},{"type":"Feature","geometry":{"type":"Polygon","coordinates":[[[70.6185,22.8791],[70.5458,22.9237],[70.4637,22.8326],[70.3762,22.7866],[70.329,22.6276],[70.3367,22.4814],[70.3939,22.3803],[70.3548,22.2877],[70.2669,22.3507],[70.164,22.2738],[70.1476,22.1771],[70.2483,22.0568],[70.2576,21.9947],[70.3016,21.9984],[70.3504,22.0515],[70.4908,22.0554],[70.5264,22.0013],[70.5639,22.0381],[70.5876,22.1668],[70.5081,22.2721],[70.4924,22.4113],[70.5862,22.4895],[70.5502,22.5666],[70.645,22.7039],[70.6139,22.7633],[70.6635,22.8312],[70.6185,22.8791]]]},"properties":{"AC_NO":"76","AC_NAME":"Kalavad (SC)","PC_NO":"12","PC_NAME":"JAMNAGAR","district":"JAMNAGAR"}},{"type":"Feature","geometry":{"type":"Polygon","coordinates":[[[70.997,22.789],[70.8674,22.72],[70.8716,22.6531],[70.785,22.6153],[70.7899,22.4374],[70.7256,22.3256],[70.8,22.3408],[70.8522,22.3056],[70.8612,22.2861],[71.0189,22.2291],[71.0796,22.2631],[71.0127,22.3579],[71.1642,22.4841],[71.0966,22.6184],[71.1622,22.6827],[71.1196,22.7572],[70.997,22.789]]]},"properties":{"AC_NO":"67","AC_NAME":"Wankaner","PC_NO":"10","PC_NAME":"RAJKOT","district":"MORBI"}},{"type":"Feature","geometry":{"type":"Polygon","coordinates":[[[70.3762,22.7866],[70.2616,22.7087],[70.2565,22.656],[70.1388,22.5495],[69.9767,22.5429],[69.8064,22.3846],[69.8985,22.4078],[69.9827,22.3062],[70.0862,22.3169],[70.164,22.2738],[70.2669,22.3507],[70.3548,22.2877],[70.3939,22.3803],[70.3367,22.4814],[70.329,22.6276],[70.3762,22.7866]],[[69.9672,22.4635],[70.0494,22.5164],[70.1132,22.4605],[70.024,22.4056],[69.9672,22.4635]]]},"properties":{"AC_NO":"77","AC_NAME":"Jamnagar","PC_NO":"12","PC_NAME":"JAMNAGAR","district":"JAMNAGAR"}},{"type":"Feature","geometry":{"type":"Polygon","coordinates":[[[73.6707,23.0983],[73.5943,22.9904],[73.4361,22.9961],[73.4174,22.939],[73.3502,22.7923],[73.4169,22.7845],[73.515,22.8444],[73.6493,22.8433],[73.7921,22.8931],[73.7829,22.998],[73.6707,23.0983]]]},"properties":{"AC_NO":"124","AC_NAME":"Shehra","PC_NO":"18","PC_NAME":"PANCHMAHAL","district":"PANCH MAHALS"}},{"type":"Feature","geometry":{"type":"Polygon","coordinates":[[[74.045,22.9992],[73.9821,23.0481],[73.9077,23.0093],[73.8705,22.8468],[73.9313,22.8331],[73.992,22.7274],[74.0852,22.7699],[74.1548,22.7294],[74.1782,22.8055],[74.1378,22.8921],[74.045,22.9992]]]},"properties":{"AC_NO":"131","AC_NAME":"Limkheda (ST)","PC_NO":"19","PC_NAME":"DAHOD (ST)","district":"DAHOD"}},{"type":"Feature","geometry":{"type":"Polygon","coordinates":[[[71.3877,22.7927],[71.3115,22.8331],[71.1825,22.8322],[71.1196,22.7572],[71.1622,22.6827],[71.0966,22.6184],[71.1642,22.4841],[71.0127,22.3579],[71.0796,22.2631],[71.1589,22.165],[71.3106,22.2795],[71.2409,22.5986],[71.3235,22.6194],[71.3745,22.574],[71.5149,22.562],[71.5953,22.6657],[71.5615,22.7483],[71.3877,22.7927]]]},"properties":{"AC_NO":"63","AC_NAME":"Chotila","PC_NO":"9","PC_NAME":"SURENDRANAGAR","district":"SURENDRANAGAR"}},{"type":"Feature","geometry":{"type":"Polygon","coordinates":[[[72.8403,22.9768],[72.7915,22.9079],[72.6084,22.8861],[72.5399,22.8059],[72.5366,22.7163],[72.5576,22.7662],[72.6857,22.7862],[72.799,22.7467],[72.9337,22.875],[72.8403,22.9768]]]},"properties":{"AC_NO":"117","AC_NAME":"Mehmedabad","PC_NO":"17","PC_NAME":"KHEDA","district":"KHEDA"}},{"type":"Feature","geometry":{"type":"Polygon","coordinates":[[[73.4174,22.939],[73.3105,22.9402],[73.1846,22.8884],[73.0947,22.8865],[73.0481,22.7167],[73.1367,22.7173],[73.2201,22.6262],[73.2694,22.6673],[73.255,22.7605],[73.3502,22.7923],[73.4174,22.939]]]},"properties":{"AC_NO":"119","AC_NAME":"Thasra","PC_NO":"18","PC_NAME":"PANCHMAHAL","district":"KHEDA"}},{"type":"Feature","geometry":{"type":"Polygon","coordinates":[[[72.4392,22.8588],[72.2775,22.7635],[72.1636,22.5736],[72.164,22.4794],[72.2839,22.4232],[72.3564,22.4405],[72.4273,22.4917],[72.5057,22.6134],[72.5366,22.7163],[72.5399,22.8059],[72.4392,22.8588]]]},"properties":{"AC_NO":"58","AC_NAME":"Dholka","PC_NO":"17","PC_NAME":"KHEDA","district":"AHMADABAD"}},{"type":"Feature","geometry":{"type":"Polygon","coordinates":[[[74.466,22.8224],[74.4611,22.906],[74.3772,22.9077],[74.3383,22.963],[74.1378,22.8921],[74.1782,22.8055],[74.3319,22.7903],[74.466,22.8224]]]},"properties":{"AC_NO":"132","AC_NAME":"Dahod (ST)","PC_NO":"19","PC_NAME":"DAHOD (ST)","district":"DAHOD"}},{"type":"Feature","geometry":{"type":"Polygon","coordinates":[[[73.0916,22.8865],[72.9337,22.875],[72.799,22.7467],[72.8297,22.705],[72.8937,22.7049],[72.9288,22.6268],[73.0481,22.7167],[73.0947,22.8865],[73.0916,22.8865]]]},"properties":{"AC_NO":"118","AC_NAME":"Mahudha","PC_NO":"17","PC_NAME":"KHEDA","district":"KHEDA"}},{"type":"Feature","geometry":{"type":"Polygon","coordinates":[[[73.7921,22.8931],[73.6493,22.8433],[73.515,22.8444],[73.4169,22.7845],[73.3889,22.6988],[73.5545,22.6982],[73.7321,22.7559],[73.8131,22.8359],[73.7921,22.8931]]]},"properties":{"AC_NO":"126","AC_NAME":"Godhra","PC_NO":"18","PC_NAME":"PANCHMAHAL","district":"PANCH MAHALS"}},{"type":"Feature","geometry":{"type":"Polygon","coordinates":[[[72.799,22.7467],[72.6857,22.7862],[72.5576,22.7662],[72.5366,22.7163],[72.5057,22.6134],[72.5752,22.5041],[72.6514,22.5008],[72.6837,22.6285],[72.7703,22.6363],[72.8222,22.6069],[72.8297,22.705],[72.799,22.7467]]]},"properties":{"AC_NO":"115","AC_NAME":"Matar","PC_NO":"17","PC_NAME":"KHEDA","district":"KHEDA"}},{"type":"Feature","geometry":{"type":"Polygon","coordinates":[[[74.1548,22.7294],[74.0852,22.7699],[73.992,22.7274],[73.9313,22.8331],[73.8705,22.8468],[73.8052,22.6943],[73.8683,22.5701],[73.8092,22.5489],[73.9063,22.5076],[74.0176,22.574],[74.0614,22.5497],[74.0932,22.5405],[74.1548,22.7294]]]},"properties":{"AC_NO":"134","AC_NAME":"Devgadhbaria","PC_NO":"19","PC_NAME":"DAHOD (ST)","district":"DAHOD"}},{"type":"Feature","geometry":{"type":"Polygon","coordinates":[[[72.1636,22.5736],[72.0646,22.6044],[71.7883,22.6934],[71.7181,22.5516],[71.6384,22.5024],[71.5149,22.562],[71.3745,22.574],[71.3235,22.6194],[71.2409,22.5986],[71.3106,22.2795],[71.4376,22.2612],[71.5306,22.3433],[71.6143,22.3398],[71.6262,22.3831],[71.7892,22.3891],[71.9021,22.4234],[71.9131,22.5256],[72.0331,22.5067],[72.0903,22.4358],[72.164,22.4794],[72.1636,22.5736]]]},"properties":{"AC_NO":"61","AC_NAME":"Limbdi","PC_NO":"9","PC_NAME":"SURENDRANAGAR","district":"SURENDRANAGAR"}},{"type":"Feature","geometry":{"type":"Polygon","coordinates":[[[73.8052,22.6943],[73.7321,22.7559],[73.5545,22.6982],[73.3889,22.6988],[73.3721,22.5561],[73.4196,22.5472],[73.6146,22.5949],[73.7495,22.5419],[73.8092,22.5489],[73.8683,22.5701],[73.8052,22.6943]]]},"properties":{"AC_NO":"127","AC_NAME":"Kalol","PC_NO":"18","PC_NAME":"PANCHMAHAL","district":"PANCH MAHALS"}},{"type":"Feature","geometry":{"type":"Polygon","coordinates":[[[69.3875,22.2754],[69.338,22.2992],[69.2417,22.2168],[69.131,22.1969],[69.1693,22.354],[69.0065,22.4395],[68.9365,22.3114],[68.9661,22.2341],[69.2821,21.8956],[69.372,21.8298],[69.6103,21.9476],[69.5946,22.0422],[69.4453,22.1016],[69.3797,22.1635],[69.3875,22.2754]]]},"properties":{"AC_NO":"82","AC_NAME":"Dwarka","PC_NO":"12","PC_NAME":"JAMNAGAR","district":"DEVBHUMI DWARKA"}},{"type":"Feature","geometry":{"type":"Polygon","coordinates":[[[74.466,22.8224],[74.3319,22.7903],[74.1782,22.8055],[74.1548,22.7294],[74.0932,22.5405],[74.1892,22.5534],[74.2771,22.6459],[74.379,22.6346],[74.4015,22.7304],[74.466,22.8224]]]},"properties":{"AC_NO":"133","AC_NAME":"Garbada (ST)","PC_NO":"19","PC_NAME":"DAHOD (ST)","district":"DAHOD"}},{"type":"Feature","geometry":{"type":"Polygon","coordinates":[[[73.0481,22.7167],[72.9288,22.6268],[72.9185,22.5951],[72.9924,22.5368],[73.1462,22.5419],[73.2201,22.6262],[73.1367,22.7173],[73.0481,22.7167]]]},"properties":{"AC_NO":"111","AC_NAME":"Umreth","PC_NO":"16","PC_NAME":"ANAND","district":"ANAND"}},{"type":"Feature","geometry":{"type":"Polygon","coordinates":[[[72.8297,22.705],[72.8222,22.6069],[72.8677,22.5824],[72.9185,22.5951],[72.9288,22.6268],[72.8937,22.7049],[72.8297,22.705]]]},"properties":{"AC_NO":"116","AC_NAME":"Nadiad","PC_NO":"17","PC_NAME":"KHEDA","district":"KHEDA"}},{"type":"Feature","geometry":{"type":"Polygon","coordinates":[[[70.1132,22.4605],[70.0494,22.5164],[69.9672,22.4635],[70.1132,22.4605]]]},"properties":{"AC_NO":"78","AC_NAME":"Jamnagar North","PC_NO":"12","PC_NAME":"JAMNAGAR","district":"JAMNAGAR"}},{"type":"Feature","geometry":{"type":"Polygon","coordinates":[[[69.7408,22.4179],[69.6693,22.342],[69.4999,22.3636],[69.4506,22.2824],[69.3875,22.2754],[69.3797,22.1635],[69.4453,22.1016],[69.5946,22.0422],[69.6103,21.9476],[69.6726,21.9038],[69.7,21.8008],[69.8133,21.8241],[69.8948,21.8399],[69.8875,21.9935],[69.8122,22.0461],[69.8055,22.2086],[69.7287,22.3122],[69.7408,22.4179]]]},"properties":{"AC_NO":"81","AC_NAME":"Khambhalia","PC_NO":"12","PC_NAME":"JAMNAGAR","district":"DEVBHUMI DWARKA"}},{"type":"Feature","geometry":{"type":"Polygon","coordinates":[[[72.7703,22.6363],[72.6837,22.6285],[72.6514,22.5008],[72.5752,22.5041],[72.5057,22.6134],[72.4273,22.4917],[72.5669,22.4109],[72.721,22.4241],[72.7594,22.3934],[72.8129,22.4023],[72.7707,22.4516],[72.7703,22.6363]]]},"properties":{"AC_NO":"114","AC_NAME":"Sojitra","PC_NO":"16","PC_NAME":"ANAND","district":"ANAND"}},{"type":"Feature","geometry":{"type":"Polygon","coordinates":[[[69.8064,22.3846],[69.7408,22.4179],[69.7287,22.3122],[69.8055,22.2086],[69.8122,22.0461],[69.8875,21.9935],[69.8948,21.8399],[69.8133,21.8241],[69.863,21.7694],[69.9921,21.807],[70.0787,21.7326],[70.0511,21.7745],[70.1408,21.8903],[70.2172,21.9059],[70.2576,21.9947],[70.2483,22.0568],[70.1476,22.1771],[70.164,22.2738],[70.0862,22.3169],[69.9827,22.3062],[69.8985,22.4078],[69.8064,22.3846]]]},"properties":{"AC_NO":"80","AC_NAME":"Jamjodhpur","PC_NO":"12","PC_NAME":"JAMNAGAR","district":"JAMNAGAR"}},{"type":"Feature","geometry":{"type":"Polygon","coordinates":[[[72.7703,22.6363],[72.7707,22.4516],[72.8129,22.4023],[72.9697,22.465],[72.9582,22.4849],[72.9052,22.487],[72.8677,22.5824],[72.8222,22.6069],[72.7703,22.6363]]]},"properties":{"AC_NO":"113","AC_NAME":"Petlad","PC_NO":"16","PC_NAME":"ANAND","district":"ANAND"}},{"type":"Feature","geometry":{"type":"Polygon","coordinates":[[[74.0751,22.2573],[74.0684,22.3605],[74.1892,22.32],[74.2526,22.4329],[74.1049,22.4294],[74.0614,22.5497],[74.0176,22.574],[73.9063,22.5076],[73.8092,22.5489],[73.7495,22.5419],[73.723,22.4598],[73.7508,22.3457],[73.892,22.3373],[74.0234,22.2265],[74.0751,22.2573]]]},"properties":{"AC_NO":"137","AC_NAME":"Chhota Udaipur (ST","PC_NO":"21","PC_NAME":"CHHOTA UDAIPUR(ST)","district":"CHHOTAUDEPUR"}},{"type":"Feature","geometry":{"type":"Polygon","coordinates":[[[72.164,22.4794],[72.0903,22.4358],[72.0331,22.5067],[71.9131,22.5256],[71.9021,22.4234],[71.7892,22.3891],[71.6262,22.3831],[71.6143,22.3398],[71.63,22.2279],[71.8628,22.0994],[71.899,22.1047],[72.0196,22.1047],[72.1234,22.0572],[72.1753,21.9908],[72.2751,22.1522],[72.2583,22.2733],[72.2928,22.3889],[72.3422,22.3858],[72.3564,22.4405],[72.2839,22.4232],[72.164,22.4794]]]},"properties":{"AC_NO":"59","AC_NAME":"Dhandhuka","PC_NO":"9","PC_NAME":"SURENDRANAGAR","district":"AHMADABAD"}},{"type":"Feature","geometry":{"type":"Polygon","coordinates":[[[72.9924,22.5368],[72.9582,22.4849],[72.9697,22.465],[72.9478,22.2958],[73.0527,22.3416],[73.0677,22.4117],[73.092,22.5104],[73.1462,22.5419],[72.9924,22.5368]]]},"properties":{"AC_NO":"110","AC_NAME":"Anklav","PC_NO":"16","PC_NAME":"ANAND","district":"ANAND"}},{"type":"Feature","geometry":{"type":"Polygon","coordinates":[[[73.7495,22.5419],[73.6146,22.5949],[73.4196,22.5472],[73.4065,22.5063],[73.4646,22.3603],[73.5664,22.3284],[73.725,22.2914],[73.7508,22.3457],[73.723,22.4598],[73.7495,22.5419]]]},"properties":{"AC_NO":"128","AC_NAME":"Halol","PC_NO":"21","PC_NAME":"CHHOTA UDAIPUR(ST)","district":"PANCH MAHALS"}},{"type":"Feature","geometry":{"type":"Polygon","coordinates":[[[72.4273,22.4917],[72.3564,22.4405],[72.3422,22.3858],[72.4014,22.3591],[72.3345,22.1923],[72.3933,22.1053],[72.5746,22.2324],[72.6605,22.2238],[72.8016,22.2489],[72.7594,22.3934],[72.721,22.4241],[72.5669,22.4109],[72.4273,22.4917]]]},"properties":{"AC_NO":"108","AC_NAME":"Khambhat","PC_NO":"16","PC_NAME":"ANAND","district":"ANAND"}},{"type":"Feature","geometry":{"type":"Polygon","coordinates":[[[70.6967,22.2951],[70.5081,22.2721],[70.5876,22.1668],[70.5639,22.0381],[70.7934,22.1062],[70.838,22.0069],[70.9431,21.9001],[71.0379,22.1175],[71.0189,22.2291],[70.8612,22.2861],[70.8493,22.2785],[70.821,22.2587],[70.7764,22.2524],[70.7601,22.2723],[70.6967,22.2951]]]},"properties":{"AC_NO":"71","AC_NAME":"Rajkot Rural(SC)","PC_NO":"10","PC_NAME":"RAJKOT","district":"RAJKOT"}},{"type":"Feature","geometry":{"type":"Polygon","coordinates":[[[73.4065,22.5063],[73.3412,22.4454],[73.2122,22.4064],[73.17,22.4413],[73.0677,22.4117],[73.0527,22.3416],[73.1234,22.3215],[73.1249,22.3266],[73.219,22.3515],[73.2323,22.3507],[73.2829,22.3546],[73.2594,22.3124],[73.2966,22.277],[73.3456,22.2692],[73.4348,22.2092],[73.49,22.2339],[73.5664,22.3284],[73.4646,22.3603],[73.4065,22.5063]]]},"properties":{"AC_NO":"136","AC_NAME":"Vaghodia","PC_NO":"20","PC_NAME":"VADODARA","district":"VADODARA"}},{"type":"Feature","geometry":{"type":"Polygon","coordinates":[[[72.9697,22.465],[72.8129,22.4023],[72.7594,22.3934],[72.8016,22.2489],[72.8495,22.2748],[72.9478,22.2958],[72.9697,22.465]]]},"properties":{"AC_NO":"109","AC_NAME":"Borsad","PC_NO":"16","PC_NAME":"ANAND","district":"ANAND"}},{"type":"Feature","geometry":{"type":"Polygon","coordinates":[[[71.6143,22.3398],[71.5306,22.3433],[71.4376,22.2612],[71.4862,22.1862],[71.5127,22.057],[71.475,22.0381],[71.5852,22.0112],[71.6717,21.9328],[71.7468,22.0192],[71.8656,22.0116],[71.899,22.1047],[71.8628,22.0994],[71.63,22.2279],[71.6143,22.3398]]]},"properties":{"AC_NO":"107","AC_NAME":"Botad","PC_NO":"15","PC_NAME":"BHAVNAGAR","district":"BOTAD"}},{"type":"Feature","geometry":{"type":"Polygon","coordinates":[[[70.8493,22.2785],[70.802,22.2879],[70.7857,22.2851],[70.7749,22.2766],[70.7601,22.2723],[70.7764,22.2524],[70.821,22.2587],[70.8493,22.2785]]]},"properties":{"AC_NO":"68","AC_NAME":"Rajkot East","PC_NO":"10","PC_NAME":"RAJKOT","district":"RAJKOT"}},{"type":"Feature","geometry":{"type":"Polygon","coordinates":[[[71.0796,22.2631],[71.0189,22.2291],[71.0379,22.1175],[70.9431,21.9001],[71.0514,21.8243],[71.0818,21.8243],[71.0304,21.8742],[71.3049,22.042],[71.3928,21.9801],[71.475,22.0381],[71.5127,22.057],[71.4862,22.1862],[71.4376,22.2612],[71.3106,22.2795],[71.1589,22.165],[71.0796,22.2631]]]},"properties":{"AC_NO":"72","AC_NAME":"Jasdan","PC_NO":"10","PC_NAME":"RAJKOT","district":"RAJKOT"}},{"type":"Feature","geometry":{"type":"Polygon","coordinates":[[[73.3076,21.1998],[73.2334,21.2316],[73.2279,21.1747],[73.0518,20.9907],[73.0909,20.9395],[73.1256,20.8985],[73.1618,20.9022],[73.2539,20.8198],[73.3171,20.88],[73.3394,21.0384],[73.3076,21.1998]]]},"properties":{"AC_NO":"170","AC_NAME":"Mahuva (ST)","PC_NO":"23","PC_NAME":"BARDOLI (ST)","district":"TAPI"}},{"type":"Feature","geometry":{"type":"Polygon","coordinates":[[[73.5664,22.3284],[73.49,22.2339],[73.5254,22.0509],[73.6621,22.0554],[73.8003,21.9295],[73.8546,21.9526],[73.9403,21.8709],[74.0179,21.9069],[74.0039,21.9849],[73.8922,22.1053],[73.7751,22.1023],[73.725,22.2914],[73.5664,22.3284]]]},"properties":{"AC_NO":"139","AC_NAME":"Sankheda(ST)","PC_NO":"21","PC_NAME":"CHHOTA UDAIPUR(ST)","district":"CHHOTAUDEPUR"}},{"type":"Feature","geometry":{"type":"Polygon","coordinates":[[[73.2594,22.3124],[73.2829,22.3546],[73.2323,22.3507],[73.2265,22.3233],[73.2608,22.3106],[73.2594,22.3124]]]},"properties":{"AC_NO":"141","AC_NAME":"Vadodara City(SC)","PC_NO":"20","PC_NAME":"VADODARA","district":"VADODARA"}},{"type":"Feature","geometry":{"type":"Polygon","coordinates":[[[73.2323,22.3507],[73.219,22.3515],[73.2038,22.3256],[73.2365,22.2912],[73.2636,22.2838],[73.2608,22.3106],[73.2265,22.3233],[73.2323,22.3507]]]},"properties":{"AC_NO":"144","AC_NAME":"Raopura","PC_NO":"20","PC_NAME":"VADODARA","district":"VADODARA"}},{"type":"Feature","geometry":{"type":"Polygon","coordinates":[[[73.1249,22.3266],[73.1234,22.3215],[73.134,22.2966],[73.1709,22.2559],[73.2365,22.2912],[73.2038,22.3256],[73.1249,22.3266]]]},"properties":{"AC_NO":"143","AC_NAME":"Akota","PC_NO":"20","PC_NAME":"VADODARA","district":"VADODARA"}},{"type":"Feature","geometry":{"type":"Polygon","coordinates":[[[73.7508,22.3457],[73.725,22.2914],[73.7751,22.1023],[73.8922,22.1053],[74.0039,21.9849],[74.0179,21.9069],[74.1,21.999],[74.1287,22.0947],[74.1223,22.2121],[74.0751,22.2573],[74.0234,22.2265],[73.892,22.3373],[73.7508,22.3457]]]},"properties":{"AC_NO":"138","AC_NAME":"Jetpur (ST)","PC_NO":"21","PC_NAME":"CHHOTA UDAIPUR(ST)","district":"CHHOTAUDEPUR"}},{"type":"Feature","geometry":{"type":"Polygon","coordinates":[[[72.8798,21.1876],[72.8659,21.1885],[72.869,21.1469],[72.8215,21.1621],[72.7901,21.1805],[72.7897,21.1841],[72.7036,21.1344],[72.6969,21.0622],[72.8891,21.0497],[72.9178,21.1142],[72.8798,21.1876]]]},"properties":{"AC_NO":"168","AC_NAME":"Choryasi","PC_NO":"25","PC_NAME":"NAVSARI","district":"SURAT"}},{"type":"Feature","geometry":{"type":"Polygon","coordinates":[[[73.49,22.2339],[73.4348,22.2092],[73.3456,22.2692],[73.2966,22.277],[73.2594,22.3124],[73.2608,22.3106],[73.2636,22.2838],[73.1709,22.2559],[73.134,22.2966],[73.1532,22.1823],[73.2811,22.0519],[73.4295,22.0309],[73.4397,21.9628],[73.5254,22.0509],[73.49,22.2339]]]},"properties":{"AC_NO":"140","AC_NAME":"Dabhoi","PC_NO":"21","PC_NAME":"CHHOTA UDAIPUR(ST)","district":"VADODARA"}},{"type":"Feature","geometry":{"type":"Polygon","coordinates":[[[70.5639,22.0381],[70.5264,22.0013],[70.6103,21.9692],[70.7424,21.8095],[70.8314,21.7434],[71.0474,21.7558],[71.0514,21.8243],[70.9431,21.9001],[70.838,22.0069],[70.7934,22.1062],[70.5639,22.0381]]]},"properties":{"AC_NO":"73","AC_NAME":"Gondal","PC_NO":"11","PC_NAME":"PORBANDAR","district":"RAJKOT"}},{"type":"Feature","geometry":{"type":"Polygon","coordinates":[[[72.0196,22.1047],[71.899,22.1047],[71.8656,22.0116],[71.7468,22.0192],[71.6717,21.9328],[71.5852,22.0112],[71.475,22.0381],[71.3928,21.9801],[71.4604,21.9082],[71.4568,21.8249],[71.5927,21.6984],[71.6713,21.7044],[71.7842,21.7766],[71.8513,21.736],[71.952,21.8177],[72.0423,21.9577],[71.9794,22.0529],[72.0196,22.1047]]]},"properties":{"AC_NO":"106","AC_NAME":"Gadhada (SC)","PC_NO":"15","PC_NAME":"BHAVNAGAR","district":"BHAVNAGAR"}},{"type":"Feature","geometry":{"type":"Polygon","coordinates":[[[70.5264,22.0013],[70.4908,22.0554],[70.3504,22.0515],[70.3016,21.9984],[70.3769,21.8193],[70.5348,21.7936],[70.5363,21.6731],[70.7011,21.6044],[70.7938,21.6663],[70.8314,21.7434],[70.7424,21.8095],[70.6103,21.9692],[70.5264,22.0013]]]},"properties":{"AC_NO":"74","AC_NAME":"Jetpur","PC_NO":"11","PC_NAME":"PORBANDAR","district":"RAJKOT"}},{"type":"Feature","geometry":{"type":"Polygon","coordinates":[[[70.3016,21.9984],[70.2576,21.9947],[70.2172,21.9059],[70.1408,21.8903],[70.0511,21.7745],[70.0787,21.7326],[70.1483,21.6645],[70.3009,21.5814],[70.4568,21.6493],[70.5363,21.6731],[70.5348,21.7936],[70.3769,21.8193],[70.3016,21.9984]]]},"properties":{"AC_NO":"75","AC_NAME":"Dhoraji","PC_NO":"11","PC_NAME":"PORBANDAR","district":"RAJKOT"}},{"type":"Feature","geometry":{"type":"Polygon","coordinates":[[[72.0196,22.1047],[71.9794,22.0529],[72.0423,21.9577],[71.952,21.8177],[71.8513,21.736],[71.9584,21.6367],[72.0306,21.6326],[72.0571,21.5354],[72.1364,21.4356],[72.2555,21.4983],[72.2998,21.6168],[72.2183,21.7356],[72.0854,21.7206],[72.0459,21.7942],[72.0808,21.8134],[72.1819,21.8442],[72.1753,21.9908],[72.1234,22.0572],[72.0196,22.1047]]]},"properties":{"AC_NO":"103","AC_NAME":"Bhavnagar Rural","PC_NO":"15","PC_NAME":"BHAVNAGAR","district":"BHAVNAGAR"}},{"type":"Feature","geometry":{"type":"Polygon","coordinates":[[[73.1532,22.1823],[73.0876,22.1204],[72.9849,22.1195],[72.9849,22.0472],[73.0492,21.976],[72.9982,21.9172],[73.1408,21.8648],[73.2011,21.8224],[73.3041,21.8872],[73.4026,21.9106],[73.4397,21.9628],[73.4295,22.0309],[73.2811,22.0519],[73.1532,22.1823]]]},"properties":{"AC_NO":"147","AC_NAME":"Karjan","PC_NO":"22","PC_NAME":"BHARUCH","district":"VADODARA"}},{"type":"Feature","geometry":{"type":"Polygon","coordinates":[[[71.3928,21.9801],[71.3049,22.042],[71.0304,21.8742],[71.0818,21.8243],[71.2802,21.7496],[71.3049,21.5985],[71.4114,21.6075],[71.497,21.6511],[71.5032,21.5458],[71.5461,21.5588],[71.5927,21.6984],[71.4568,21.8249],[71.4604,21.9082],[71.3928,21.9801]]]},"properties":{"AC_NO":"96","AC_NAME":"Lathi","PC_NO":"14","PC_NAME":"AMRELI","district":"AMRELI"}},{"type":"Feature","geometry":{"type":"Polygon","coordinates":[[[69.8133,21.8241],[69.7,21.8008],[69.6591,21.7206],[69.643,21.597],[69.9811,21.2284],[70.0125,21.2775],[69.942,21.3723],[70.0304,21.4348],[69.9904,21.5792],[70.1483,21.6645],[70.0787,21.7326],[69.9921,21.807],[69.863,21.7694],[69.8133,21.8241]]]},"properties":{"AC_NO":"84","AC_NAME":"Kutiyana","PC_NO":"11","PC_NAME":"PORBANDAR","district":"PORBANDAR"}},{"type":"Feature","geometry":{"type":"Polygon","coordinates":[[[73.9403,21.8709],[73.8546,21.9526],[73.8003,21.9295],[73.6621,22.0554],[73.5254,22.0509],[73.4397,21.9628],[73.4026,21.9106],[73.3041,21.8872],[73.4105,21.7383],[73.4871,21.6974],[73.5417,21.7472],[73.6581,21.7809],[73.8295,21.7838],[73.8069,21.8364],[73.9403,21.8709]]]},"properties":{"AC_NO":"148","AC_NAME":"Nandod (ST)","PC_NO":"21","PC_NAME":"CHHOTA UDAIPUR(ST)","district":"NARMADA"}},{"type":"Feature","geometry":{"type":"Polygon","coordinates":[[[71.0514,21.8243],[71.0474,21.7558],[70.8314,21.7434],[70.7938,21.6663],[70.876,21.5771],[70.9822,21.5648],[71.0496,21.4747],[71.1578,21.4434],[71.268,21.4519],[71.3049,21.5985],[71.2802,21.7496],[71.0818,21.8243],[71.0514,21.8243]]]},"properties":{"AC_NO":"95","AC_NAME":"Amreli","PC_NO":"14","PC_NAME":"AMRELI","district":"AMRELI"}},{"type":"Feature","geometry":{"type":"MultiPolygon","coordinates":[[[[72.5936,21.5783],[72.6254,21.5206],[72.7954,21.6423],[72.6161,21.626],[72.5936,21.5783]]],[[[72.9982,21.9172],[72.9474,21.8804],[72.7842,21.8847],[72.7033,21.918],[72.6132,21.8419],[72.6,21.6637],[72.7338,21.6719],[72.8208,21.6474],[72.9657,21.6709],[73.064,21.7143],[73.1707,21.7823],[73.1408,21.8648],[72.9982,21.9172]]]]},"properties":{"AC_NO":"151","AC_NAME":"Vagra","PC_NO":"22","PC_NAME":"BHARUCH","district":"BHARUCH"}},{"type":"Feature","geometry":{"type":"Polygon","coordinates":[[[73.1408,21.8648],[73.1707,21.7823],[73.064,21.7143],[73.0578,21.5972],[73.0552,21.5689],[73.0783,21.5049],[73.399,21.5086],[73.4527,21.5277],[73.4871,21.6974],[73.4105,21.7383],[73.3041,21.8872],[73.2011,21.8224],[73.1408,21.8648]]]},"properties":{"AC_NO":"152","AC_NAME":"Jhagadia (ST)","PC_NO":"22","PC_NAME":"BHARUCH","district":"BHARUCH"}},{"type":"Feature","geometry":{"type":"Polygon","coordinates":[[[70.1483,21.6645],[69.9904,21.5792],[70.0304,21.4348],[70.099,21.3873],[70.2854,21.4108],[70.4029,21.2458],[70.5006,21.1916],[70.5584,21.288],[70.4559,21.4556],[70.412,21.5469],[70.3009,21.5814],[70.1483,21.6645]]]},"properties":{"AC_NO":"85","AC_NAME":"Manavadar","PC_NO":"11","PC_NAME":"PORBANDAR","district":"JUNAGADH"}},{"type":"Feature","geometry":{"type":"Polygon","coordinates":[[[72.0737,21.7926],[72.0854,21.7206],[72.2183,21.7356],[72.1748,21.8049],[72.0737,21.7926]]]},"properties":{"AC_NO":"104","AC_NAME":"Bhavnagar East","PC_NO":"15","PC_NAME":"BHAVNAGAR","district":"BHAVNAGAR"}},{"type":"Feature","geometry":{"type":"Polygon","coordinates":[[[71.8513,21.736],[71.7842,21.7766],[71.6713,21.7044],[71.7038,21.4381],[71.6799,21.3363],[71.8652,21.4159],[72.0571,21.5354],[72.0306,21.6326],[71.9584,21.6367],[71.8513,21.736]]]},"properties":{"AC_NO":"102","AC_NAME":"Palitana","PC_NO":"15","PC_NAME":"BHAVNAGAR","district":"BHAVNAGAR"}},{"type":"Feature","geometry":{"type":"Polygon","coordinates":[[[70.4568,21.6493],[70.3009,21.5814],[70.412,21.5469],[70.4559,21.4556],[70.4568,21.6493]]]},"properties":{"AC_NO":"86","AC_NAME":"Junagadh","PC_NO":"13","PC_NAME":"JUNAGADH","district":"JUNAGADH"}},{"type":"Feature","geometry":{"type":"Polygon","coordinates":[[[70.9688,20.7291],[70.9575,20.8852],[70.8824,20.9039],[70.8232,21.0246],[70.736,20.9769],[70.6547,20.8467],[70.6578,20.7848],[70.7428,20.7199],[70.8736,20.7042],[70.9688,20.7291]]]},"properties":{"AC_NO":"92","AC_NAME":"Kodinar (SC)","PC_NO":"13","PC_NAME":"JUNAGADH","district":"GIR SOMNATH"}},{"type":"Feature","geometry":{"type":"Polygon","coordinates":[[[70.7938,21.6663],[70.7011,21.6044],[70.5363,21.6731],[70.4568,21.6493],[70.4559,21.4556],[70.5584,21.288],[70.7093,21.2485],[70.7406,21.1876],[70.8502,21.1247],[70.8533,21.1683],[70.8042,21.2331],[70.8904,21.2682],[70.8318,21.4564],[70.876,21.5771],[70.7938,21.6663]]]},"properties":{"AC_NO":"87","AC_NAME":"Visavadar","PC_NO":"13","PC_NAME":"JUNAGADH","district":"JUNAGADH"}},{"type":"Feature","geometry":{"type":"Polygon","coordinates":[[[71.5927,21.6984],[71.5461,21.5588],[71.5032,21.5458],[71.478,21.4809],[71.6117,21.4422],[71.6145,21.326],[71.5313,21.2901],[71.518,21.1731],[71.5591,21.1591],[71.7835,21.2203],[71.9319,21.2253],[71.8619,21.3238],[71.8652,21.4159],[71.6799,21.3363],[71.7038,21.4381],[71.6713,21.7044],[71.5927,21.6984]]]},"properties":{"AC_NO":"101","AC_NAME":"Gariadhar","PC_NO":"14","PC_NAME":"AMRELI","district":"BHAVNAGAR"}},{"type":"Feature","geometry":{"type":"Polygon","coordinates":[[[70.0304,21.4348],[69.942,21.3723],[70.0125,21.2775],[69.9811,21.2284],[70.0677,21.1377],[70.1123,21.172],[70.4029,21.2458],[70.2854,21.4108],[70.099,21.3873],[70.0304,21.4348]]]},"properties":{"AC_NO":"88","AC_NAME":"Keshod","PC_NO":"11","PC_NAME":"PORBANDAR","district":"JUNAGADH"}},{"type":"Feature","geometry":{"type":"Polygon","coordinates":[[[70.876,21.5771],[70.8318,21.4564],[70.8904,21.2682],[70.8042,21.2331],[70.8533,21.1683],[71.0052,21.1661],[71.1265,21.0746],[71.3296,21.083],[71.232,21.1831],[71.2468,21.426],[71.268,21.4519],[71.1578,21.4434],[71.0496,21.4747],[70.9822,21.5648],[70.876,21.5771]]]},"properties":{"AC_NO":"94","AC_NAME":"Dhari","PC_NO":"14","PC_NAME":"AMRELI","district":"AMRELI"}},{"type":"Feature","geometry":{"type":"Polygon","coordinates":[[[71.5032,21.5458],[71.497,21.6511],[71.4114,21.6075],[71.3049,21.5985],[71.268,21.4519],[71.2468,21.426],[71.232,21.1831],[71.3296,21.083],[71.518,21.1731],[71.5313,21.2901],[71.6145,21.326],[71.6117,21.4422],[71.478,21.4809],[71.5032,21.5458]]]},"properties":{"AC_NO":"97","AC_NAME":"Savarkundla","PC_NO":"14","PC_NAME":"AMRELI","district":"AMRELI"}},{"type":"Feature","geometry":{"type":"Polygon","coordinates":[[[73.8295,21.7838],[73.6581,21.7809],[73.5417,21.7472],[73.4871,21.6974],[73.4527,21.5277],[73.5549,21.4745],[73.6758,21.4728],[73.6992,21.3964],[73.8195,21.4019],[73.9715,21.4617],[73.9823,21.5222],[73.8531,21.4975],[73.8142,21.6009],[73.8948,21.676],[73.8295,21.7838]]]},"properties":{"AC_NO":"149","AC_NAME":"Dediapada(ST)","PC_NO":"22","PC_NAME":"BHARUCH","district":"NARMADA"}},{"type":"Feature","geometry":{"type":"Polygon","coordinates":[[[72.8493,20.7486],[72.8997,20.5823],[72.8844,20.5319],[72.9891,20.52],[72.9768,20.7022],[73.0192,20.7108],[72.8493,20.7486]]]},"properties":{"AC_NO":"179","AC_NAME":"Valsad","PC_NO":"26","PC_NAME":"VALSAD (ST)","district":"VALSAD"}},{"type":"Feature","geometry":{"type":"Polygon","coordinates":[[[72.0571,21.5354],[71.8652,21.4159],[71.8619,21.3238],[71.9319,21.2253],[71.9789,21.1541],[72.1174,21.2029],[72.1214,21.2948],[72.2555,21.4983],[72.1364,21.4356],[72.0571,21.5354]]]},"properties":{"AC_NO":"100","AC_NAME":"Talaja","PC_NO":"15","PC_NAME":"BHAVNAGAR","district":"BHAVNAGAR"}},{"type":"Feature","geometry":{"type":"Polygon","coordinates":[[[73.0552,21.5689],[72.9414,21.5121],[72.9103,21.4325],[72.948,21.3503],[73.0194,21.354],[73.1813,21.3844],[73.2782,21.3754],[73.388,21.4437],[73.4553,21.384],[73.5885,21.3655],[73.6992,21.3964],[73.6758,21.4728],[73.5549,21.4745],[73.4527,21.5277],[73.399,21.5086],[73.0783,21.5049],[73.0552,21.5689]]]},"properties":{"AC_NO":"156","AC_NAME":"Mangrol (ST)","PC_NO":"23","PC_NAME":"BARDOLI (ST)","district":"SURAT"}},{"type":"Feature","geometry":{"type":"Polygon","coordinates":[[[70.5584,21.288],[70.5006,21.1916],[70.4451,21.0402],[70.5569,20.9386],[70.4056,20.8835],[70.5858,20.7824],[70.6578,20.7848],[70.6547,20.8467],[70.736,20.9769],[70.8502,21.1247],[70.7406,21.1876],[70.7093,21.2485],[70.5584,21.288]]]},"properties":{"AC_NO":"91","AC_NAME":"Talala","PC_NO":"13","PC_NAME":"JUNAGADH","district":"GIR SOMNATH"}},{"type":"Feature","geometry":{"type":"Polygon","coordinates":[[[73.7374,21.0801],[73.6442,21.1399],[73.816,21.1739],[73.827,21.2674],[73.9428,21.2999],[73.9441,21.3999],[74.1605,21.4685],[74.3209,21.4985],[74.2767,21.5621],[74.176,21.5687],[73.9823,21.5222],[73.9715,21.4617],[73.8195,21.4019],[73.7056,21.3069],[73.6753,21.2119],[73.5962,21.2177],[73.4547,21.1332],[73.4505,21.0702],[73.5768,21.0075],[73.7526,21.0059],[73.8882,20.9335],[73.8507,20.9981],[73.7374,21.0801]]]},"properties":{"AC_NO":"172","AC_NAME":"Nizar (ST)","PC_NO":"23","PC_NAME":"BARDOLI (ST)","district":"TAPI"}},{"type":"Feature","geometry":{"type":"Polygon","coordinates":[[[72.9103,21.4325],[72.7866,21.4221],[72.71,21.4107],[72.6508,21.2561],[72.6877,21.1881],[72.7848,21.2066],[72.8208,21.26],[72.8502,21.2386],[72.8968,21.2409],[72.948,21.3503],[72.9103,21.4325]]]},"properties":{"AC_NO":"155","AC_NAME":"Olpad","PC_NO":"24","PC_NAME":"SURAT","district":"SURAT"}},{"type":"Feature","geometry":{"type":"Polygon","coordinates":[[[73.6992,21.3964],[73.5885,21.3655],[73.4553,21.384],[73.388,21.4437],[73.2782,21.3754],[73.1813,21.3844],[73.0194,21.354],[73.1565,21.228],[73.2334,21.2316],[73.3076,21.1998],[73.3663,21.2222],[73.4547,21.1332],[73.5962,21.2177],[73.6753,21.2119],[73.7056,21.3069],[73.8195,21.4019],[73.6992,21.3964]]]},"properties":{"AC_NO":"157","AC_NAME":"Mandvi (ST)","PC_NO":"23","PC_NAME":"BARDOLI (ST)","district":"TAPI"}},{"type":"Feature","geometry":{"type":"Polygon","coordinates":[[[70.5006,21.1916],[70.4029,21.2458],[70.1123,21.172],[70.0677,21.1377],[70.2254,21.0005],[70.3994,21.0565],[70.4451,21.0402],[70.5006,21.1916]]]},"properties":{"AC_NO":"89","AC_NAME":"Mangrol","PC_NO":"13","PC_NAME":"JUNAGADH","district":"JUNAGADH"}},{"type":"Feature","geometry":{"type":"Polygon","coordinates":[[[72.948,21.3503],[72.8968,21.2409],[72.8677,21.2111],[72.8666,21.2024],[72.8659,21.1885],[72.8798,21.1876],[73.0181,21.1644],[73.1565,21.228],[73.0194,21.354],[72.948,21.3503]]]},"properties":{"AC_NO":"158","AC_NAME":"Kamrej","PC_NO":"23","PC_NAME":"BARDOLI (ST)","district":"SURAT"}},{"type":"Feature","geometry":{"type":"Polygon","coordinates":[[[70.8533,21.1683],[70.8502,21.1247],[70.736,20.9769],[70.8232,21.0246],[70.8824,20.9039],[70.9575,20.8852],[70.9688,20.7291],[71.0801,20.7384],[71.2042,20.7951],[71.1934,20.902],[71.1214,20.9656],[71.1265,21.0746],[71.0052,21.1661],[70.8533,21.1683]]]},"properties":{"AC_NO":"93","AC_NAME":"Una","PC_NO":"13","PC_NAME":"JUNAGADH","district":"JUNAGADH"}},{"type":"Feature","geometry":{"type":"Polygon","coordinates":[[[71.9319,21.2253],[71.7835,21.2203],[71.5591,21.1591],[71.6064,21.1309],[71.6775,20.9962],[71.9401,21.1146],[71.9789,21.1541],[71.9319,21.2253]]]},"properties":{"AC_NO":"99","AC_NAME":"Mahuva","PC_NO":"14","PC_NAME":"AMRELI","district":"BHAVNAGAR"}},{"type":"Feature","geometry":{"type":"Polygon","coordinates":[[[71.518,21.1731],[71.3296,21.083],[71.1265,21.0746],[71.1214,20.9656],[71.1934,20.902],[71.2042,20.7951],[71.4374,20.8693],[71.5114,20.9444],[71.6775,20.9962],[71.6064,21.1309],[71.5591,21.1591],[71.518,21.1731]]]},"properties":{"AC_NO":"98","AC_NAME":"Rajula","PC_NO":"14","PC_NAME":"AMRELI","district":"AMRELI"}},{"type":"Feature","geometry":{"type":"Polygon","coordinates":[[[73.4547,21.1332],[73.3663,21.2222],[73.3076,21.1998],[73.3394,21.0384],[73.3171,20.88],[73.3816,20.8239],[73.4964,20.8196],[73.4896,20.9138],[73.5768,21.0075],[73.4505,21.0702],[73.4547,21.1332]]]},"properties":{"AC_NO":"171","AC_NAME":"Vyara (ST)","PC_NO":"23","PC_NAME":"BARDOLI (ST)","district":"TAPI"}},{"type":"Feature","geometry":{"type":"Polygon","coordinates":[[[73.0518,20.9907],[73.0187,21.0497],[72.8891,21.0497],[72.6969,21.0622],[72.8398,20.8037],[72.9132,20.8163],[72.9675,20.9302],[73.0909,20.9395],[73.0518,20.9907]]]},"properties":{"AC_NO":"174","AC_NAME":"Jalalpore","PC_NO":"25","PC_NAME":"NAVSARI","district":"NAVSARI"}},{"type":"Feature","geometry":{"type":"Polygon","coordinates":[[[73.0909,20.9395],[72.9675,20.9302],[72.9132,20.8163],[72.8398,20.8037],[72.8425,20.7778],[72.9491,20.8192],[73.0518,20.8151],[73.1256,20.8985],[73.0909,20.9395]]]},"properties":{"AC_NO":"175","AC_NAME":"Navsari","PC_NO":"25","PC_NAME":"NAVSARI","district":"NAVSARI"}},{"type":"Feature","geometry":{"type":"Polygon","coordinates":[[[73.5768,21.0075],[73.4896,20.9138],[73.4964,20.8196],[73.4664,20.7219],[73.5996,20.637],[73.6283,20.5833],[73.761,20.5739],[73.8308,20.675],[73.9317,20.7604],[73.9403,20.8397],[73.8882,20.9335],[73.7526,21.0059],[73.5768,21.0075]]]},"properties":{"AC_NO":"173","AC_NAME":"Dangs (ST)","PC_NO":"26","PC_NAME":"VALSAD (ST)","district":"DANGS"}},{"type":"Feature","geometry":{"type":"Polygon","coordinates":[[[73.1256,20.8985],[73.0518,20.8151],[72.9491,20.8192],[72.8425,20.7778],[72.8493,20.7486],[73.0192,20.7108],[73.155,20.6059],[73.117,20.681],[73.1079,20.8039],[73.1618,20.9022],[73.1256,20.8985]]]},"properties":{"AC_NO":"176","AC_NAME":"Gandevi (ST)","PC_NO":"25","PC_NAME":"NAVSARI","district":"NAVSARI"}},{"type":"Feature","geometry":{"type":"Polygon","coordinates":[[[73.0192,20.7108],[72.9768,20.7022],[72.9891,20.52],[73.0724,20.4743],[73.2084,20.4445],[73.2833,20.3874],[73.3803,20.3869],[73.4673,20.4965],[73.473,20.5848],[73.4072,20.6242],[73.259,20.5798],[73.155,20.6059],[73.0192,20.7108]]]},"properties":{"AC_NO":"178","AC_NAME":"Dharampur","PC_NO":"26","PC_NAME":"VALSAD (ST)","district":"VALSAD"}},{"type":"Feature","geometry":{"type":"Polygon","coordinates":[[[72.9891,20.52],[72.8844,20.5319],[72.8818,20.3717],[72.9765,20.3316],[72.9403,20.3878],[72.9889,20.4811],[73.0724,20.4743],[72.9891,20.52]]]},"properties":{"AC_NO":"180","AC_NAME":"Pardi","PC_NO":"26","PC_NAME":"VALSAD (ST)","district":"VALSAD"}},{"type":"Feature","geometry":{"type":"Polygon","coordinates":[[[73.0724,20.4743],[72.9889,20.4811],[72.9403,20.3878],[72.9765,20.3316],[72.9801,20.2885],[73.0958,20.3614],[73.1651,20.2839],[73.0488,20.2006],[73.2029,20.1198],[73.2833,20.1986],[73.4209,20.207],[73.4277,20.2804],[73.3803,20.3869],[73.2833,20.3874],[73.2084,20.4445],[73.0724,20.4743]]]},"properties":{"AC_NO":"181","AC_NAME":"Kaprada (ST)","PC_NO":"26","PC_NAME":"VALSAD (ST)","district":"VALSAD"}},{"type":"Feature","geometry":{"type":"Polygon","coordinates":[[[72.9801,20.2885],[72.9765,20.3316],[72.8818,20.3717],[72.7775,20.3368],[72.7402,20.2432],[72.7753,20.1318],[72.9366,20.2934],[72.9801,20.2885]]]},"properties":{"AC_NO":"182","AC_NAME":"Umbergaon","PC_NO":"26","PC_NAME":"VALSAD (ST)","district":"VALSAD"}}]}