{"type":"FeatureCollection", "features": [
{"type":"Feature","geometry":{"type":"Polygon","coordinates":[[[72.4449,23.0471],[72.3343,23.1082],[72.1892,23.1069],[72.168,23.1974],[72.2089,23.3136],[72.2981,23.4166],[72.0876,23.4592],[71.9984,23.4989],[71.9562,23.3878],[71.8705,23.3817],[71.8727,23.2791],[71.9182,23.0664],[72.0156,23.0578],[71.99,22.882],[72.0529,22.7975],[72.0646,22.6044],[72.1636,22.5736],[72.164,22.4794],[72.0903,22.4358],[72.0331,22.5067],[71.9131,22.5256],[71.9021,22.4234],[71.7892,22.3891],[71.6262,22.3831],[71.6143,22.3398],[71.63,22.2279],[71.8628,22.0994],[71.899,22.1047],[72.0196,22.1047],[72.1234,22.0572],[72.1753,21.9908],[72.2751,22.1522],[72.2583,22.2733],[72.2928,22.3889],[72.3422,22.3858],[72.3564,22.4405],[72.4273,22.4917],[72.5057,22.6134],[72.5366,22.7163],[72.5399,22.8059],[72.6084,22.8861],[72.7915,22.9079],[72.8403,22.9768],[72.8407,22.9967],[72.744,23.0995],[72.687,23.1024],[72.6037,23.0884],[72.5611,23.109],[72.5373,23.166],[72.4449,23.0471]]]},"properties":{"district":"AHMADABAD"}},
{"type":"Feature","geometry":{"type":"Polygon","coordinates":[[[70.6185,22.8791],[70.5458,22.9237],[70.4637,22.8326],[70.3762,22.7866],[70.2616,22.7087],[70.2565,22.656],[70.1388,22.5495],[69.9767,22.5429],[69.8064,22.3846],[69.7408,22.4179],[69.7287,22.3122],[69.8055,22.2086],[69.8122,22.0461],[69.8875,21.9935],[69.8948,21.8399],[69.8133,21.8241],[69.863,21.7694],[69.9921,21.807],[70.0787,21.7326],[70.0511,21.7745],[70.1408,21.8903],[70.2172,21.9059],[70.2576,21.9947],[70.3016,21.9984],[70.3504,22.0515],[70.4908,22.0554],[70.5264,22.0013],[70.5639,22.0381],[70.5876,22.1668],[70.5081,22.2721],[70.4924,22.4113],[70.5862,22.4895],[70.5502,22.5666],[70.645,22.7039],[70.6139,22.7633],[70.6635,22.8312],[70.6185,22.8791]]]},"properties":{"district":"JAMNAGAR"}},
{"type":"Feature","geometry":{"type":"Polygon","coordinates":[[[73.4169,22.7845],[73.3502,22.7923],[73.255,22.7605],[73.2694,22.6673],[73.2201,22.6262],[73.1462,22.5419],[73.092,22.5104],[73.0677,22.4117],[73.0527,22.3416],[72.9478,22.2958],[72.8495,22.2748],[72.905,22.0677],[72.9849,22.0472],[73.0492,21.976],[72.9982,21.9172],[73.1408,21.8648],[73.2011,21.8224],[73.3041,21.8872],[73.4026,21.9106],[73.4397,21.9628],[73.5254,22.0509],[73.49,22.2339],[73.5664,22.3284],[73.4646,22.3603],[73.4065,22.5063],[73.4196,22.5472],[73.3721,22.5561],[73.3889,22.6988],[73.4169,22.7845]]]},"properties":{"district":"VADODARA"}},
{"type":"Feature","geometry":{"type":"Polygon","coordinates":[[[72.0808,21.8134],[72.1819,21.8442],[72.1753,21.9908],[72.1234,22.0572],[72.0196,22.1047],[71.899,22.1047],[71.8656,22.0116],[71.7468,22.0192],[71.6717,21.9328],[71.5852,22.0112],[71.475,22.0381],[71.3928,21.9801],[71.4604,21.9082],[71.4568,21.8249],[71.5927,21.6984],[71.5461,21.5588],[71.5032,21.5458],[71.478,21.4809],[71.6117,21.4422],[71.6145,21.326],[71.5313,21.2901],[71.518,21.1731],[71.5591,21.1591],[71.6064,21.1309],[71.6775,20.9962],[71.9401,21.1146],[71.9789,21.1541],[72.1174,21.2029],[72.1214,21.2948],[72.2555,21.4983],[72.2998,21.6168],[72.2183,21.7356],[72.1748,21.8049],[72.0737,21.7926],[72.0808,21.8134]]]},"properties":{"district":"BHAVNAGAR"}},
{"type":"Feature","geometry":{"type":"Polygon","coordinates":[[[73.1618,20.9022],[73.1256,20.8985],[73.0909,20.9395],[73.0518,20.9907],[73.0187,21.0497],[72.8891,21.0497],[72.6969,21.0622],[72.8398,20.8037],[72.8425,20.7778],[72.8493,20.7486],[73.0192,20.7108],[73.155,20.6059],[73.259,20.5798],[73.4072,20.6242],[73.4664,20.7219],[73.4964,20.8196],[73.3816,20.8239],[73.3171,20.88],[73.2539,20.8198],[73.1618,20.9022]]]},"properties":{"district":"NAVSARI"}},
{"type":"Feature","geometry":{"type":"Polygon","coordinates":[[[70.6949,22.3143],[70.6967,22.2951],[70.5081,22.2721],[70.5876,22.1668],[70.5639,22.0381],[70.5264,22.0013],[70.4908,22.0554],[70.3504,22.0515],[70.3016,21.9984],[70.2576,21.9947],[70.2172,21.9059],[70.1408,21.8903],[70.0511,21.7745],[70.0787,21.7326],[70.1483,21.6645],[70.3009,21.5814],[70.4568,21.6493],[70.5363,21.6731],[70.7011,21.6044],[70.7938,21.6663],[70.8314,21.7434],[71.0474,21.7558],[71.0514,21.8243],[71.0818,21.8243],[71.0304,21.8742],[71.3049,22.042],[71.3928,21.9801],[71.475,22.0381],[71.5127,22.057],[71.4862,22.1862],[71.4376,22.2612],[71.3106,22.2795],[71.1589,22.165],[71.0796,22.2631],[71.0189,22.2291],[70.8612,22.2861],[70.8522,22.3056],[70.8,22.3408],[70.7256,22.3256],[70.6949,22.3143]]]},"properties":{"district":"RAJKOT"}},
{"type":"Feature","geometry":{"type":"Polygon","coordinates":[[[72.2038,24.1488],[72.2535,24.0818],[72.3707,23.9811],[72.4829,23.934],[72.5839,23.936],[72.6501,24.08],[72.7824,24.1018],[72.8661,24.0248],[72.8997,24.0259],[73.028,24.2737],[72.9595,24.361],[72.7245,24.3672],[72.6556,24.4622],[72.5392,24.5192],[72.4575,24.4155],[72.3537,24.5634],[72.2954,24.5465],[72.2318,24.6405],[72.1649,24.621],[72.0582,24.7123],[71.8491,24.6113],[71.8031,24.6715],[71.6556,24.6391],[71.5101,24.6798],[71.3776,24.6255],[71.2791,24.5249],[71.3341,24.4799],[71.3831,24.3501],[71.2744,24.2576],[71.3272,24.1663],[71.319,23.9837],[71.4458,23.9422],[71.488,23.9743],[71.6335,23.9541],[71.776,23.8394],[71.9721,23.8883],[71.9615,23.9909],[72.0673,24.0343],[72.1327,24.0526],[72.2038,24.1488]]]},"properties":{"district":"BANAS KANTHA"}},
{"type":"Feature","geometry":{"type":"MultiPolygon","coordinates":[[[[69.1458,23.7298],[69.0454,23.7142],[68.9762,23.7822],[68.8444,23.8342],[68.72,23.839],[68.6257,23.7434],[68.5509,23.7234],[68.4797,23.547],[68.5151,23.4508],[68.6094,23.4086],[68.7214,23.2589],[68.6469,23.2145],[68.8033,23.0636],[69.0195,22.9503],[69.1222,22.8806],[69.268,22.825],[69.4321,22.803],[69.6094,22.816],[69.7108,22.7812],[69.8007,22.8509],[69.9789,22.9024],[70.09,22.9305],[70.1134,22.9846],[70.2243,23.1608],[70.3022,23.2085],[70.4244,23.2165],[70.579,23.1775],[70.7004,23.2161],[70.8685,23.381],[71.0971,23.4841],[71.001,23.6124],[70.9882,23.6767],[70.8424,23.7736],[70.9204,23.8351],[70.8539,23.8965],[70.6174,23.9574],[70.5394,23.905],[70.6286,23.761],[70.484,23.7672],[70.4948,23.7028],[70.4361,23.643],[70.2907,23.562],[70.2618,23.5044],[70.2282,23.4088],[70.2159,23.4084],[70.1677,23.4216],[69.9983,23.4728],[70.0235,23.5603],[69.9018,23.685],[69.9542,23.7506],[69.8925,23.871],[69.8466,23.8762],[69.7353,23.9782],[69.6911,23.9387],[69.6843,23.7767],[69.6213,23.7532],[69.5295,23.8217],[69.3501,23.7723],[69.2523,23.8207],[69.141,23.7834],[69.1458,23.7298]],[[69.5867,23.4631],[69.5796,23.5817],[69.4581,23.5153],[69.3373,23.5258],[69.2742,23.5934],[69.1816,23.63],[69.4212,23.6118],[69.6308,23.6333],[69.6337,23.5692],[69.7978,23.5497],[69.8049,23.475],[69.6604,23.5026],[69.5867,23.4631]]],[[[70.1777,23.899],[70.2015,23.853],[70.3532,23.7853],[70.4573,23.8947],[70.4252,23.9327],[70.1777,23.899]]]]},"properties":{"district":"KACHCHH"}},
{"type":"Feature","geometry":{"type":"Polygon","coordinates":[[[72.8661,24.0248],[72.7824,24.1018],[72.6501,24.08],[72.5839,23.936],[72.4829,23.934],[72.4699,23.8937],[72.4129,23.9041],[72.2888,23.8527],[72.2835,23.7113],[72.28,23.7133],[72.2833,23.613],[72.1927,23.6325],[72.1132,23.6019],[72.0125,23.6319],[71.9686,23.5268],[71.9984,23.4989],[72.0876,23.4592],[72.2981,23.4166],[72.2089,23.3136],[72.168,23.1974],[72.1892,23.1069],[72.3343,23.1082],[72.4149,23.131],[72.4103,23.2803],[72.5231,23.3611],[72.507,23.3897],[72.5898,23.4947],[72.6366,23.5418],[72.7987,23.504],[72.8312,23.5459],[72.8047,23.7306],[72.808,23.7892],[72.8195,23.9502],[72.8661,24.0248]]]},"properties":{"district":"MAHESANA"}},
{"type":"Feature","geometry":{"type":"Polygon","coordinates":[[[72.7987,23.504],[72.6366,23.5418],[72.5898,23.4947],[72.507,23.3897],[72.5231,23.3611],[72.4103,23.2803],[72.4149,23.131],[72.3343,23.1082],[72.4449,23.0471],[72.5373,23.166],[72.5611,23.109],[72.6037,23.0884],[72.687,23.1024],[72.744,23.0995],[72.8407,22.9967],[73.0167,23.1604],[73.0147,23.2778],[72.9156,23.3228],[72.81,23.3187],[72.7234,23.3884],[72.8074,23.4407],[72.7987,23.504]]]},"properties":{"district":"GANDHINAGAR"}},
{"type":"Feature","geometry":{"type":"Polygon","coordinates":[[[72.7897,21.1841],[72.7036,21.1344],[72.6969,21.0622],[72.8891,21.0497],[73.0187,21.0497],[73.0518,20.9907],[73.2279,21.1747],[73.2334,21.2316],[73.1565,21.228],[73.0194,21.354],[73.1813,21.3844],[73.2782,21.3754],[73.388,21.4437],[73.4553,21.384],[73.5885,21.3655],[73.6992,21.3964],[73.6758,21.4728],[73.5549,21.4745],[73.4527,21.5277],[73.399,21.5086],[73.0783,21.5049],[73.0552,21.5689],[72.9414,21.5121],[72.9103,21.4325],[72.7866,21.4221],[72.71,21.4107],[72.6508,21.2561],[72.6877,21.1881],[72.7848,21.2066],[72.7897,21.1841]]]},"properties":{"district":"SURAT"}},
{"type":"Feature","geometry":{"type":"Polygon","coordinates":[[[73.6274,23.4485],[73.5943,23.3788],[73.5258,23.2856],[73.4143,23.2655],[73.3261,23.0819],[73.2413,23.0705],[73.155,23.1598],[73.1046,23.1115],[73.0916,22.8865],[73.0947,22.8865],[73.1846,22.8884],[73.3105,22.9402],[73.4174,22.939],[73.4361,22.9961],[73.5943,22.9904],[73.6707,23.0983],[73.7171,23.1662],[73.9448,23.1069],[73.9991,23.3356],[73.8935,23.3331],[73.8301,23.4261],[73.7206,23.4104],[73.6274,23.4485]]]},"properties":{"district":"MAHISAGAR"}},
{"type":"Feature","geometry":{"type":"Polygon","coordinates":[[[73.0167,23.1604],[72.8407,22.9967],[72.8403,22.9768],[72.7915,22.9079],[72.6084,22.8861],[72.5399,22.8059],[72.5366,22.7163],[72.5057,22.6134],[72.5752,22.5041],[72.6514,22.5008],[72.6837,22.6285],[72.7703,22.6363],[72.8222,22.6069],[72.8677,22.5824],[72.9185,22.5951],[72.9288,22.6268],[73.0481,22.7167],[73.1367,22.7173],[73.2201,22.6262],[73.2694,22.6673],[73.255,22.7605],[73.3502,22.7923],[73.4174,22.939],[73.3105,22.9402],[73.1846,22.8884],[73.0947,22.8865],[73.0916,22.8865],[73.1046,23.1115],[73.155,23.1598],[73.0167,23.1604]]]},"properties":{"district":"KHEDA"}},
{"type":"Feature","geometry":{"type":"Polygon","coordinates":[[[73.6707,23.0983],[73.5943,22.9904],[73.4361,22.9961],[73.4174,22.939],[73.3502,22.7923],[73.4169,22.7845],[73.3889,22.6988],[73.3721,22.5561],[73.4196,22.5472],[73.4065,22.5063],[73.4646,22.3603],[73.5664,22.3284],[73.725,22.2914],[73.7508,22.3457],[73.723,22.4598],[73.7495,22.5419],[73.8092,22.5489],[73.8683,22.5701],[73.8052,22.6943],[73.8705,22.8468],[73.9077,23.0093],[73.9448,23.1069],[73.7171,23.1662],[73.6707,23.0983]]]},"properties":{"district":"PANCH MAHALS"}},
{"type":"Feature","geometry":{"type":"Polygon","coordinates":[[[74.1208,23.1771],[74.1325,23.2661],[73.9991,23.3356],[73.9448,23.1069],[73.9077,23.0093],[73.8705,22.8468],[73.8052,22.6943],[73.8683,22.5701],[73.8092,22.5489],[73.9063,22.5076],[74.0176,22.574],[74.0614,22.5497],[74.0932,22.5405],[74.1892,22.5534],[74.2771,22.6459],[74.379,22.6346],[74.4015,22.7304],[74.466,22.8224],[74.4611,22.906],[74.3772,22.9077],[74.3383,22.963],[74.2674,23.1583],[74.1208,23.1771]]]},"properties":{"district":"DAHOD"}},
{"type":"Feature","geometry":{"type":"Polygon","coordinates":[[[70.7256,22.3256],[70.8,22.3408],[70.8522,22.3056],[70.8612,22.2861],[71.0189,22.2291],[71.0796,22.2631],[71.0127,22.3579],[71.1642,22.4841],[71.0966,22.6184],[71.1622,22.6827],[71.1196,22.7572],[70.997,22.789],[70.9968,22.9225],[70.9542,23.0011],[71.0452,23.1693],[70.8362,23.1121],[70.7486,23.146],[70.5608,23.0288],[70.5458,22.9237],[70.6185,22.8791],[70.6635,22.8312],[70.6139,22.7633],[70.645,22.7039],[70.5502,22.5666],[70.5862,22.4895],[70.4924,22.4113],[70.5081,22.2721],[70.6967,22.2951],[70.6949,22.3143],[70.7256,22.3256]]]},"properties":{"district":"MORBI"}},
{"type":"Feature","geometry":{"type":"Polygon","coordinates":[[[72.8677,22.5824],[72.8222,22.6069],[72.7703,22.6363],[72.6837,22.6285],[72.6514,22.5008],[72.5752,22.5041],[72.5057,22.6134],[72.4273,22.4917],[72.3564,22.4405],[72.3422,22.3858],[72.4014,22.3591],[72.3345,22.1923],[72.3933,22.1053],[72.5746,22.2324],[72.6605,22.2238],[72.8016,22.2489],[72.8495,22.2748],[72.9478,22.2958],[73.0527,22.3416],[73.0677,22.4117],[73.092,22.5104],[73.1462,22.5419],[73.2201,22.6262],[73.1367,22.7173],[73.0481,22.7167],[72.9288,22.6268],[72.9185,22.5951],[72.8677,22.5824]]]},"properties":{"district":"ANAND"}},
{"type":"Feature","geometry":{"type":"MultiPolygon","coordinates":[[[[72.8495,22.2748],[72.8016,22.2489],[72.6605,22.2238],[72.5887,22.2055],[72.5392,22.0634],[72.5646,21.9277],[72.7033,21.918],[72.6132,21.8419],[72.6,21.6637],[72.7338,21.6719],[72.8208,21.6474],[72.9657,21.6709],[72.9745,21.6698],[72.8577,21.6201],[72.7243,21.5006],[72.7866,21.4221],[72.9103,21.4325],[72.9414,21.5121],[73.0552,21.5689],[73.0783,21.5049],[73.399,21.5086],[73.4527,21.5277],[73.4871,21.6974],[73.4105,21.7383],[73.3041,21.8872],[73.2011,21.8224],[73.1408,21.8648],[72.9982,21.9172],[73.0492,21.976],[72.9849,22.0472],[72.905,22.0677],[72.8495,22.2748]]],[[[72.5936,21.5783],[72.6254,21.5206],[72.7954,21.6423],[72.6161,21.626],[72.5936,21.5783]]]]},"properties":{"district":"BHARUCH"}},
{"type":"Feature","geometry":{"type":"Polygon","coordinates":[[[69.643,21.597],[69.9811,21.2284],[70.0125,21.2775],[69.942,21.3723],[70.0304,21.4348],[69.9904,21.5792],[70.1483,21.6645],[70.0787,21.7326],[69.9921,21.807],[69.863,21.7694],[69.8133,21.8241],[69.7,21.8008],[69.6726,21.9038],[69.6103,21.9476],[69.372,21.8298],[69.643,21.597]]]},"properties":{"district":"PORBANDAR"}},
{"type":"Feature","geometry":{"type":"Polygon","coordinates":[[[70.4056,20.8835],[70.5858,20.7824],[70.6578,20.7848],[70.7428,20.7199],[70.8736,20.7042],[70.9688,20.7291],[70.9575,20.8852],[70.8824,20.9039],[70.8232,21.0246],[70.736,20.9769],[70.8502,21.1247],[70.7406,21.1876],[70.7093,21.2485],[70.5584,21.288],[70.5006,21.1916],[70.4451,21.0402],[70.3994,21.0565],[70.2254,21.0005],[70.4056,20.8835]]]},"properties":{"district":"GIR SOMNATH"}},
{"type":"Feature","geometry":{"type":"Polygon","coordinates":[[[72.8997,24.0259],[72.8661,24.0248],[72.8195,23.9502],[72.808,23.7892],[72.8047,23.7306],[72.8312,23.5459],[72.7987,23.504],[72.8074,23.4407],[72.7234,23.3884],[72.81,23.3187],[72.9156,23.3228],[73.0147,23.2778],[73.0684,23.2614],[73.1316,23.3782],[73.1603,23.4915],[73.2084,23.6113],[73.2557,23.6309],[73.2374,23.7096],[73.1488,23.7378],[73.2162,23.8965],[73.2888,23.8632],[73.3783,23.9039],[73.4151,23.9854],[73.3615,24.104],[73.2429,24.0022],[73.0658,24.1933],[73.1519,24.3539],[73.102,24.4316],[72.9918,24.4783],[72.9595,24.361],[73.028,24.2737],[72.8997,24.0259]]]},"properties":{"district":"SABAR KANTHA"}},
{"type":"Feature","geometry":{"type":"Polygon","coordinates":[[[72.0673,24.0343],[71.9615,23.9909],[71.9721,23.8883],[71.776,23.8394],[71.6335,23.9541],[71.488,23.9743],[71.4458,23.9422],[71.319,23.9837],[71.0973,23.9019],[71.056,23.7867],[71.0814,23.5984],[71.2219,23.6562],[71.3758,23.6496],[71.4482,23.5359],[71.5198,23.5279],[71.5341,23.4791],[71.6134,23.5013],[71.8637,23.4721],[71.9686,23.5268],[72.0125,23.6319],[72.1132,23.6019],[72.1927,23.6325],[72.2833,23.613],[72.28,23.7133],[72.2835,23.7113],[72.2888,23.8527],[72.4129,23.9041],[72.4699,23.8937],[72.4829,23.934],[72.3707,23.9811],[72.2535,24.0818],[72.2038,24.1488],[72.1327,24.0526],[72.0673,24.0343]]]},"properties":{"district":"PATAN"}},
{"type":"Feature","geometry":{"type":"Polygon","coordinates":[[[73.6274,23.4485],[73.6554,23.621],[73.4737,23.7055],[73.3679,23.8223],[73.3783,23.9039],[73.2888,23.8632],[73.2162,23.8965],[73.1488,23.7378],[73.2374,23.7096],[73.2557,23.6309],[73.2084,23.6113],[73.1603,23.4915],[73.1316,23.3782],[73.0684,23.2614],[73.0147,23.2778],[73.0167,23.1604],[73.155,23.1598],[73.2413,23.0705],[73.3261,23.0819],[73.4143,23.2655],[73.5258,23.2856],[73.5943,23.3788],[73.6274,23.4485]]]},"properties":{"district":"ARVALLI"}},
{"type":"Feature","geometry":{"type":"Polygon","coordinates":[[[71.5341,23.4791],[71.564,23.3736],[71.641,23.3387],[71.7627,23.1555],[71.7069,23.1164],[71.6262,23.1427],[71.4672,23.1396],[71.3502,23.1744],[71.2221,23.147],[71.1094,23.2221],[71.0452,23.1693],[70.9542,23.0011],[70.9968,22.9225],[70.997,22.789],[71.1196,22.7572],[71.1622,22.6827],[71.0966,22.6184],[71.1642,22.4841],[71.0127,22.3579],[71.0796,22.2631],[71.1589,22.165],[71.3106,22.2795],[71.4376,22.2612],[71.5306,22.3433],[71.6143,22.3398],[71.6262,22.3831],[71.7892,22.3891],[71.9021,22.4234],[71.9131,22.5256],[72.0331,22.5067],[72.0903,22.4358],[72.164,22.4794],[72.1636,22.5736],[72.0646,22.6044],[72.0529,22.7975],[71.99,22.882],[72.0156,23.0578],[71.9182,23.0664],[71.8727,23.2791],[71.8705,23.3817],[71.9562,23.3878],[71.9984,23.4989],[71.9686,23.5268],[71.8637,23.4721],[71.6134,23.5013],[71.5341,23.4791]]]},"properties":{"district":"SURENDRANAGAR"}},
{"type":"Feature","geometry":{"type":"Polygon","coordinates":[[[69.6103,21.9476],[69.6726,21.9038],[69.7,21.8008],[69.8133,21.8241],[69.8948,21.8399],[69.8875,21.9935],[69.8122,22.0461],[69.8055,22.2086],[69.7287,22.3122],[69.7408,22.4179],[69.6693,22.342],[69.4999,22.3636],[69.4506,22.2824],[69.3875,22.2754],[69.338,22.2992],[69.2417,22.2168],[69.131,22.1969],[69.1693,22.354],[69.0065,22.4395],[68.9365,22.3114],[68.9661,22.2341],[69.2821,21.8956],[69.372,21.8298],[69.6103,21.9476]]]},"properties":{"district":"DEVBHUMI DWARKA"}},
{"type":"Feature","geometry":{"type":"Polygon","coordinates":[[[73.8092,22.5489],[73.7495,22.5419],[73.723,22.4598],[73.7508,22.3457],[73.725,22.2914],[73.5664,22.3284],[73.49,22.2339],[73.5254,22.0509],[73.6621,22.0554],[73.8003,21.9295],[73.8546,21.9526],[73.9403,21.8709],[74.0179,21.9069],[74.1,21.999],[74.1287,22.0947],[74.1223,22.2121],[74.0751,22.2573],[74.0684,22.3605],[74.1892,22.32],[74.2526,22.4329],[74.1049,22.4294],[74.0614,22.5497],[74.0176,22.574],[73.9063,22.5076],[73.8092,22.5489]]]},"properties":{"district":"CHHOTAUDEPUR"}},
{"type":"Feature","geometry":{"type":"Polygon","coordinates":[[[71.4376,22.2612],[71.4862,22.1862],[71.5127,22.057],[71.475,22.0381],[71.5852,22.0112],[71.6717,21.9328],[71.7468,22.0192],[71.8656,22.0116],[71.899,22.1047],[71.8628,22.0994],[71.63,22.2279],[71.6143,22.3398],[71.5306,22.3433],[71.4376,22.2612]]]},"properties":{"district":"BOTAD"}},
{"type":"Feature","geometry":{"type":"Polygon","coordinates":[[[73.3171,20.88],[73.3816,20.8239],[73.4964,20.8196],[73.4896,20.9138],[73.5768,21.0075],[73.7526,21.0059],[73.8882,20.9335],[73.8507,20.9981],[73.7374,21.0801],[73.6442,21.1399],[73.816,21.1739],[73.827,21.2674],[73.9428,21.2999],[73.9441,21.3999],[74.1605,21.4685],[74.3209,21.4985],[74.2767,21.5621],[74.176,21.5687],[73.9823,21.5222],[73.9715,21.4617],[73.8195,21.4019],[73.6992,21.3964],[73.5885,21.3655],[73.4553,21.384],[73.388,21.4437],[73.2782,21.3754],[73.1813,21.3844],[73.0194,21.354],[73.1565,21.228],[73.2334,21.2316],[73.2279,21.1747],[73.0518,20.9907],[73.0909,20.9395],[73.1256,20.8985],[73.1618,20.9022],[73.2539,20.8198],[73.3171,20.88]]]},"properties":{"district":"TAPI"}},
{"type":"Feature","geometry":{"type":"Polygon","coordinates":[[[71.0818,21.8243],[71.0514,21.8243],[71.0474,21.7558],[70.8314,21.7434],[70.7938,21.6663],[70.876,21.5771],[70.8318,21.4564],[70.8904,21.2682],[70.8042,21.2331],[70.8533,21.1683],[71.0052,21.1661],[71.1265,21.0746],[71.1214,20.9656],[71.1934,20.902],[71.2042,20.7951],[71.4374,20.8693],[71.5114,20.9444],[71.6775,20.9962],[71.6064,21.1309],[71.5591,21.1591],[71.518,21.1731],[71.5313,21.2901],[71.6145,21.326],[71.6117,21.4422],[71.478,21.4809],[71.5032,21.5458],[71.5461,21.5588],[71.5927,21.6984],[71.4568,21.8249],[71.4604,21.9082],[71.3928,21.9801],[71.3049,22.042],[71.0304,21.8742],[71.0818,21.8243]]]},"properties":{"district":"AMRELI"}},
{"type":"Feature","geometry":{"type":"Polygon","coordinates":[[[73.5254,22.0509],[73.4397,21.9628],[73.4026,21.9106],[73.3041,21.8872],[73.4105,21.7383],[73.4871,21.6974],[73.4527,21.5277],[73.5549,21.4745],[73.6758,21.4728],[73.6992,21.3964],[73.8195,21.4019],[73.9715,21.4617],[73.9823,21.5222],[73.8531,21.4975],[73.8142,21.6009],[73.8948,21.676],[73.8295,21.7838],[73.8069,21.8364],[73.9403,21.8709],[73.8546,21.9526],[73.8003,21.9295],[73.6621,22.0554],[73.5254,22.0509]]]},"properties":{"district":"NARMADA"}},
{"type":"Feature","geometry":{"type":"Polygon","coordinates":[[[70.1483,21.6645],[69.9904,21.5792],[70.0304,21.4348],[69.942,21.3723],[70.0125,21.2775],[69.9811,21.2284],[70.0677,21.1377],[70.2254,21.0005],[70.3994,21.0565],[70.4451,21.0402],[70.5006,21.1916],[70.5584,21.288],[70.7093,21.2485],[70.7406,21.1876],[70.8502,21.1247],[70.736,20.9769],[70.8232,21.0246],[70.8824,20.9039],[70.9575,20.8852],[70.9688,20.7291],[71.0801,20.7384],[71.2042,20.7951],[71.1934,20.902],[71.1214,20.9656],[71.1265,21.0746],[71.0052,21.1661],[70.8533,21.1683],[70.8042,21.2331],[70.8904,21.2682],[70.8318,21.4564],[70.876,21.5771],[70.7938,21.6663],[70.7011,21.6044],[70.5363,21.6731],[70.4568,21.6493],[70.3009,21.5814],[70.1483,21.6645]]]},"properties":{"district":"JUNAGADH"}},
{"type":"Feature","geometry":{"type":"Polygon","coordinates":[[[72.8493,20.7486],[72.8997,20.5823],[72.8844,20.5319],[72.8818,20.3717],[72.7775,20.3368],[72.7402,20.2432],[72.7753,20.1318],[72.9366,20.2934],[72.9801,20.2885],[73.0958,20.3614],[73.1651,20.2839],[73.0488,20.2006],[73.2029,20.1198],[73.2833,20.1986],[73.4209,20.207],[73.4277,20.2804],[73.3803,20.3869],[73.4673,20.4965],[73.473,20.5848],[73.4072,20.6242],[73.259,20.5798],[73.155,20.6059],[73.0192,20.7108],[72.8493,20.7486]]]},"properties":{"district":"VALSAD"}},
{"type":"Feature","geometry":{"type":"Polygon","coordinates":[[[73.4664,20.7219],[73.5996,20.637],[73.6283,20.5833],[73.761,20.5739],[73.8308,20.675],[73.9317,20.7604],[73.9403,20.8397],[73.8882,20.9335],[73.7526,21.0059],[73.5768,21.0075],[73.4896,20.9138],[73.4964,20.8196],[73.4664,20.7219]]]},"properties":{"district":"DANGS"}}
]}