{"type":"FeatureCollection","features":[{"type":"Feature","geometry":{"type":"Polygon","coordinates":[[[78.6477,31.2141],[78.5654,31.1024],[78.5662,31.009],[78.5094,30.903],[78.3862,30.8728],[78.3007,30.7501],[78.36,30.6529],[78.4767,30.6227],[78.5394,30.5273],[78.6362,30.6843],[78.8546,30.7518],[78.8724,30.8755],[78.9996,30.8615],[79.0317,30.8066],[79.2775,30.726],[79.229,30.808],[79.3294,31.0282],[79.4061,31.0743],[79.3389,31.1244],[79.2631,31.2892],[79.1432,31.4335],[79.0712,31.4671],[78.9208,31.2539],[79.0104,31.1108],[78.8906,31.097],[78.8044,31.1984],[78.6477,31.2141]]]},"properties":{"AC_NO":3,"AC_NAME":"Gangotri","PC_NO":1,"PC_NAME":"TEHRI GARHWAL","district":"UTTARK>SHI"}},{"type":"Feature","geometry":{"type":"Polygon","coordinates":[[[78.3111,31.283],[78.2459,31.23],[78.1042,31.1856],[77.8992,31.1505],[77.7716,30.9703],[77.8042,30.9219],[77.9687,30.9777],[77.9912,30.8404],[78.0839,30.7191],[78.0124,30.6166],[78.1557,30.6332],[78.218,30.9115],[78.4025,31.0488],[78.5662,31.009],[78.5654,31.1024],[78.6477,31.2141],[78.4844,31.1991],[78.3701,31.2863],[78.3111,31.283]]]},"properties":{"AC_NO":1,"AC_NAME":"Purola (SC)","PC_NO":1,"PC_NAME":"TEHRI GARHWAL","district":"UTTARK>SHI"}},{"type":"Feature","geometry":{"type":"Polygon","coordinates":[[[79.4061,31.0743],[79.3294,31.0282],[79.229,30.808],[79.2775,30.726],[79.3502,30.6514],[79.2509,30.5619],[79.1403,30.3806],[79.177,30.3236],[79.2832,30.362],[79.6281,30.3307],[79.7489,30.3413],[79.7976,30.2811],[79.8717,30.2679],[79.9917,30.3138],[80.0365,30.4034],[79.9952,30.5379],[80.0408,30.6013],[79.9791,30.7052],[80.1023,30.7223],[80.1,30.7862],[80.0576,30.8384],[79.8883,30.9248],[79.8657,30.9747],[79.7559,31.0012],[79.6008,30.9375],[79.515,31.0336],[79.4061,31.0743]]]},"properties":{"AC_NO":4,"AC_NAME":"Badrinath","PC_NO":2,"PC_NAME":"GARHWAL","district":"CHAMOLI"}},{"type":"Feature","geometry":{"type":"Polygon","coordinates":[[[78.5662,31.009],[78.4025,31.0488],[78.218,30.9115],[78.1557,30.6332],[78.2052,30.5778],[78.2929,30.5821],[78.3868,30.5109],[78.4767,30.6227],[78.36,30.6529],[78.3007,30.7501],[78.3862,30.8728],[78.5094,30.903],[78.5662,31.009]]]},"properties":{"AC_NO":2,"AC_NAME":"Yamunotri","PC_NO":1,"PC_NAME":"TEHRI GARHWAL","district":"UTTARK>SHI"}},{"type":"Feature","geometry":{"type":"Polygon","coordinates":[[[78.0124,30.6166],[78.0839,30.7191],[77.9912,30.8404],[77.9687,30.9777],[77.8042,30.9219],[77.7986,30.8699],[77.7038,30.7651],[77.7904,30.6341],[77.7429,30.6012],[77.8178,30.5067],[77.937,30.5118],[78.0124,30.6166]]]},"properties":{"AC_NO":15,"AC_NAME":"Chakrata (ST)","PC_NO":1,"PC_NAME":"TEHRI GARHWAL","district":"DEHRAD@N"}},{"type":"Feature","geometry":{"type":"Polygon","coordinates":[[[79.0317,30.8066],[78.9996,30.8615],[78.8724,30.8755],[78.8546,30.7518],[78.6362,30.6843],[78.5394,30.5273],[78.6097,30.4382],[78.5847,30.3945],[78.6169,30.3421],[78.6941,30.3799],[78.8384,30.357],[78.8585,30.5508],[78.9049,30.6231],[78.9107,30.6897],[79.0168,30.7531],[79.0317,30.8066]]]},"properties":{"AC_NO":9,"AC_NAME":"Ghanshali (SC)","PC_NO":1,"PC_NAME":"TEHRI GARHWAL","district":"TEHRI GARHW>L"}},{"type":"Feature","geometry":{"type":"Polygon","coordinates":[[[79.0317,30.8066],[79.0168,30.7531],[78.9107,30.6897],[78.9049,30.6231],[79.0035,30.5308],[79.0311,30.4142],[78.9782,30.3352],[79.044,30.2147],[79.0779,30.2193],[79.1495,30.3249],[79.1403,30.3806],[79.2509,30.5619],[79.3502,30.6514],[79.2775,30.726],[79.0317,30.8066]]]},"properties":{"AC_NO":7,"AC_NAME":"Kedarnath","PC_NO":2,"PC_NAME":"GARHWAL","district":"RUDRAPRAY>G"}},{"type":"Feature","geometry":{"type":"Polygon","coordinates":[[[80.1,30.7862],[80.1023,30.7223],[79.9791,30.7052],[80.0408,30.6013],[79.9952,30.5379],[80.0365,30.4034],[79.9917,30.3138],[80.0682,30.2811],[80.1081,30.1991],[80.0675,30.0195],[80.1469,29.8991],[80.158,29.8389],[80.3132,29.8661],[80.3685,29.7318],[80.4948,29.7962],[80.5709,29.9231],[80.7426,30.0021],[80.8731,30.1305],[80.8662,30.1719],[81.0412,30.1985],[81.0067,30.2649],[80.824,30.3143],[80.7503,30.3925],[80.5972,30.4816],[80.5027,30.4834],[80.3203,30.5611],[80.2241,30.5766],[80.2507,30.732],[80.181,30.8015],[80.1,30.7862]]]},"properties":{"AC_NO":42,"AC_NAME":"Dharchula","PC_NO":3,"PC_NAME":"ALMORA (SC)","district":"PITHOR>GARH"}},{"type":"Feature","geometry":{"type":"Polygon","coordinates":[[[78.1557,30.6332],[78.0124,30.6166],[77.937,30.5118],[77.9739,30.4825],[78.1044,30.4785],[78.239,30.4231],[78.1536,30.3732],[78.1768,30.3047],[78.2838,30.2875],[78.3264,30.3104],[78.3092,30.4166],[78.3868,30.5109],[78.2929,30.5821],[78.2052,30.5778],[78.1557,30.6332]]]},"properties":{"AC_NO":14,"AC_NAME":"Dhanolti","PC_NO":1,"PC_NAME":"TEHRI GARHWAL","district":"TEHRI GARHW>L"}},{"type":"Feature","geometry":{"type":"Polygon","coordinates":[[[78.5394,30.5273],[78.4767,30.6227],[78.3868,30.5109],[78.3092,30.4166],[78.4265,30.4228],[78.5847,30.3945],[78.6097,30.4382],[78.5394,30.5273]]]},"properties":{"AC_NO":12,"AC_NAME":"Pratapnagar","PC_NO":1,"PC_NAME":"TEHRI GARHWAL","district":"TEHRI GARHW>L"}},{"type":"Feature","geometry":{"type":"Polygon","coordinates":[[[79.044,30.2147],[78.9782,30.3352],[79.0311,30.4142],[79.0035,30.5308],[78.9049,30.6231],[78.8585,30.5508],[78.8384,30.357],[78.894,30.2525],[78.99,30.1837],[79.044,30.2147]]]},"properties":{"AC_NO":8,"AC_NAME":"Rudraprayag","PC_NO":2,"PC_NAME":"GARHWAL","district":"RUDRAPRAY>G"}},{"type":"Feature","geometry":{"type":"Polygon","coordinates":[[[77.937,30.5118],[77.8178,30.5067],[77.6411,30.4318],[77.8132,30.3899],[77.8376,30.4282],[77.9811,30.4617],[77.9739,30.4825],[77.937,30.5118]]]},"properties":{"AC_NO":16,"AC_NAME":"Vikasnagar","PC_NO":1,"PC_NAME":"TEHRI GARHWAL","district":"DEHRAD@N"}},{"type":"Feature","geometry":{"type":"Polygon","coordinates":[[[77.9739,30.4825],[77.9811,30.4617],[78.0281,30.3956],[77.9834,30.3241],[78.0199,30.3576],[78.0829,30.359],[78.1536,30.3732],[78.239,30.4231],[78.1044,30.4785],[77.9739,30.4825]]]},"properties":{"AC_NO":22,"AC_NAME":"Mussoorie","PC_NO":1,"PC_NAME":"TEHRI GARHWAL","district":"DEHRAD@N"}},{"type":"Feature","geometry":{"type":"Polygon","coordinates":[[[77.9811,30.4617],[77.8376,30.4282],[77.8132,30.3899],[77.6411,30.4318],[77.5773,30.3977],[77.6477,30.4046],[77.7217,30.3305],[77.9427,30.2397],[77.947,30.2411],[77.9955,30.3097],[77.9834,30.3241],[78.0281,30.3956],[77.9811,30.4617]]]},"properties":{"AC_NO":17,"AC_NAME":"Sahaspur","PC_NO":1,"PC_NAME":"TEHRI GARHWAL","district":"DEHRAD@N"}},{"type":"Feature","geometry":{"type":"Polygon","coordinates":[[[78.5847,30.3945],[78.4265,30.4228],[78.3092,30.4166],[78.3264,30.3104],[78.4842,30.305],[78.6169,30.3421],[78.5847,30.3945]]]},"properties":{"AC_NO":13,"AC_NAME":"Tehri","PC_NO":1,"PC_NAME":"TEHRI GARHWAL","district":"TEHRI GARHW>L"}},{"type":"Feature","geometry":{"type":"Polygon","coordinates":[[[78.1536,30.3732],[78.0829,30.359],[78.0626,30.3142],[78.0685,30.2972],[78.1768,30.3047],[78.1536,30.3732]]]},"properties":{"AC_NO":19,"AC_NAME":"Raipur","PC_NO":1,"PC_NAME":"TEHRI GARHWAL","district":"DEHRAD@N"}},{"type":"Feature","geometry":{"type":"Polygon","coordinates":[[[78.0829,30.359],[78.0199,30.3576],[78.0169,30.3239],[78.0626,30.3142],[78.0829,30.359]]]},"properties":{"AC_NO":20,"AC_NAME":"Rajpur Road (SC","PC_NO":1,"PC_NAME":"TEHRI GARHWAL","district":"DEHRAD@N"}},{"type":"Feature","geometry":{"type":"Polygon","coordinates":[[[78.8384,30.357],[78.6941,30.3799],[78.6169,30.3421],[78.4842,30.305],[78.6048,30.1455],[78.6784,30.212],[78.7525,30.2149],[78.894,30.2525],[78.8384,30.357]]]},"properties":{"AC_NO":10,"AC_NAME":"Deoprayag","PC_NO":2,"PC_NAME":"GARHWAL","district":"TEHRI GARHW>L"}},{"type":"Feature","geometry":{"type":"Polygon","coordinates":[[[79.2832,30.362],[79.177,30.3236],[79.1403,30.3806],[79.1495,30.3249],[79.0779,30.2193],[79.1935,30.0839],[79.2251,29.9793],[79.2835,29.9256],[79.425,29.9339],[79.472,29.9812],[79.4759,30.0061],[79.3038,30.1236],[79.3598,30.3176],[79.2832,30.362]]]},"properties":{"AC_NO":6,"AC_NAME":"Karnprayag","PC_NO":2,"PC_NAME":"GARHWAL","district":"CHAMOLI"}},{"type":"Feature","geometry":{"type":"Polygon","coordinates":[[[77.9834,30.3241],[77.9955,30.3097],[78.0169,30.3239],[78.0199,30.3576],[77.9834,30.3241]]]},"properties":{"AC_NO":21,"AC_NAME":"Dehradun Cantt.","PC_NO":1,"PC_NAME":"TEHRI GARHWAL","district":"DEHRAD@N"}},{"type":"Feature","geometry":{"type":"Polygon","coordinates":[[[79.7976,30.2811],[79.7489,30.3413],[79.6281,30.3307],[79.2832,30.362],[79.3598,30.3176],[79.3038,30.1236],[79.4759,30.0061],[79.6335,30.0172],[79.8127,30.0217],[79.7628,30.1357],[79.8189,30.2225],[79.7976,30.2811]]]},"properties":{"AC_NO":5,"AC_NAME":"Tharali (SC)","PC_NO":2,"PC_NAME":"GARHWAL","district":"CHAMOLI"}},{"type":"Feature","geometry":{"type":"Polygon","coordinates":[[[78.0626,30.3142],[78.0169,30.3239],[77.9955,30.3097],[77.947,30.2411],[78.0066,30.1722],[77.9983,30.2397],[78.0685,30.2972],[78.0626,30.3142]]]},"properties":{"AC_NO":18,"AC_NAME":"Dharampur","PC_NO":5,"PC_NAME":"HARDWAR","district":"DEHRAD@N"}},{"type":"Feature","geometry":{"type":"Polygon","coordinates":[[[78.2838,30.2875],[78.2351,30.1811],[78.2783,30.129],[78.3094,30.1147],[78.3918,30.1352],[78.4511,30.0691],[78.5978,30.0652],[78.6048,30.1455],[78.4842,30.305],[78.3264,30.3104],[78.2838,30.2875]]]},"properties":{"AC_NO":11,"AC_NAME":"Narendranagar","PC_NO":2,"PC_NAME":"GARHWAL","district":"TEHRI GARHW>L"}},{"type":"Feature","geometry":{"type":"Polygon","coordinates":[[[78.1768,30.3047],[78.0685,30.2972],[77.9983,30.2397],[78.0066,30.1722],[78.0358,30.1068],[78.064,30.0816],[78.1137,30.1306],[78.25,30.0791],[78.2783,30.129],[78.2351,30.1811],[78.2838,30.2875],[78.1768,30.3047]]]},"properties":{"AC_NO":23,"AC_NAME":"Doiwala","PC_NO":5,"PC_NAME":"HARDWAR","district":"DEHRAD@N"}},{"type":"Feature","geometry":{"type":"Polygon","coordinates":[[[79.9917,30.3138],[79.8717,30.2679],[79.7976,30.2811],[79.8189,30.2225],[79.7628,30.1357],[79.8127,30.0217],[79.6335,30.0172],[79.801,29.8891],[79.8221,29.8059],[79.9033,29.7968],[80.0341,29.7816],[80.0265,29.8969],[80.1469,29.8991],[80.0675,30.0195],[80.1081,30.1991],[80.0682,30.2811],[79.9917,30.3138]]]},"properties":{"AC_NO":46,"AC_NAME":"Kapkote","PC_NO":3,"PC_NAME":"ALMORA (SC)","district":"B>GESHWAR"}},{"type":"Feature","geometry":{"type":"Polygon","coordinates":[[[77.947,30.2411],[77.9427,30.2397],[77.7753,30.0369],[77.8856,30.0133],[77.8739,29.9528],[77.9329,29.9663],[78.0183,29.881],[77.9642,29.8443],[77.9764,29.8171],[78.0342,29.8261],[78.0742,29.906],[77.9909,30.0101],[78.0358,30.1068],[78.0066,30.1722],[77.947,30.2411]]]},"properties":{"AC_NO":27,"AC_NAME":"Jwalapur (SC)","PC_NO":5,"PC_NAME":"HARDWAR","district":"HARIDW>R"}},{"type":"Feature","geometry":{"type":"Polygon","coordinates":[[[79.044,30.2147],[78.99,30.1837],[78.894,30.2525],[78.7525,30.2149],[78.811,30.1754],[78.8562,30.0539],[78.97,30.0374],[78.9752,29.9425],[79.0866,29.8913],[79.2251,29.9793],[79.1935,30.0839],[79.0779,30.2193],[79.044,30.2147]]]},"properties":{"AC_NO":38,"AC_NAME":"Srinagar","PC_NO":2,"PC_NAME":"GARHWAL","district":"PAURI GARHW>L"}},{"type":"Feature","geometry":{"type":"Polygon","coordinates":[[[78.7525,30.2149],[78.6784,30.212],[78.6048,30.1455],[78.5978,30.0652],[78.6414,29.9789],[78.7411,29.9297],[78.8562,30.0539],[78.811,30.1754],[78.7525,30.2149]]]},"properties":{"AC_NO":37,"AC_NAME":"Pauri (SC)","PC_NO":2,"PC_NAME":"GARHWAL","district":"PAURI GARHW>L"}},{"type":"Feature","geometry":{"type":"Polygon","coordinates":[[[78.2783,30.129],[78.25,30.0791],[78.1137,30.1306],[78.064,30.0816],[78.1575,29.9689],[78.1906,29.9653],[78.2026,29.9656],[78.3094,30.1147],[78.2783,30.129]]]},"properties":{"AC_NO":24,"AC_NAME":"Rishikesh","PC_NO":5,"PC_NAME":"HARDWAR","district":"DEHRAD@N"}},{"type":"Feature","geometry":{"type":"Polygon","coordinates":[[[78.3094,30.1147],[78.2026,29.9656],[78.3155,29.8616],[78.3435,29.7915],[78.439,29.755],[78.631,29.7733],[78.6898,29.8165],[78.6926,29.9168],[78.6414,29.9789],[78.5978,30.0652],[78.4511,30.0691],[78.3918,30.1352],[78.3094,30.1147]]]},"properties":{"AC_NO":36,"AC_NAME":"Yamkeshwar","PC_NO":2,"PC_NAME":"GARHWAL","district":"PAURI GARHW>L"}},{"type":"Feature","geometry":{"type":"Polygon","coordinates":[[[78.064,30.0816],[78.0358,30.1068],[77.9909,30.0101],[78.0742,29.906],[78.1514,29.917],[78.1575,29.9689],[78.064,30.0816]]]},"properties":{"AC_NO":26,"AC_NAME":"B.H.E.L. Ranipu","PC_NO":5,"PC_NAME":"HARDWAR","district":"HARIDW>R"}},{"type":"Feature","geometry":{"type":"Polygon","coordinates":[[[79.0866,29.8913],[78.9752,29.9425],[78.97,30.0374],[78.8562,30.0539],[78.7411,29.9297],[78.6414,29.9789],[78.6926,29.9168],[78.8078,29.8392],[79.1018,29.8381],[79.0866,29.8913]]]},"properties":{"AC_NO":39,"AC_NAME":"Chaubattakhal","PC_NO":2,"PC_NAME":"GARHWAL","district":"PAURI GARHW>L"}},{"type":"Feature","geometry":{"type":"Polygon","coordinates":[[[77.7753,30.0369],[77.7791,30.0176],[77.7183,29.8649],[77.7536,29.8269],[77.8588,29.9225],[77.8739,29.9528],[77.8856,30.0133],[77.7753,30.0369]]]},"properties":{"AC_NO":28,"AC_NAME":"Bhagwanpur (SC)","PC_NO":5,"PC_NAME":"HARDWAR","district":"HARIDW>R"}},{"type":"Feature","geometry":{"type":"Polygon","coordinates":[[[79.6335,30.0172],[79.4759,30.0061],[79.472,29.9812],[79.5103,29.8719],[79.646,29.8161],[79.7373,29.7171],[79.8972,29.7035],[79.9033,29.7968],[79.8221,29.8059],[79.801,29.8891],[79.6335,30.0172]]]},"properties":{"AC_NO":47,"AC_NAME":"Bageshwar (SC)","PC_NO":3,"PC_NAME":"ALMORA (SC)","district":"B>GESHWAR"}},{"type":"Feature","geometry":{"type":"Polygon","coordinates":[[[78.1906,29.9653],[78.1575,29.9689],[78.1514,29.917],[78.1906,29.9653]]]},"properties":{"AC_NO":25,"AC_NAME":"Hardwar","PC_NO":5,"PC_NAME":"HARDWAR","district":"HARIDW>R"}},{"type":"Feature","geometry":{"type":"Polygon","coordinates":[[[77.9642,29.8443],[78.0183,29.881],[77.9329,29.9663],[77.8739,29.9528],[77.8588,29.9225],[77.8682,29.8449],[77.918,29.8716],[77.9642,29.8443]]]},"properties":{"AC_NO":30,"AC_NAME":"Pirankaliyar","PC_NO":5,"PC_NAME":"HARDWAR","district":"HARIDW>R"}},{"type":"Feature","geometry":{"type":"Polygon","coordinates":[[[78.2026,29.9656],[78.1906,29.9653],[78.1514,29.917],[78.0742,29.906],[78.0342,29.8261],[78.1644,29.7405],[78.2615,29.734],[78.3424,29.79],[78.3435,29.7915],[78.3155,29.8616],[78.2026,29.9656]]]},"properties":{"AC_NO":35,"AC_NAME":"Hardwar Rural","PC_NO":5,"PC_NAME":"HARDWAR","district":"HARIDW>R"}},{"type":"Feature","geometry":{"type":"Polygon","coordinates":[[[79.2835,29.9256],[79.2251,29.9793],[79.0866,29.8913],[79.1018,29.8381],[79.1151,29.6906],[79.0374,29.5849],[79.1695,29.535],[79.2643,29.563],[79.2462,29.7757],[79.2835,29.9256]]]},"properties":{"AC_NO":49,"AC_NAME":"Salt","PC_NO":3,"PC_NAME":"ALMORA (SC)","district":"ALMORA"}},{"type":"Feature","geometry":{"type":"Polygon","coordinates":[[[79.472,29.9812],[79.425,29.9339],[79.2835,29.9256],[79.2462,29.7757],[79.2889,29.7993],[79.4174,29.6966],[79.485,29.715],[79.5282,29.8228],[79.5103,29.8719],[79.472,29.9812]]]},"properties":{"AC_NO":48,"AC_NAME":"Dwarahat","PC_NO":3,"PC_NAME":"ALMORA (SC)","district":"ALMORA"}},{"type":"Feature","geometry":{"type":"Polygon","coordinates":[[[77.8588,29.9225],[77.7536,29.8269],[77.8099,29.7016],[77.8674,29.8162],[77.8682,29.8449],[77.8588,29.9225]]]},"properties":{"AC_NO":29,"AC_NAME":"Jhabrera (SC)","PC_NO":5,"PC_NAME":"HARDWAR","district":"HARIDW>R"}},{"type":"Feature","geometry":{"type":"Polygon","coordinates":[[[77.918,29.8716],[77.8682,29.8449],[77.8674,29.8162],[77.8903,29.8052],[77.918,29.8716]]]},"properties":{"AC_NO":31,"AC_NAME":"Roorkee","PC_NO":5,"PC_NAME":"HARDWAR","district":"HARIDW>R"}},{"type":"Feature","geometry":{"type":"Polygon","coordinates":[[[79.1018,29.8381],[78.8078,29.8392],[78.6926,29.9168],[78.6898,29.8165],[78.631,29.7733],[78.6261,29.6805],[78.8016,29.6185],[78.9476,29.6319],[79.0006,29.5651],[79.0374,29.5849],[79.1151,29.6906],[79.1018,29.8381]]]},"properties":{"AC_NO":40,"AC_NAME":"Lansdowne","PC_NO":2,"PC_NAME":"GARHWAL","district":"PAURI GARHW>L"}},{"type":"Feature","geometry":{"type":"Polygon","coordinates":[[[77.9642,29.8443],[77.918,29.8716],[77.8903,29.8052],[77.9481,29.7107],[77.9741,29.5782],[77.9983,29.5413],[78.1125,29.6419],[78.1314,29.6447],[77.9762,29.7575],[77.9764,29.8171],[77.9642,29.8443]]]},"properties":{"AC_NO":32,"AC_NAME":"Khanpur","PC_NO":5,"PC_NAME":"HARDWAR","district":"HARIDW>R"}},{"type":"Feature","geometry":{"type":"Polygon","coordinates":[[[80.1469,29.8991],[80.0265,29.8969],[80.0341,29.7816],[79.9033,29.7968],[79.8972,29.7035],[79.9589,29.6564],[79.9992,29.5606],[80.0783,29.5216],[80.1008,29.5238],[80.1466,29.6586],[80.1231,29.7769],[80.158,29.8389],[80.1469,29.8991]]]},"properties":{"AC_NO":45,"AC_NAME":"Gangolihat (SC)","PC_NO":3,"PC_NAME":"ALMORA (SC)","district":"PITHOR>GARH"}},{"type":"Feature","geometry":{"type":"Polygon","coordinates":[[[79.5103,29.8719],[79.5282,29.8228],[79.485,29.715],[79.4174,29.6966],[79.5243,29.5275],[79.5331,29.5467],[79.6308,29.6307],[79.6461,29.6892],[79.7373,29.7171],[79.646,29.8161],[79.5103,29.8719]]]},"properties":{"AC_NO":51,"AC_NAME":"Someshwar (SC)","PC_NO":3,"PC_NAME":"ALMORA (SC)","district":"ALMORA"}},{"type":"Feature","geometry":{"type":"Polygon","coordinates":[[[80.3685,29.7318],[80.3132,29.8661],[80.158,29.8389],[80.1231,29.7769],[80.1466,29.6586],[80.3481,29.5427],[80.423,29.6356],[80.3685,29.7318]]]},"properties":{"AC_NO":43,"AC_NAME":"Didihat","PC_NO":3,"PC_NAME":"ALMORA (SC)","district":"PITHOR>GARH"}},{"type":"Feature","geometry":{"type":"Polygon","coordinates":[[[78.0342,29.8261],[77.9764,29.8171],[77.9762,29.7575],[78.1314,29.6447],[78.2424,29.6984],[78.3424,29.79],[78.2615,29.734],[78.1644,29.7405],[78.0342,29.8261]]]},"properties":{"AC_NO":34,"AC_NAME":"Laksar","PC_NO":5,"PC_NAME":"HARDWAR","district":"HARIDW>R"}},{"type":"Feature","geometry":{"type":"Polygon","coordinates":[[[77.8903,29.8052],[77.8674,29.8162],[77.8099,29.7016],[77.8202,29.6735],[77.9481,29.7107],[77.8903,29.8052]]]},"properties":{"AC_NO":33,"AC_NAME":"Manglaur","PC_NO":5,"PC_NAME":"HARDWAR","district":"HARIDW>R"}},{"type":"Feature","geometry":{"type":"Polygon","coordinates":[[[78.631,29.7733],[78.439,29.755],[78.496,29.7346],[78.5811,29.5852],[78.7051,29.5013],[78.921,29.4342],[79.0006,29.5651],[78.9476,29.6319],[78.8016,29.6185],[78.6261,29.6805],[78.631,29.7733]]]},"properties":{"AC_NO":41,"AC_NAME":"Kotdwar","PC_NO":2,"PC_NAME":"GARHWAL","district":"PAURI GARHW>L"}},{"type":"Feature","geometry":{"type":"Polygon","coordinates":[[[79.4174,29.6966],[79.2889,29.7993],[79.2462,29.7757],[79.2643,29.563],[79.3317,29.6129],[79.4438,29.5236],[79.5243,29.5275],[79.4174,29.6966]]]},"properties":{"AC_NO":50,"AC_NAME":"Ranikhet","PC_NO":3,"PC_NAME":"ALMORA (SC)","district":"ALMORA"}},{"type":"Feature","geometry":{"type":"Polygon","coordinates":[[[79.7373,29.7171],[79.6461,29.6892],[79.6308,29.6307],[79.5331,29.5467],[79.6659,29.5375],[79.7598,29.5663],[79.7863,29.6267],[79.9589,29.6564],[79.8972,29.7035],[79.7373,29.7171]]]},"properties":{"AC_NO":52,"AC_NAME":"Almora","PC_NO":3,"PC_NAME":"ALMORA (SC)","district":"ALMORA"}},{"type":"Feature","geometry":{"type":"Polygon","coordinates":[[[80.3481,29.5427],[80.1466,29.6586],[80.1008,29.5238],[80.245,29.4426],[80.3481,29.5427]]]},"properties":{"AC_NO":44,"AC_NAME":"Pithoragarh","PC_NO":3,"PC_NAME":"ALMORA (SC)","district":"PITHOR>GARH"}},{"type":"Feature","geometry":{"type":"Polygon","coordinates":[[[79.9589,29.6564],[79.7863,29.6267],[79.7598,29.5663],[79.6659,29.5375],[79.6846,29.5204],[79.7335,29.433],[79.8485,29.4322],[79.8869,29.4838],[80.0011,29.485],[80.0783,29.5216],[79.9992,29.5606],[79.9589,29.6564]]]},"properties":{"AC_NO":53,"AC_NAME":"Jageshwar","PC_NO":3,"PC_NAME":"ALMORA (SC)","district":"ALMORA"}},{"type":"Feature","geometry":{"type":"Polygon","coordinates":[[[79.2643,29.563],[79.1695,29.535],[79.2828,29.4643],[79.2724,29.4176],[79.3474,29.3913],[79.3435,29.321],[79.5482,29.2964],[79.5621,29.4997],[79.6846,29.5204],[79.6659,29.5375],[79.5331,29.5467],[79.5243,29.5275],[79.4438,29.5236],[79.3317,29.6129],[79.2643,29.563]]]},"properties":{"AC_NO":58,"AC_NAME":"Nainital (SC)","PC_NO":4,"PC_NAME":"NAINITAL-UDHAMSINGH NAG","district":"NAINIT>L"}},{"type":"Feature","geometry":{"type":"Polygon","coordinates":[[[79.0374,29.5849],[79.0006,29.5651],[78.921,29.4342],[78.8561,29.3499],[78.9924,29.3123],[79.048,29.2606],[79.1386,29.2737],[79.1634,29.3459],[79.2724,29.4176],[79.2828,29.4643],[79.1695,29.535],[79.0374,29.5849]]]},"properties":{"AC_NO":61,"AC_NAME":"Ramnagar","PC_NO":2,"PC_NAME":"GARHWAL","district":"NAINIT>L"}},{"type":"Feature","geometry":{"type":"Polygon","coordinates":[[[79.6846,29.5204],[79.5621,29.4997],[79.5482,29.2964],[79.5598,29.2757],[79.8798,29.1561],[79.9083,29.1981],[79.8559,29.2769],[79.8485,29.4322],[79.7335,29.433],[79.6846,29.5204]]]},"properties":{"AC_NO":57,"AC_NAME":"Bhimtal","PC_NO":4,"PC_NAME":"NAINITAL-UDHAMSINGH NAG","district":"NAINIT>L"}},{"type":"Feature","geometry":{"type":"Polygon","coordinates":[[[80.0783,29.5216],[80.0011,29.485],[79.8869,29.4838],[79.8485,29.4322],[79.8559,29.2769],[79.9083,29.1981],[79.9765,29.3385],[80.0524,29.3622],[80.3179,29.304],[80.245,29.4426],[80.1008,29.5238],[80.0783,29.5216]]]},"properties":{"AC_NO":54,"AC_NAME":"Lohaghat","PC_NO":3,"PC_NAME":"ALMORA (SC)","district":"CHAMP>WAT"}},{"type":"Feature","geometry":{"type":"Polygon","coordinates":[[[79.5482,29.2964],[79.3435,29.321],[79.3474,29.3913],[79.2724,29.4176],[79.1634,29.3459],[79.1386,29.2737],[79.226,29.2464],[79.2755,29.1622],[79.3609,29.0949],[79.477,29.1351],[79.4979,29.1846],[79.5341,29.2275],[79.5598,29.2757],[79.5482,29.2964]]]},"properties":{"AC_NO":60,"AC_NAME":"Kaladhungi","PC_NO":4,"PC_NAME":"NAINITAL-UDHAMSINGH NAG","district":"NAINIT>L"}},{"type":"Feature","geometry":{"type":"Polygon","coordinates":[[[78.8561,29.3499],[78.7664,29.3375],[78.7712,29.2645],[78.8835,29.2115],[78.9924,29.3123],[78.8561,29.3499]]]},"properties":{"AC_NO":62,"AC_NAME":"Jaspur","PC_NO":4,"PC_NAME":"NAINITAL-UDHAMSINGH NAG","district":"UDHAM SINGH NAGAR"}},{"type":"Feature","geometry":{"type":"Polygon","coordinates":[[[80.3179,29.304],[80.0524,29.3622],[79.9765,29.3385],[79.9083,29.1981],[79.8798,29.1561],[79.9735,29.0546],[80.0306,29.0776],[80.0744,28.9347],[80.1196,28.9854],[80.1507,29.1047],[80.2725,29.1451],[80.2631,29.2106],[80.3179,29.304]]]},"properties":{"AC_NO":55,"AC_NAME":"Champawat","PC_NO":3,"PC_NAME":"ALMORA (SC)","district":"CHAMP>WAT"}},{"type":"Feature","geometry":{"type":"Polygon","coordinates":[[[78.9924,29.3123],[78.8835,29.2115],[78.9325,29.1268],[79.0339,29.1979],[79.048,29.2606],[78.9924,29.3123]]]},"properties":{"AC_NO":63,"AC_NAME":"Kashipur","PC_NO":4,"PC_NAME":"NAINITAL-UDHAMSINGH NAG","district":"UDHAM SINGH NAGAR"}},{"type":"Feature","geometry":{"type":"Polygon","coordinates":[[[79.048,29.2606],[79.0339,29.1979],[78.9325,29.1268],[78.9741,29.13],[79.1039,29.1328],[79.2755,29.1622],[79.226,29.2464],[79.1386,29.2737],[79.048,29.2606]]]},"properties":{"AC_NO":64,"AC_NAME":"Bajpur (SC)","PC_NO":4,"PC_NAME":"NAINITAL-UDHAMSINGH NAG","district":"UDHAM SINGH NAGAR"}},{"type":"Feature","geometry":{"type":"Polygon","coordinates":[[[79.5598,29.2757],[79.5341,29.2275],[79.546,29.1875],[79.4979,29.1846],[79.477,29.1351],[79.3609,29.0949],[79.4124,29.0545],[79.4245,29.0509],[79.6074,29.0512],[79.6987,29.0416],[79.8723,28.9799],[79.9735,29.0546],[79.8798,29.1561],[79.5598,29.2757]]]},"properties":{"AC_NO":56,"AC_NAME":"Lalkuwa","PC_NO":4,"PC_NAME":"NAINITAL-UDHAMSINGH NAG","district":"NAINIT>L"}},{"type":"Feature","geometry":{"type":"Polygon","coordinates":[[[79.5341,29.2275],[79.4979,29.1846],[79.546,29.1875],[79.5341,29.2275]]]},"properties":{"AC_NO":59,"AC_NAME":"Haldwani","PC_NO":4,"PC_NAME":"NAINITAL-UDHAMSINGH NAG","district":"NAINIT>L"}},{"type":"Feature","geometry":{"type":"Polygon","coordinates":[[[79.2755,29.1622],[79.1039,29.1328],[79.1657,29.0201],[79.2485,29.0052],[79.292,29.0631],[79.4124,29.0545],[79.3609,29.0949],[79.2755,29.1622]]]},"properties":{"AC_NO":65,"AC_NAME":"Gadarpur","PC_NO":4,"PC_NAME":"NAINITAL-UDHAMSINGH NAG","district":"UDHAM SINGH NAGAR"}},{"type":"Feature","geometry":{"type":"Polygon","coordinates":[[[80.0744,28.9347],[80.0306,29.0776],[79.9735,29.0546],[79.8723,28.9799],[79.9627,28.9318],[79.8933,28.8679],[79.822,28.8863],[79.8105,28.7988],[79.863,28.8404],[80.0066,28.7411],[80.0651,28.8362],[80.0744,28.9347]]]},"properties":{"AC_NO":70,"AC_NAME":"Khatima","PC_NO":4,"PC_NAME":"NAINITAL-UDHAMSINGH NAG","district":"UDHAM SINGH NAGAR"}},{"type":"Feature","geometry":{"type":"Polygon","coordinates":[[[79.6074,29.0512],[79.5471,29.0046],[79.554,28.8942],[79.5841,28.8463],[79.6835,28.85],[79.7262,28.8608],[79.7439,28.923],[79.6987,29.0416],[79.6074,29.0512]]]},"properties":{"AC_NO":68,"AC_NAME":"Sitarganj","PC_NO":4,"PC_NAME":"NAINITAL-UDHAMSINGH NAG","district":"UDHAM SINGH NAGAR"}},{"type":"Feature","geometry":{"type":"Polygon","coordinates":[[[79.4124,29.0545],[79.292,29.0631],[79.2485,29.0052],[79.2524,28.9992],[79.416,28.943],[79.4245,29.0509],[79.4124,29.0545]]]},"properties":{"AC_NO":66,"AC_NAME":"Rudrapur","PC_NO":4,"PC_NAME":"NAINITAL-UDHAMSINGH NAG","district":"UDHAM SINGH NAGAR"}},{"type":"Feature","geometry":{"type":"Polygon","coordinates":[[[79.4245,29.0509],[79.416,28.943],[79.4223,28.9012],[79.554,28.8942],[79.5471,29.0046],[79.6074,29.0512],[79.4245,29.0509]]]},"properties":{"AC_NO":67,"AC_NAME":"Kichha","PC_NO":4,"PC_NAME":"NAINITAL-UDHAMSINGH NAG","district":"UDHAM SINGH NAGAR"}},{"type":"Feature","geometry":{"type":"Polygon","coordinates":[[[79.8723,28.9799],[79.6987,29.0416],[79.7439,28.923],[79.7262,28.8608],[79.822,28.8863],[79.8933,28.8679],[79.9627,28.9318],[79.8723,28.9799]]]},"properties":{"AC_NO":69,"AC_NAME":"Nanak Matta (ST","PC_NO":4,"PC_NAME":"NAINITAL-UDHAMSINGH NAG","district":"UDHAM SINGH NAGAR"}}]}