{"type":"FeatureCollection", "features": [
{"type":"Feature","geometry":{"type":"Polygon","coordinates":[[[78.6477,31.2141],[78.4844,31.1991],[78.3701,31.2863],[78.3111,31.283],[78.2459,31.23],[78.1042,31.1856],[77.8992,31.1505],[77.7716,30.9703],[77.8042,30.9219],[77.9687,30.9777],[77.9912,30.8404],[78.0839,30.7191],[78.0124,30.6166],[78.1557,30.6332],[78.2052,30.5778],[78.2929,30.5821],[78.3868,30.5109],[78.4767,30.6227],[78.5394,30.5273],[78.6362,30.6843],[78.8546,30.7518],[78.8724,30.8755],[78.9996,30.8615],[79.0317,30.8066],[79.2775,30.726],[79.229,30.808],[79.3294,31.0282],[79.4061,31.0743],[79.3389,31.1244],[79.2631,31.2892],[79.1432,31.4335],[79.0712,31.4671],[78.9208,31.2539],[79.0104,31.1108],[78.8906,31.097],[78.8044,31.1984],[78.6477,31.2141]]]},"properties":{"district":"UTTARK>SHI"}},
{"type":"Feature","geometry":{"type":"Polygon","coordinates":[[[79.2775,30.726],[79.3502,30.6514],[79.2509,30.5619],[79.1403,30.3806],[79.1495,30.3249],[79.0779,30.2193],[79.1935,30.0839],[79.2251,29.9793],[79.2835,29.9256],[79.425,29.9339],[79.472,29.9812],[79.4759,30.0061],[79.6335,30.0172],[79.8127,30.0217],[79.7628,30.1357],[79.8189,30.2225],[79.7976,30.2811],[79.8717,30.2679],[79.9917,30.3138],[80.0365,30.4034],[79.9952,30.5379],[80.0408,30.6013],[79.9791,30.7052],[80.1023,30.7223],[80.1,30.7862],[80.0576,30.8384],[79.8883,30.9248],[79.8657,30.9747],[79.7559,31.0012],[79.6008,30.9375],[79.515,31.0336],[79.4061,31.0743],[79.3294,31.0282],[79.229,30.808],[79.2775,30.726]]]},"properties":{"district":"CHAMOLI"}},
{"type":"Feature","geometry":{"type":"Polygon","coordinates":[[[77.8042,30.9219],[77.7986,30.8699],[77.7038,30.7651],[77.7904,30.6341],[77.7429,30.6012],[77.8178,30.5067],[77.6411,30.4318],[77.5773,30.3977],[77.6477,30.4046],[77.7217,30.3305],[77.9427,30.2397],[77.947,30.2411],[78.0066,30.1722],[78.0358,30.1068],[78.064,30.0816],[78.1575,29.9689],[78.1906,29.9653],[78.2026,29.9656],[78.3094,30.1147],[78.2783,30.129],[78.2351,30.1811],[78.2838,30.2875],[78.1768,30.3047],[78.1536,30.3732],[78.239,30.4231],[78.1044,30.4785],[77.9739,30.4825],[77.937,30.5118],[78.0124,30.6166],[78.0839,30.7191],[77.9912,30.8404],[77.9687,30.9777],[77.8042,30.9219]]]},"properties":{"district":"DEHRAD@N"}},
{"type":"Feature","geometry":{"type":"Polygon","coordinates":[[[78.5394,30.5273],[78.4767,30.6227],[78.3868,30.5109],[78.2929,30.5821],[78.2052,30.5778],[78.1557,30.6332],[78.0124,30.6166],[77.937,30.5118],[77.9739,30.4825],[78.1044,30.4785],[78.239,30.4231],[78.1536,30.3732],[78.1768,30.3047],[78.2838,30.2875],[78.2351,30.1811],[78.2783,30.129],[78.3094,30.1147],[78.3918,30.1352],[78.4511,30.0691],[78.5978,30.0652],[78.6048,30.1455],[78.6784,30.212],[78.7525,30.2149],[78.894,30.2525],[78.8384,30.357],[78.8585,30.5508],[78.9049,30.6231],[78.9107,30.6897],[79.0168,30.7531],[79.0317,30.8066],[78.9996,30.8615],[78.8724,30.8755],[78.8546,30.7518],[78.6362,30.6843],[78.5394,30.5273]]]},"properties":{"district":"TEHRI GARHW>L"}},
{"type":"Feature","geometry":{"type":"Polygon","coordinates":[[[79.0317,30.8066],[79.0168,30.7531],[78.9107,30.6897],[78.9049,30.6231],[78.8585,30.5508],[78.8384,30.357],[78.894,30.2525],[78.99,30.1837],[79.044,30.2147],[79.0779,30.2193],[79.1495,30.3249],[79.1403,30.3806],[79.2509,30.5619],[79.3502,30.6514],[79.2775,30.726],[79.0317,30.8066]]]},"properties":{"district":"RUDRAPRAY>G"}},
{"type":"Feature","geometry":{"type":"Polygon","coordinates":[[[79.9917,30.3138],[80.0682,30.2811],[80.1081,30.1991],[80.0675,30.0195],[80.1469,29.8991],[80.0265,29.8969],[80.0341,29.7816],[79.9033,29.7968],[79.8972,29.7035],[79.9589,29.6564],[79.9992,29.5606],[80.0783,29.5216],[80.1008,29.5238],[80.245,29.4426],[80.3481,29.5427],[80.423,29.6356],[80.3685,29.7318],[80.4948,29.7962],[80.5709,29.9231],[80.7426,30.0021],[80.8731,30.1305],[80.8662,30.1719],[81.0412,30.1985],[81.0067,30.2649],[80.824,30.3143],[80.7503,30.3925],[80.5972,30.4816],[80.5027,30.4834],[80.3203,30.5611],[80.2241,30.5766],[80.2507,30.732],[80.181,30.8015],[80.1,30.7862],[80.1023,30.7223],[79.9791,30.7052],[80.0408,30.6013],[79.9952,30.5379],[80.0365,30.4034],[79.9917,30.3138]]]},"properties":{"district":"PITHOR>GARH"}},
{"type":"Feature","geometry":{"type":"Polygon","coordinates":[[[79.7976,30.2811],[79.8189,30.2225],[79.7628,30.1357],[79.8127,30.0217],[79.6335,30.0172],[79.4759,30.0061],[79.472,29.9812],[79.5103,29.8719],[79.646,29.8161],[79.7373,29.7171],[79.8972,29.7035],[79.9033,29.7968],[80.0341,29.7816],[80.0265,29.8969],[80.1469,29.8991],[80.0675,30.0195],[80.1081,30.1991],[80.0682,30.2811],[79.9917,30.3138],[79.8717,30.2679],[79.7976,30.2811]]]},"properties":{"district":"B>GESHWAR"}},
{"type":"Feature","geometry":{"type":"Polygon","coordinates":[[[77.9427,30.2397],[77.7753,30.0369],[77.7791,30.0176],[77.7183,29.8649],[77.7536,29.8269],[77.8099,29.7016],[77.8202,29.6735],[77.9481,29.7107],[77.9741,29.5782],[77.9983,29.5413],[78.1125,29.6419],[78.1314,29.6447],[78.2424,29.6984],[78.3424,29.79],[78.3435,29.7915],[78.3155,29.8616],[78.2026,29.9656],[78.1906,29.9653],[78.1575,29.9689],[78.064,30.0816],[78.0358,30.1068],[78.0066,30.1722],[77.947,30.2411],[77.9427,30.2397]]]},"properties":{"district":"HARIDW>R"}},
{"type":"Feature","geometry":{"type":"Polygon","coordinates":[[[79.044,30.2147],[78.99,30.1837],[78.894,30.2525],[78.7525,30.2149],[78.6784,30.212],[78.6048,30.1455],[78.5978,30.0652],[78.4511,30.0691],[78.3918,30.1352],[78.3094,30.1147],[78.2026,29.9656],[78.3155,29.8616],[78.3435,29.7915],[78.439,29.755],[78.496,29.7346],[78.5811,29.5852],[78.7051,29.5013],[78.921,29.4342],[79.0006,29.5651],[79.0374,29.5849],[79.1151,29.6906],[79.1018,29.8381],[79.0866,29.8913],[79.2251,29.9793],[79.1935,30.0839],[79.0779,30.2193],[79.044,30.2147]]]},"properties":{"district":"PAURI GARHW>L"}},
{"type":"Feature","geometry":{"type":"Polygon","coordinates":[[[79.2251,29.9793],[79.0866,29.8913],[79.1018,29.8381],[79.1151,29.6906],[79.0374,29.5849],[79.1695,29.535],[79.2643,29.563],[79.3317,29.6129],[79.4438,29.5236],[79.5243,29.5275],[79.5331,29.5467],[79.6659,29.5375],[79.6846,29.5204],[79.7335,29.433],[79.8485,29.4322],[79.8869,29.4838],[80.0011,29.485],[80.0783,29.5216],[79.9992,29.5606],[79.9589,29.6564],[79.8972,29.7035],[79.7373,29.7171],[79.646,29.8161],[79.5103,29.8719],[79.472,29.9812],[79.425,29.9339],[79.2835,29.9256],[79.2251,29.9793]]]},"properties":{"district":"ALMORA"}},
{"type":"Feature","geometry":{"type":"Polygon","coordinates":[[[79.1695,29.535],[79.0374,29.5849],[79.0006,29.5651],[78.921,29.4342],[78.8561,29.3499],[78.9924,29.3123],[79.048,29.2606],[79.1386,29.2737],[79.226,29.2464],[79.2755,29.1622],[79.3609,29.0949],[79.4124,29.0545],[79.4245,29.0509],[79.6074,29.0512],[79.6987,29.0416],[79.8723,28.9799],[79.9735,29.0546],[79.8798,29.1561],[79.9083,29.1981],[79.8559,29.2769],[79.8485,29.4322],[79.7335,29.433],[79.6846,29.5204],[79.6659,29.5375],[79.5331,29.5467],[79.5243,29.5275],[79.4438,29.5236],[79.3317,29.6129],[79.2643,29.563],[79.1695,29.535]]]},"properties":{"district":"NAINIT>L"}},
{"type":"Feature","geometry":{"type":"Polygon","coordinates":[[[80.0783,29.5216],[80.0011,29.485],[79.8869,29.4838],[79.8485,29.4322],[79.8559,29.2769],[79.9083,29.1981],[79.8798,29.1561],[79.9735,29.0546],[80.0306,29.0776],[80.0744,28.9347],[80.1196,28.9854],[80.1507,29.1047],[80.2725,29.1451],[80.2631,29.2106],[80.3179,29.304],[80.245,29.4426],[80.1008,29.5238],[80.0783,29.5216]]]},"properties":{"district":"CHAMP>WAT"}},
{"type":"Feature","geometry":{"type":"Polygon","coordinates":[[[78.8561,29.3499],[78.7664,29.3375],[78.7712,29.2645],[78.8835,29.2115],[78.9325,29.1268],[78.9741,29.13],[79.1039,29.1328],[79.1657,29.0201],[79.2485,29.0052],[79.2524,28.9992],[79.416,28.943],[79.4223,28.9012],[79.554,28.8942],[79.5841,28.8463],[79.6835,28.85],[79.7262,28.8608],[79.822,28.8863],[79.8105,28.7988],[79.863,28.8404],[80.0066,28.7411],[80.0651,28.8362],[80.0744,28.9347],[80.0306,29.0776],[79.9735,29.0546],[79.8723,28.9799],[79.6987,29.0416],[79.6074,29.0512],[79.4245,29.0509],[79.4124,29.0545],[79.3609,29.0949],[79.2755,29.1622],[79.226,29.2464],[79.1386,29.2737],[79.048,29.2606],[78.9924,29.3123],[78.8561,29.3499]]]},"properties":{"district":"UDHAM SINGH NAGAR"}}
]}