{"type":"FeatureCollection","features":[{"type":"Feature","geometry":{"type":"Polygon","coordinates":[[[75.0014,12.7919],[74.8697,12.7608],[74.9538,12.5584],[74.9756,12.5708],[75.0821,12.6296],[75.1477,12.6344],[75.0521,12.7133],[74.9874,12.7423],[75.0014,12.7919]]]},"properties":{"AC_NO":1,"AC_NAME":"Ma njeshwar","PC_NO":1,"PC_NAME":"KASARAGOD","district":"Kasaragod"}},{"type":"Feature","geometry":{"type":"Polygon","coordinates":[[[74.9756,12.5708],[74.9919,12.4669],[75.0632,12.4937],[75.114,12.5382],[75.1596,12.5273],[75.2238,12.5704],[75.1477,12.6344],[75.0821,12.6296],[74.9756,12.5708]]]},"properties":{"AC_NO":2,"AC_NAME":"Kasaragod","PC_NO":1,"PC_NAME":"KASARAGOD","district":"Kasaragod"}},{"type":"Feature","geometry":{"type":"Polygon","coordinates":[[[74.9919,12.4669],[75.0519,12.365],[75.1154,12.3485],[75.1704,12.428],[75.2718,12.4589],[75.3146,12.4985],[75.2794,12.5258],[75.2789,12.6166],[75.2238,12.5704],[75.1596,12.5273],[75.114,12.5382],[75.0632,12.4937],[74.9919,12.4669]]]},"properties":{"AC_NO":3,"AC_NAME":"Udma","PC_NO":1,"PC_NAME":"KASARAGOD","district":"Kasaragod"}},{"type":"Feature","geometry":{"type":"Polygon","coordinates":[[[75.0519,12.365],[75.104,12.2424],[75.1403,12.2785],[75.2255,12.268],[75.2681,12.2871],[75.2961,12.3628],[75.4105,12.3467],[75.3713,12.4379],[75.4162,12.501],[75.3456,12.4628],[75.3146,12.4985],[75.2718,12.4589],[75.1704,12.428],[75.1154,12.3485],[75.0519,12.365]]]},"properties":{"AC_NO":4,"AC_NAME":"Kanhangad","PC_NO":1,"PC_NAME":"KASARAGOD","district":"Kasaragod"}},{"type":"Feature","geometry":{"type":"Polygon","coordinates":[[[75.104,12.2424],[75.1647,12.0914],[75.1903,12.0974],[75.204,12.1916],[75.2872,12.2601],[75.4144,12.2928],[75.4105,12.3467],[75.2961,12.3628],[75.2681,12.2871],[75.2255,12.268],[75.1403,12.2785],[75.104,12.2424]]]},"properties":{"AC_NO":5,"AC_NAME":"Trikaripur","PC_NO":1,"PC_NAME":"KASARAGOD","district":"Kasaragod"}},{"type":"Feature","geometry":{"type":"Polygon","coordinates":[[[75.1647,12.0914],[75.228,12.023],[75.2188,12.1052],[75.3941,12.1504],[75.3948,12.153],[75.3722,12.2002],[75.4931,12.2742],[75.4144,12.2928],[75.2872,12.2601],[75.204,12.1916],[75.1903,12.0974],[75.1647,12.0914]]]},"properties":{"AC_NO":6,"AC_NAME":"Payyannur","PC_NO":1,"PC_NAME":"KASARAGOD","district":"Kannur"}},{"type":"Feature","geometry":{"type":"Polygon","coordinates":[[[75.3948,12.153],[75.4378,12.1519],[75.4291,12.0376],[75.513,11.992],[75.5943,12.0422],[75.6605,12.0207],[75.7148,12.0705],[75.6358,12.1492],[75.577,12.1578],[75.4931,12.2742],[75.3722,12.2002],[75.3948,12.153]]]},"properties":{"AC_NO":9,"AC_NAME":"Irikkur","PC_NO":2,"PC_NAME":"KANNUR","district":"Kannur"}},{"type":"Feature","geometry":{"type":"Polygon","coordinates":[[[75.3941,12.1504],[75.3143,12.0936],[75.3764,11.9747],[75.4133,11.9194],[75.4618,11.9305],[75.513,11.992],[75.4291,12.0376],[75.4378,12.1519],[75.3948,12.153],[75.3941,12.1504]]]},"properties":{"AC_NO":8,"AC_NAME":"Taliparamba","PC_NO":2,"PC_NAME":"KANNUR","district":"Kannur"}},{"type":"Feature","geometry":{"type":"Polygon","coordinates":[[[75.228,12.023],[75.3047,11.9492],[75.3764,11.9747],[75.3143,12.0936],[75.3941,12.1504],[75.2188,12.1052],[75.228,12.023]]]},"properties":{"AC_NO":7,"AC_NAME":"Kalliasseri","PC_NO":1,"PC_NAME":"KASARAGOD","district":"Kannur"}},{"type":"Feature","geometry":{"type":"Polygon","coordinates":[[[75.6605,12.0207],[75.6435,11.9889],[75.6954,11.8916],[75.7499,11.8532],[75.8053,11.8503],[75.9179,11.8449],[75.9403,11.9436],[75.8707,11.9523],[75.8009,12.0365],[75.8023,12.0791],[75.7148,12.0705],[75.6605,12.0207]]]},"properties":{"AC_NO":16,"AC_NAME":"Peravoor","PC_NO":2,"PC_NAME":"KANNUR","district":"Kannur"}},{"type":"Feature","geometry":{"type":"Polygon","coordinates":[[[75.513,11.992],[75.4618,11.9305],[75.4858,11.9071],[75.5331,11.8397],[75.6007,11.8224],[75.7499,11.8532],[75.6954,11.8916],[75.6435,11.9889],[75.6605,12.0207],[75.5943,12.0422],[75.513,11.992]]]},"properties":{"AC_NO":15,"AC_NAME":"Mattannur","PC_NO":2,"PC_NAME":"KANNUR","district":"Kannur"}},{"type":"Feature","geometry":{"type":"Polygon","coordinates":[[[75.3764,11.9747],[75.3047,11.9492],[75.3534,11.8709],[75.4133,11.9194],[75.3764,11.9747]]]},"properties":{"AC_NO":10,"AC_NAME":"Azhikode","PC_NO":2,"PC_NAME":"KANNUR","district":"Kannur"}},{"type":"Feature","geometry":{"type":"Polygon","coordinates":[[[75.8053,11.8503],[75.7729,11.8027],[75.8506,11.7029],[75.9151,11.6907],[76.0841,11.7404],[76.1187,11.7402],[76.0755,11.7933],[76.1212,11.851],[76.1124,11.9791],[76.003,11.9314],[75.9403,11.9436],[75.9179,11.8449],[75.8053,11.8503]]]},"properties":{"AC_NO":17,"AC_NAME":"Mananthavady (ST)","PC_NO":4,"PC_NAME":"WAYANAD","district":"Wayanad"}},{"type":"Feature","geometry":{"type":"Polygon","coordinates":[[[75.4133,11.9194],[75.3534,11.8709],[75.433,11.8094],[75.4357,11.8743],[75.4858,11.9071],[75.4618,11.9305],[75.4133,11.9194]]]},"properties":{"AC_NO":11,"AC_NAME":"Kannur","PC_NO":2,"PC_NAME":"KANNUR","district":"Kannur"}},{"type":"Feature","geometry":{"type":"Polygon","coordinates":[[[75.4858,11.9071],[75.4357,11.8743],[75.433,11.8094],[75.4715,11.7704],[75.5318,11.8008],[75.5331,11.8397],[75.4858,11.9071]]]},"properties":{"AC_NO":12,"AC_NAME":"Dharmadam","PC_NO":2,"PC_NAME":"KANNUR","district":"Kannur"}},{"type":"Feature","geometry":{"type":"Polygon","coordinates":[[[75.7499,11.8532],[75.6007,11.8224],[75.5331,11.8397],[75.5318,11.8008],[75.5715,11.7637],[75.5637,11.6938],[75.6006,11.6869],[75.6917,11.7998],[75.7729,11.8027],[75.8053,11.8503],[75.7499,11.8532]]]},"properties":{"AC_NO":14,"AC_NAME":"Kuthuparamba","PC_NO":3,"PC_NAME":"VADAKARA","district":"Kannur"}},{"type":"Feature","geometry":{"type":"Polygon","coordinates":[[[76.1187,11.7402],[76.1827,11.5615],[76.234,11.5686],[76.2649,11.5938],[76.3776,11.6019],[76.4309,11.6665],[76.414,11.7589],[76.3393,11.7391],[76.2801,11.8115],[76.2075,11.8617],[76.1212,11.851],[76.0755,11.7933],[76.1187,11.7402]]]},"properties":{"AC_NO":18,"AC_NAME":"Sulthanbathery (S","PC_NO":4,"PC_NAME":"WAYANAD","district":"Wayanad"}},{"type":"Feature","geometry":{"type":"Polygon","coordinates":[[[75.4715,11.7704],[75.5306,11.704],[75.5443,11.7046],[75.5637,11.6938],[75.5715,11.7637],[75.5318,11.8008],[75.4715,11.7704]]]},"properties":{"AC_NO":13,"AC_NAME":"Thalassery","PC_NO":3,"PC_NAME":"VADAKARA","district":"Kannur"}},{"type":"Feature","geometry":{"type":"Polygon","coordinates":[[[75.7729,11.8027],[75.6917,11.7998],[75.6006,11.6869],[75.62,11.6534],[75.7292,11.6952],[75.7567,11.6511],[75.7849,11.6245],[75.9027,11.6789],[75.9151,11.6907],[75.8506,11.7029],[75.7729,11.8027]]]},"properties":{"AC_NO":22,"AC_NAME":"Nadapuram","PC_NO":3,"PC_NAME":"VADAKARA","district":"Kozhikode"}},{"type":"Feature","geometry":{"type":"Polygon","coordinates":[[[75.9151,11.6907],[75.9027,11.6789],[75.9012,11.617],[75.9804,11.541],[76.1429,11.4518],[76.2378,11.5275],[76.234,11.5686],[76.1827,11.5615],[76.1187,11.7402],[76.0841,11.7404],[75.9151,11.6907]]]},"properties":{"AC_NO":19,"AC_NAME":"Kalpetta","PC_NO":4,"PC_NAME":"WAYANAD","district":"Wayanad"}},{"type":"Feature","geometry":{"type":"Polygon","coordinates":[[[75.5637,11.6938],[75.5443,11.7046],[75.5366,11.6939],[75.5906,11.5618],[75.6148,11.5661],[75.62,11.6534],[75.6006,11.6869],[75.5637,11.6938]]]},"properties":{"AC_NO":20,"AC_NAME":"Vadakara","PC_NO":3,"PC_NAME":"VADAKARA","district":"Kozhikode"}},{"type":"Feature","geometry":{"type":"Polygon","coordinates":[[[75.62,11.6534],[75.6148,11.5661],[75.6476,11.5292],[75.7567,11.6511],[75.7292,11.6952],[75.62,11.6534]]]},"properties":{"AC_NO":21,"AC_NAME":"Kuttiadi","PC_NO":3,"PC_NAME":"VADAKARA","district":"Kozhikode"}},{"type":"Feature","geometry":{"type":"Polygon","coordinates":[[[75.7567,11.6511],[75.6476,11.5292],[75.7294,11.4458],[75.7363,11.507],[75.8213,11.5609],[75.8636,11.5547],[75.9012,11.617],[75.9027,11.6789],[75.7849,11.6245],[75.7567,11.6511]]]},"properties":{"AC_NO":24,"AC_NAME":"Perambra","PC_NO":3,"PC_NAME":"VADAKARA","district":"Kozhikode"}},{"type":"Feature","geometry":{"type":"Polygon","coordinates":[[[75.9012,11.617],[75.8636,11.5547],[75.8213,11.5609],[75.7363,11.507],[75.7294,11.4458],[75.7472,11.3682],[75.7835,11.4188],[75.8578,11.407],[75.9804,11.541],[75.9012,11.617]]]},"properties":{"AC_NO":25,"AC_NAME":"Balusseri (SC)","PC_NO":5,"PC_NAME":"KOZHIKODE","district":"Kozhikode"}},{"type":"Feature","geometry":{"type":"Polygon","coordinates":[[[75.5906,11.5618],[75.6186,11.4875],[75.6807,11.4509],[75.732,11.3562],[75.7472,11.3682],[75.7294,11.4458],[75.6476,11.5292],[75.6148,11.5661],[75.5906,11.5618]]]},"properties":{"AC_NO":23,"AC_NAME":"Quilandy","PC_NO":3,"PC_NAME":"VADAKARA","district":"Kozhikode"}},{"type":"Feature","geometry":{"type":"Polygon","coordinates":[[[75.8578,11.407],[75.8377,11.3439],[75.8734,11.3241],[75.9603,11.3488],[75.9723,11.427],[75.9284,11.4529],[75.9804,11.541],[75.8578,11.407]]]},"properties":{"AC_NO":31,"AC_NAME":"Koduvally","PC_NO":5,"PC_NAME":"KOZHIKODE","district":"Kozhikode"}},{"type":"Feature","geometry":{"type":"Polygon","coordinates":[[[75.9804,11.541],[75.9284,11.4529],[75.9723,11.427],[75.9603,11.3488],[75.977,11.2678],[75.9958,11.2544],[76.0493,11.2674],[76.1165,11.3376],[76.0996,11.396],[76.1429,11.4518],[75.9804,11.541]]]},"properties":{"AC_NO":32,"AC_NAME":"Thiruvambadi","PC_NO":4,"PC_NAME":"WAYANAD","district":"Kozhikode"}},{"type":"Feature","geometry":{"type":"Polygon","coordinates":[[[76.1429,11.4518],[76.0996,11.396],[76.1165,11.3376],[76.1465,11.3862],[76.2036,11.355],[76.2029,11.2664],[76.2706,11.215],[76.3519,11.2435],[76.45,11.2129],[76.5219,11.272],[76.5497,11.3316],[76.5172,11.3695],[76.462,11.3875],[76.3712,11.4544],[76.2644,11.4809],[76.2378,11.5275],[76.1429,11.4518]]]},"properties":{"AC_NO":35,"AC_NAME":"Nilambur","PC_NO":4,"PC_NAME":"WAYANAD","district":"Malappuram"}},{"type":"Feature","geometry":{"type":"Polygon","coordinates":[[[75.7472,11.3682],[75.732,11.3562],[75.7517,11.3091],[75.8559,11.3014],[75.8734,11.3241],[75.8377,11.3439],[75.8578,11.407],[75.7835,11.4188],[75.7472,11.3682]]]},"properties":{"AC_NO":26,"AC_NAME":"Elathur","PC_NO":5,"PC_NAME":"KOZHIKODE","district":"Kozhikode"}},{"type":"Feature","geometry":{"type":"Polygon","coordinates":[[[75.9958,11.2544],[76.0188,11.1966],[75.9879,11.1513],[76.0436,11.1801],[76.0979,11.1646],[76.1543,11.1837],[76.2029,11.2664],[76.2036,11.355],[76.1465,11.3862],[76.1165,11.3376],[76.0493,11.2674],[75.9958,11.2544]]]},"properties":{"AC_NO":34,"AC_NAME":"Ernad","PC_NO":4,"PC_NAME":"WAYANAD","district":"Malappuram"}},{"type":"Feature","geometry":{"type":"Polygon","coordinates":[[[75.8734,11.3241],[75.8559,11.3014],[75.8513,11.2705],[75.8097,11.2181],[75.8577,11.2079],[75.977,11.2678],[75.9603,11.3488],[75.8734,11.3241]]]},"properties":{"AC_NO":30,"AC_NAME":"Kunnamangalam","PC_NO":5,"PC_NAME":"KOZHIKODE","district":"Kozhikode"}},{"type":"Feature","geometry":{"type":"Polygon","coordinates":[[[75.7517,11.3091],[75.7715,11.2501],[75.8513,11.2705],[75.8559,11.3014],[75.7517,11.3091]]]},"properties":{"AC_NO":27,"AC_NAME":"Kozhikode North","PC_NO":5,"PC_NAME":"KOZHIKODE","district":"Kozhikode"}},{"type":"Feature","geometry":{"type":"Polygon","coordinates":[[[75.8513,11.2705],[75.7715,11.2501],[75.7857,11.2095],[75.8097,11.2181],[75.8513,11.2705]]]},"properties":{"AC_NO":28,"AC_NAME":"Kozhikode South","PC_NO":5,"PC_NAME":"KOZHIKODE","district":"Kozhikode"}},{"type":"Feature","geometry":{"type":"Polygon","coordinates":[[[75.977,11.2678],[75.8577,11.2079],[75.8882,11.1787],[75.9631,11.1179],[76.0124,11.1033],[75.9879,11.1513],[76.0188,11.1966],[75.9958,11.2544],[75.977,11.2678]]]},"properties":{"AC_NO":33,"AC_NAME":"Kondotty","PC_NO":6,"PC_NAME":"MALAPPURAM","district":"Malappuram"}},{"type":"Feature","geometry":{"type":"Polygon","coordinates":[[[76.2029,11.2664],[76.1543,11.1837],[76.3105,11.0762],[76.3463,11.0887],[76.4121,11.1158],[76.4426,11.2039],[76.45,11.2129],[76.3519,11.2435],[76.2706,11.215],[76.2029,11.2664]]]},"properties":{"AC_NO":36,"AC_NAME":"Wandoor (SC)","PC_NO":4,"PC_NAME":"WAYANAD","district":"Malappuram"}},{"type":"Feature","geometry":{"type":"Polygon","coordinates":[[[75.8097,11.2181],[75.7857,11.2095],[75.8261,11.1245],[75.8882,11.1787],[75.8577,11.2079],[75.8097,11.2181]]]},"properties":{"AC_NO":29,"AC_NAME":"Beypore","PC_NO":5,"PC_NAME":"KOZHIKODE","district":"Kozhikode"}},{"type":"Feature","geometry":{"type":"Polygon","coordinates":[[[76.3463,11.0887],[76.2949,11.0505],[76.3632,10.9757],[76.4717,10.9403],[76.473,10.9976],[76.5234,11.0248],[76.5423,10.9295],[76.5712,10.9204],[76.6593,10.9306],[76.7109,11.039],[76.8001,11.0551],[76.7475,11.1177],[76.6928,11.1723],[76.7067,11.2381],[76.6292,11.194],[76.4426,11.2039],[76.4121,11.1158],[76.3463,11.0887]]]},"properties":{"AC_NO":54,"AC_NAME":"Mannarkkad","PC_NO":8,"PC_NAME":"PALAKKAD","district":"Palakkad"}},{"type":"Feature","geometry":{"type":"Polygon","coordinates":[[[76.0979,11.1646],[76.1113,11.0961],[76.2006,11.0933],[76.1834,11.0503],[76.2234,11.0119],[76.2949,11.0505],[76.3463,11.0887],[76.3105,11.0762],[76.1543,11.1837],[76.0979,11.1646]]]},"properties":{"AC_NO":37,"AC_NAME":"Manjeri","PC_NO":6,"PC_NAME":"MALAPPURAM","district":"Malappuram"}},{"type":"Feature","geometry":{"type":"Polygon","coordinates":[[[75.9879,11.1513],[76.0124,11.1033],[76.0414,11.0402],[76.0917,10.9986],[76.1042,11.0691],[76.1834,11.0503],[76.2006,11.0933],[76.1113,11.0961],[76.0979,11.1646],[76.0436,11.1801],[75.9879,11.1513]]]},"properties":{"AC_NO":40,"AC_NAME":"Malappuram","PC_NO":6,"PC_NAME":"MALAPPURAM","district":"Malappuram"}},{"type":"Feature","geometry":{"type":"Polygon","coordinates":[[[75.8882,11.1787],[75.8261,11.1245],[75.8413,11.0825],[75.9079,11.0523],[75.9631,11.1179],[75.8882,11.1787]]]},"properties":{"AC_NO":42,"AC_NAME":"Vallikunnu","PC_NO":6,"PC_NAME":"MALAPPURAM","district":"Malappuram"}},{"type":"Feature","geometry":{"type":"Polygon","coordinates":[[[75.9631,11.1179],[75.9079,11.0523],[75.987,11.0016],[76.0414,11.0402],[76.0124,11.1033],[75.9631,11.1179]]]},"properties":{"AC_NO":41,"AC_NAME":"Vengara","PC_NO":6,"PC_NAME":"MALAPPURAM","district":"Malappuram"}},{"type":"Feature","geometry":{"type":"Polygon","coordinates":[[[75.8413,11.0825],[75.8582,11.0186],[75.8894,11.0223],[75.9632,10.9613],[76.0078,10.9698],[75.987,11.0016],[75.9079,11.0523],[75.8413,11.0825]]]},"properties":{"AC_NO":43,"AC_NAME":"Tirurangadi","PC_NO":7,"PC_NAME":"PONNANI","district":"Malappuram"}},{"type":"Feature","geometry":{"type":"Polygon","coordinates":[[[76.1834,11.0503],[76.1042,11.0691],[76.0917,10.9986],[76.0713,10.9677],[76.1317,10.8966],[76.1616,10.9122],[76.2234,11.0119],[76.1834,11.0503]]]},"properties":{"AC_NO":39,"AC_NAME":"Mankada","PC_NO":6,"PC_NAME":"MALAPPURAM","district":"Malappuram"}},{"type":"Feature","geometry":{"type":"Polygon","coordinates":[[[76.2949,11.0505],[76.2234,11.0119],[76.1616,10.9122],[76.2535,10.8876],[76.3352,10.9061],[76.3632,10.9757],[76.2949,11.0505]]]},"properties":{"AC_NO":38,"AC_NAME":"Perinthalmanna","PC_NO":6,"PC_NAME":"MALAPPURAM","district":"Malappuram"}},{"type":"Feature","geometry":{"type":"Polygon","coordinates":[[[76.0414,11.0402],[75.987,11.0016],[76.0078,10.9698],[76.0441,10.8944],[75.995,10.8624],[76.0323,10.8315],[76.1029,10.8597],[76.1317,10.8966],[76.0713,10.9677],[76.0917,10.9986],[76.0414,11.0402]]]},"properties":{"AC_NO":46,"AC_NAME":"Kottakkal","PC_NO":7,"PC_NAME":"PONNANI","district":"Malappuram"}},{"type":"Feature","geometry":{"type":"Polygon","coordinates":[[[75.8582,11.0186],[75.8839,10.9127],[75.9632,10.9613],[75.8894,11.0223],[75.8582,11.0186]]]},"properties":{"AC_NO":44,"AC_NAME":"Tanur","PC_NO":7,"PC_NAME":"PONNANI","district":"Malappuram"}},{"type":"Feature","geometry":{"type":"Polygon","coordinates":[[[76.4717,10.9403],[76.5111,10.9111],[76.4609,10.8594],[76.4538,10.7827],[76.4892,10.7641],[76.5639,10.7794],[76.5902,10.7993],[76.5327,10.8278],[76.5321,10.8777],[76.5712,10.9204],[76.5423,10.9295],[76.5234,11.0248],[76.473,10.9976],[76.4717,10.9403]]]},"properties":{"AC_NO":53,"AC_NAME":"Kongad(SC)","PC_NO":8,"PC_NAME":"PALAKKAD","district":"Palakkad"}},{"type":"Feature","geometry":{"type":"Polygon","coordinates":[[[75.9632,10.9613],[75.8839,10.9127],[75.8938,10.8676],[75.995,10.8624],[76.0441,10.8944],[76.0078,10.9698],[75.9632,10.9613]]]},"properties":{"AC_NO":45,"AC_NAME":"Tirur","PC_NO":7,"PC_NAME":"PONNANI","district":"Malappuram"}},{"type":"Feature","geometry":{"type":"Polygon","coordinates":[[[76.3632,10.9757],[76.3352,10.9061],[76.398,10.9095],[76.3572,10.7854],[76.3657,10.7638],[76.4725,10.7495],[76.4892,10.7641],[76.4538,10.7827],[76.4609,10.8594],[76.5111,10.9111],[76.4717,10.9403],[76.3632,10.9757]]]},"properties":{"AC_NO":52,"AC_NAME":"Ottappalam","PC_NO":8,"PC_NAME":"PALAKKAD","district":"Palakkad"}},{"type":"Feature","geometry":{"type":"Polygon","coordinates":[[[76.2535,10.8876],[76.2751,10.8258],[76.2402,10.7735],[76.3548,10.7431],[76.3657,10.7638],[76.3572,10.7854],[76.398,10.9095],[76.3352,10.9061],[76.2535,10.8876]]]},"properties":{"AC_NO":51,"AC_NAME":"Shornur","PC_NO":8,"PC_NAME":"PALAKKAD","district":"Palakkad"}},{"type":"Feature","geometry":{"type":"Polygon","coordinates":[[[76.1317,10.8966],[76.1029,10.8597],[76.1889,10.7825],[76.2402,10.7735],[76.2751,10.8258],[76.2535,10.8876],[76.1616,10.9122],[76.1317,10.8966]]]},"properties":{"AC_NO":50,"AC_NAME":"Pattambi","PC_NO":8,"PC_NAME":"PALAKKAD","district":"Palakkad"}},{"type":"Feature","geometry":{"type":"Polygon","coordinates":[[[76.5712,10.9204],[76.5321,10.8777],[76.5327,10.8278],[76.5902,10.7993],[76.6782,10.7991],[76.6956,10.7201],[76.8018,10.7552],[76.8505,10.8189],[76.8125,10.8769],[76.7412,10.8903],[76.6593,10.9306],[76.5712,10.9204]]]},"properties":{"AC_NO":55,"AC_NAME":"Malampuzha","PC_NO":8,"PC_NAME":"PALAKKAD","district":"Palakkad"}},{"type":"Feature","geometry":{"type":"Polygon","coordinates":[[[75.995,10.8624],[75.8938,10.8676],[75.9129,10.786],[75.9584,10.8141],[75.9876,10.739],[76.0392,10.7673],[76.0323,10.8315],[75.995,10.8624]]]},"properties":{"AC_NO":47,"AC_NAME":"Thavanur","PC_NO":7,"PC_NAME":"PONNANI","district":"Malappuram"}},{"type":"Feature","geometry":{"type":"Polygon","coordinates":[[[76.0323,10.8315],[76.0392,10.7673],[76.0693,10.7304],[76.1613,10.707],[76.1889,10.7825],[76.1029,10.8597],[76.0323,10.8315]]]},"properties":{"AC_NO":49,"AC_NAME":"Thrithala","PC_NO":7,"PC_NAME":"PONNANI","district":"Palakkad"}},{"type":"Feature","geometry":{"type":"Polygon","coordinates":[[[75.9129,10.786],[75.9566,10.6866],[76.0071,10.6897],[76.0693,10.7304],[76.0392,10.7673],[75.9876,10.739],[75.9584,10.8141],[75.9129,10.786]]]},"properties":{"AC_NO":48,"AC_NAME":"Ponnani","PC_NO":7,"PC_NAME":"PONNANI","district":"Malappuram"}},{"type":"Feature","geometry":{"type":"Polygon","coordinates":[[[76.6956,10.7201],[76.6515,10.7261],[76.6509,10.7036],[76.727,10.636],[76.8145,10.6358],[76.8785,10.6717],[76.9042,10.7725],[76.8505,10.8189],[76.8018,10.7552],[76.6956,10.7201]]]},"properties":{"AC_NO":58,"AC_NAME":"Chittur","PC_NO":9,"PC_NAME":"ALATHUR (SC)","district":"Palakkad"}},{"type":"Feature","geometry":{"type":"Polygon","coordinates":[[[76.5639,10.7794],[76.5689,10.7281],[76.6515,10.7261],[76.6956,10.7201],[76.6782,10.7991],[76.5902,10.7993],[76.5639,10.7794]]]},"properties":{"AC_NO":56,"AC_NAME":"Palakkad","PC_NO":8,"PC_NAME":"PALAKKAD","district":"Palakkad"}},{"type":"Feature","geometry":{"type":"Polygon","coordinates":[[[76.3657,10.7638],[76.3548,10.7431],[76.2402,10.7735],[76.1889,10.7825],[76.1613,10.707],[76.2439,10.6878],[76.3126,10.6313],[76.2967,10.5982],[76.3598,10.6208],[76.4028,10.591],[76.4725,10.7495],[76.3657,10.7638]]]},"properties":{"AC_NO":61,"AC_NAME":"Chelakkara (SC)","PC_NO":9,"PC_NAME":"ALATHUR (SC)","district":"Thrissur"}},{"type":"Feature","geometry":{"type":"Polygon","coordinates":[[[76.4892,10.7641],[76.4725,10.7495],[76.4028,10.591],[76.4391,10.5572],[76.5025,10.5906],[76.5689,10.7281],[76.5639,10.7794],[76.4892,10.7641]]]},"properties":{"AC_NO":57,"AC_NAME":"Tarur (SC)","PC_NO":9,"PC_NAME":"ALATHUR (SC)","district":"Palakkad"}},{"type":"Feature","geometry":{"type":"Polygon","coordinates":[[[76.0693,10.7304],[76.0071,10.6897],[76.0593,10.6078],[76.1444,10.6215],[76.2439,10.6878],[76.1613,10.707],[76.0693,10.7304]]]},"properties":{"AC_NO":62,"AC_NAME":"Kunnamkulam","PC_NO":9,"PC_NAME":"ALATHUR (SC)","district":"Thrissur"}},{"type":"Feature","geometry":{"type":"Polygon","coordinates":[[[76.6515,10.7261],[76.5689,10.7281],[76.5025,10.5906],[76.4391,10.5572],[76.479,10.4865],[76.5825,10.4372],[76.5993,10.4736],[76.5392,10.5475],[76.6109,10.6067],[76.6509,10.7036],[76.6515,10.7261]]]},"properties":{"AC_NO":60,"AC_NAME":"Alathur","PC_NO":9,"PC_NAME":"ALATHUR (SC)","district":"Palakkad"}},{"type":"Feature","geometry":{"type":"Polygon","coordinates":[[[75.9566,10.6866],[76.0531,10.4826],[76.0344,10.57],[76.0593,10.6078],[76.0071,10.6897],[75.9566,10.6866]]]},"properties":{"AC_NO":63,"AC_NAME":"Guruvayoor","PC_NO":10,"PC_NAME":"THRISSUR","district":"Thrissur"}},{"type":"Feature","geometry":{"type":"Polygon","coordinates":[[[76.2439,10.6878],[76.1444,10.6215],[76.1124,10.5908],[76.1482,10.5146],[76.2652,10.5848],[76.2967,10.5982],[76.3126,10.6313],[76.2439,10.6878]]]},"properties":{"AC_NO":65,"AC_NAME":"Wadakkanchery","PC_NO":9,"PC_NAME":"ALATHUR (SC)","district":"Thrissur"}},{"type":"Feature","geometry":{"type":"Polygon","coordinates":[[[76.6509,10.7036],[76.6109,10.6067],[76.5392,10.5475],[76.5993,10.4736],[76.5825,10.4372],[76.587,10.4364],[76.6232,10.3798],[76.7489,10.367],[76.8376,10.338],[76.8162,10.4237],[76.8388,10.5971],[76.8145,10.6358],[76.727,10.636],[76.6509,10.7036]]]},"properties":{"AC_NO":59,"AC_NAME":"Nemmara","PC_NO":9,"PC_NAME":"ALATHUR (SC)","district":"Palakkad"}},{"type":"Feature","geometry":{"type":"Polygon","coordinates":[[[76.0593,10.6078],[76.0344,10.57],[76.0531,10.4826],[76.0671,10.456],[76.1743,10.4809],[76.1482,10.5146],[76.1124,10.5908],[76.1444,10.6215],[76.0593,10.6078]]]},"properties":{"AC_NO":64,"AC_NAME":"Manalur","PC_NO":10,"PC_NAME":"THRISSUR","district":"Thrissur"}},{"type":"Feature","geometry":{"type":"Polygon","coordinates":[[[76.2967,10.5982],[76.2652,10.5848],[76.2286,10.4815],[76.2353,10.4564],[76.3311,10.474],[76.3608,10.4529],[76.479,10.4865],[76.4391,10.5572],[76.4028,10.591],[76.3598,10.6208],[76.2967,10.5982]]]},"properties":{"AC_NO":66,"AC_NAME":"Ollur","PC_NO":10,"PC_NAME":"THRISSUR","district":"Thrissur"}},{"type":"Feature","geometry":{"type":"Polygon","coordinates":[[[76.1482,10.5146],[76.1743,10.4809],[76.2286,10.4815],[76.2652,10.5848],[76.1482,10.5146]]]},"properties":{"AC_NO":67,"AC_NAME":"Thrissur","PC_NO":10,"PC_NAME":"THRISSUR","district":"Thrissur"}},{"type":"Feature","geometry":{"type":"Polygon","coordinates":[[[76.0671,10.456],[76.1102,10.3505],[76.149,10.3947],[76.2227,10.4044],[76.2353,10.4564],[76.2286,10.4815],[76.1743,10.4809],[76.0671,10.456]]]},"properties":{"AC_NO":68,"AC_NAME":"Nattika(SC)","PC_NO":10,"PC_NAME":"THRISSUR","district":"Thrissur"}},{"type":"Feature","geometry":{"type":"Polygon","coordinates":[[[76.479,10.4865],[76.3608,10.4529],[76.3311,10.474],[76.2353,10.4564],[76.2227,10.4044],[76.2882,10.3724],[76.4182,10.3634],[76.501,10.3832],[76.587,10.4364],[76.5825,10.4372],[76.479,10.4865]]]},"properties":{"AC_NO":71,"AC_NAME":"Puthukkad","PC_NO":10,"PC_NAME":"THRISSUR","district":"Thrissur"}},{"type":"Feature","geometry":{"type":"Polygon","coordinates":[[[76.587,10.4364],[76.501,10.3832],[76.4182,10.3634],[76.2882,10.3724],[76.3026,10.2913],[76.3581,10.237],[76.4466,10.2974],[76.6877,10.2673],[76.8096,10.2864],[76.9011,10.2519],[76.83,10.3039],[76.8376,10.338],[76.7489,10.367],[76.6232,10.3798],[76.587,10.4364]]]},"properties":{"AC_NO":72,"AC_NAME":"Chalakudy","PC_NO":11,"PC_NAME":"CHALAKUDY","district":"Thrissur"}},{"type":"Feature","geometry":{"type":"Polygon","coordinates":[[[76.149,10.3947],[76.1765,10.2885],[76.2314,10.312],[76.3026,10.2913],[76.2882,10.3724],[76.2227,10.4044],[76.149,10.3947]]]},"properties":{"AC_NO":70,"AC_NAME":"Irinjalakuda","PC_NO":10,"PC_NAME":"THRISSUR","district":"Thrissur"}},{"type":"Feature","geometry":{"type":"Polygon","coordinates":[[[76.1102,10.3505],[76.1671,10.1823],[76.1752,10.1865],[76.1794,10.1884],[76.2006,10.2579],[76.1765,10.2885],[76.149,10.3947],[76.1102,10.3505]]]},"properties":{"AC_NO":69,"AC_NAME":"Kaipamangalam","PC_NO":11,"PC_NAME":"CHALAKUDY","district":"Thrissur"}},{"type":"Feature","geometry":{"type":"Polygon","coordinates":[[[77.0509,10.2627],[76.9672,10.1605],[76.927,10.1791],[76.8668,10.0948],[76.7751,10.0603],[76.8397,10.0245],[76.9824,9.9512],[77.0578,9.9782],[77.1366,9.9898],[77.1683,10.0268],[77.2619,10.0219],[77.2013,10.1065],[77.2665,10.1218],[77.2881,10.2317],[77.2277,10.3164],[77.1765,10.3581],[77.0931,10.3115],[77.0509,10.2627]]]},"properties":{"AC_NO":88,"AC_NAME":"Devikulam (SC)","PC_NO":13,"PC_NAME":"IDUKKI","district":"Idukki"}},{"type":"Feature","geometry":{"type":"Polygon","coordinates":[[[76.3026,10.2913],[76.2314,10.312],[76.1765,10.2885],[76.2006,10.2579],[76.1794,10.1884],[76.2198,10.2071],[76.3121,10.1829],[76.3581,10.237],[76.3026,10.2913]]]},"properties":{"AC_NO":73,"AC_NAME":"Kodungallur","PC_NO":11,"PC_NAME":"CHALAKUDY","district":"Thrissur"}},{"type":"Feature","geometry":{"type":"Polygon","coordinates":[[[76.3581,10.237],[76.3121,10.1829],[76.3118,10.1815],[76.3279,10.1655],[76.3469,10.1883],[76.4389,10.163],[76.5563,10.1985],[76.6415,10.1616],[76.6877,10.2673],[76.4466,10.2974],[76.3581,10.237]]]},"properties":{"AC_NO":75,"AC_NAME":"Angamaly","PC_NO":11,"PC_NAME":"CHALAKUDY","district":"Ernakulam"}},{"type":"Feature","geometry":{"type":"Polygon","coordinates":[[[76.6877,10.2673],[76.6415,10.1616],[76.6416,10.1614],[76.5791,10.1375],[76.5568,10.0545],[76.6558,10.0195],[76.7696,10.0181],[76.8397,10.0245],[76.7751,10.0603],[76.8668,10.0948],[76.927,10.1791],[76.9672,10.1605],[77.0509,10.2627],[76.9826,10.2204],[76.9011,10.2519],[76.8096,10.2864],[76.6877,10.2673]]]},"properties":{"AC_NO":87,"AC_NAME":"Kothamangalam","PC_NO":13,"PC_NAME":"IDUKKI","district":"Ernakulam"}},{"type":"Feature","geometry":{"type":"Polygon","coordinates":[[[76.1752,10.1865],[76.2289,10.0721],[76.2808,10.0641],[76.2815,10.0731],[76.2611,10.1408],[76.3118,10.1815],[76.3121,10.1829],[76.2198,10.2071],[76.1794,10.1884],[76.1752,10.1865]]]},"properties":{"AC_NO":78,"AC_NAME":"Paravur","PC_NO":12,"PC_NAME":"ERNAKULAM","district":"Ernakulam"}},{"type":"Feature","geometry":{"type":"Polygon","coordinates":[[[76.1671,10.1823],[76.2207,9.9989],[76.2402,9.9746],[76.2696,9.9835],[76.2808,10.0641],[76.2289,10.0721],[76.1752,10.1865],[76.1671,10.1823]]]},"properties":{"AC_NO":79,"AC_NAME":"Vypeen","PC_NO":12,"PC_NAME":"ERNAKULAM","district":"Ernakulam"}},{"type":"Feature","geometry":{"type":"Polygon","coordinates":[[[76.3279,10.1655],[76.3465,10.0783],[76.3809,10.037],[76.4119,10.1145],[76.4519,10.122],[76.4389,10.163],[76.3469,10.1883],[76.3279,10.1655]]]},"properties":{"AC_NO":76,"AC_NAME":"Aluva","PC_NO":11,"PC_NAME":"CHALAKUDY","district":"Ernakulam"}},{"type":"Feature","geometry":{"type":"Polygon","coordinates":[[[76.4389,10.163],[76.4519,10.122],[76.4326,10.0869],[76.5446,10.0492],[76.5568,10.0545],[76.5791,10.1375],[76.6416,10.1614],[76.6415,10.1616],[76.5563,10.1985],[76.4389,10.163]]]},"properties":{"AC_NO":74,"AC_NAME":"Perumbavoor","PC_NO":11,"PC_NAME":"CHALAKUDY","district":"Ernakulam"}},{"type":"Feature","geometry":{"type":"Polygon","coordinates":[[[76.3118,10.1815],[76.2611,10.1408],[76.2815,10.0731],[76.2984,10.0488],[76.3501,9.9921],[76.3608,9.9916],[76.3809,10.037],[76.3465,10.0783],[76.3279,10.1655],[76.3118,10.1815]]]},"properties":{"AC_NO":77,"AC_NAME":"Kalamassery","PC_NO":12,"PC_NAME":"ERNAKULAM","district":"Ernakulam"}},{"type":"Feature","geometry":{"type":"Polygon","coordinates":[[[76.3809,10.037],[76.3608,9.9916],[76.379,9.9425],[76.4414,9.9199],[76.5063,9.9733],[76.5446,10.0492],[76.4326,10.0869],[76.4519,10.122],[76.4119,10.1145],[76.3809,10.037]]]},"properties":{"AC_NO":84,"AC_NAME":"Kunnathunad (SC)","PC_NO":11,"PC_NAME":"CHALAKUDY","district":"Ernakulam"}},{"type":"Feature","geometry":{"type":"Polygon","coordinates":[[[76.2808,10.0641],[76.2696,9.9835],[76.2897,9.9431],[76.2984,10.0488],[76.2815,10.0731],[76.2808,10.0641]]]},"properties":{"AC_NO":82,"AC_NAME":"Ernakulam","PC_NO":12,"PC_NAME":"ERNAKULAM","district":"Ernakulam"}},{"type":"Feature","geometry":{"type":"Polygon","coordinates":[[[76.5446,10.0492],[76.5063,9.9733],[76.5825,9.9119],[76.6096,9.8514],[76.6294,9.8559],[76.6301,9.9156],[76.6959,9.9092],[76.7085,9.9759],[76.7696,10.0181],[76.6558,10.0195],[76.5568,10.0545],[76.5446,10.0492]]]},"properties":{"AC_NO":86,"AC_NAME":"Muvattupuzha","PC_NO":13,"PC_NAME":"IDUKKI","district":"Ernakulam"}},{"type":"Feature","geometry":{"type":"Polygon","coordinates":[[[76.2984,10.0488],[76.2897,9.9431],[76.3008,9.9228],[76.3431,9.9804],[76.3501,9.9921],[76.2984,10.0488]]]},"properties":{"AC_NO":83,"AC_NAME":"Thrikkakara","PC_NO":12,"PC_NAME":"ERNAKULAM","district":"Ernakulam"}},{"type":"Feature","geometry":{"type":"Polygon","coordinates":[[[76.8397,10.0245],[76.7696,10.0181],[76.7085,9.9759],[76.6959,9.9092],[76.6301,9.9156],[76.6294,9.8559],[76.6328,9.8468],[76.768,9.8112],[76.8749,9.844],[76.9769,9.8935],[76.9824,9.9512],[76.8397,10.0245]]]},"properties":{"AC_NO":90,"AC_NAME":"Thodupuzha","PC_NO":13,"PC_NAME":"IDUKKI","district":"Idukki"}},{"type":"Feature","geometry":{"type":"Polygon","coordinates":[[[77.0578,9.9782],[77.1012,9.9175],[77.1041,9.8562],[77.0639,9.8181],[77.1595,9.7704],[77.1512,9.687],[77.1806,9.6582],[77.2226,9.7356],[77.2325,9.7695],[77.2188,9.9047],[77.261,9.9526],[77.2619,10.0219],[77.1683,10.0268],[77.1366,9.9898],[77.0578,9.9782]]]},"properties":{"AC_NO":89,"AC_NAME":"Udumbanchola","PC_NO":13,"PC_NAME":"IDUKKI","district":"Idukki"}},{"type":"Feature","geometry":{"type":"Polygon","coordinates":[[[76.3008,9.9228],[76.303,9.8899],[76.3531,9.8838],[76.3726,9.8368],[76.3881,9.8442],[76.3431,9.9804],[76.3008,9.9228]]]},"properties":{"AC_NO":81,"AC_NAME":"Thripunithura","PC_NO":12,"PC_NAME":"ERNAKULAM","district":"Ernakulam"}},{"type":"Feature","geometry":{"type":"Polygon","coordinates":[[[76.3501,9.9921],[76.3431,9.9804],[76.3881,9.8442],[76.4586,9.8486],[76.5803,9.8221],[76.6096,9.8514],[76.5825,9.9119],[76.5063,9.9733],[76.4414,9.9199],[76.379,9.9425],[76.3608,9.9916],[76.3501,9.9921]]]},"properties":{"AC_NO":85,"AC_NAME":"Piravom","PC_NO":14,"PC_NAME":"KOTTAYAM","district":"Ernakulam"}},{"type":"Feature","geometry":{"type":"Polygon","coordinates":[[[76.2402,9.9746],[76.2773,9.7891],[76.2794,9.789],[76.303,9.8899],[76.3008,9.9228],[76.2897,9.9431],[76.2696,9.9835],[76.2402,9.9746]]]},"properties":{"AC_NO":80,"AC_NAME":"Kochi","PC_NO":12,"PC_NAME":"ERNAKULAM","district":"Ernakulam"}},{"type":"Feature","geometry":{"type":"Polygon","coordinates":[[[76.9824,9.9512],[76.9769,9.8935],[76.8749,9.844],[76.768,9.8112],[76.8666,9.7353],[77.0312,9.7178],[77.1512,9.687],[77.1595,9.7704],[77.0639,9.8181],[77.1041,9.8562],[77.1012,9.9175],[77.0578,9.9782],[76.9824,9.9512]]]},"properties":{"AC_NO":91,"AC_NAME":"Idukki","PC_NO":13,"PC_NAME":"IDUKKI","district":"Idukki"}},{"type":"Feature","geometry":{"type":"Polygon","coordinates":[[[76.303,9.8899],[76.2794,9.789],[76.3761,9.6968],[76.3726,9.8368],[76.3531,9.8838],[76.303,9.8899]]]},"properties":{"AC_NO":102,"AC_NAME":"Aroor","PC_NO":15,"PC_NAME":"ALAPPUZHA","district":"Alappuzha"}},{"type":"Feature","geometry":{"type":"Polygon","coordinates":[[[76.6096,9.8514],[76.5803,9.8221],[76.4586,9.8486],[76.474,9.79],[76.4509,9.7515],[76.4924,9.6955],[76.5958,9.6655],[76.6369,9.6676],[76.6104,9.7675],[76.6328,9.8468],[76.6294,9.8559],[76.6096,9.8514]]]},"properties":{"AC_NO":94,"AC_NAME":"Kaduthuruthy","PC_NO":14,"PC_NAME":"KOTTAYAM","district":"Kottayam"}},{"type":"Feature","geometry":{"type":"Polygon","coordinates":[[[76.3726,9.8368],[76.3761,9.6968],[76.3975,9.649],[76.4924,9.6955],[76.4509,9.7515],[76.474,9.79],[76.4586,9.8486],[76.3881,9.8442],[76.3726,9.8368]]]},"properties":{"AC_NO":95,"AC_NAME":"Vaikom (SC)","PC_NO":14,"PC_NAME":"KOTTAYAM","district":"Kottayam"}},{"type":"Feature","geometry":{"type":"Polygon","coordinates":[[[76.6328,9.8468],[76.6104,9.7675],[76.6369,9.6676],[76.7088,9.6052],[76.7632,9.6216],[76.7442,9.6964],[76.8817,9.7211],[76.8666,9.7353],[76.768,9.8112],[76.6328,9.8468]]]},"properties":{"AC_NO":93,"AC_NAME":"Pala","PC_NO":14,"PC_NAME":"KOTTAYAM","district":"Kottayam"}},{"type":"Feature","geometry":{"type":"Polygon","coordinates":[[[76.2773,9.7891],[76.2954,9.6374],[76.3283,9.5989],[76.3955,9.5893],[76.3975,9.649],[76.3761,9.6968],[76.2794,9.789],[76.2773,9.7891]]]},"properties":{"AC_NO":103,"AC_NAME":"Cherthala","PC_NO":15,"PC_NAME":"ALAPPUZHA","district":"Alappuzha"}},{"type":"Feature","geometry":{"type":"Polygon","coordinates":[[[77.1512,9.687],[77.0312,9.7178],[76.8666,9.7353],[76.8817,9.7211],[76.9268,9.6536],[76.8935,9.6314],[76.8888,9.546],[76.9701,9.4648],[77.0178,9.4073],[77.1307,9.4932],[77.2067,9.4506],[77.2481,9.3778],[77.2246,9.2961],[77.2819,9.2731],[77.3251,9.3371],[77.3392,9.4202],[77.3923,9.4592],[77.4114,9.5075],[77.4024,9.5252],[77.3252,9.5806],[77.2346,9.5815],[77.1806,9.6582],[77.1512,9.687]]]},"properties":{"AC_NO":92,"AC_NAME":"Peerumade","PC_NO":13,"PC_NAME":"IDUKKI","district":"Idukki"}},{"type":"Feature","geometry":{"type":"Polygon","coordinates":[[[76.7632,9.6216],[76.8079,9.5993],[76.8332,9.5366],[76.8299,9.4521],[76.9277,9.4156],[76.9701,9.4648],[76.8888,9.546],[76.8935,9.6314],[76.9268,9.6536],[76.8817,9.7211],[76.7442,9.6964],[76.7632,9.6216]]]},"properties":{"AC_NO":101,"AC_NAME":"Poonjar","PC_NO":17,"PC_NAME":"PATHANAMTHITTA","district":"Kottayam"}},{"type":"Feature","geometry":{"type":"Polygon","coordinates":[[[76.4924,9.6955],[76.3975,9.649],[76.3955,9.5893],[76.3924,9.5487],[76.4637,9.5605],[76.5342,9.6389],[76.5627,9.6273],[76.5958,9.6655],[76.4924,9.6955]]]},"properties":{"AC_NO":96,"AC_NAME":"Ettumanoor","PC_NO":14,"PC_NAME":"KOTTAYAM","district":"Kottayam"}},{"type":"Feature","geometry":{"type":"Polygon","coordinates":[[[76.5958,9.6655],[76.5627,9.6273],[76.575,9.5868],[76.5539,9.4942],[76.6153,9.5071],[76.6744,9.5383],[76.7088,9.6052],[76.6369,9.6676],[76.5958,9.6655]]]},"properties":{"AC_NO":98,"AC_NAME":"Puthuppally","PC_NO":14,"PC_NAME":"KOTTAYAM","district":"Kottayam"}},{"type":"Feature","geometry":{"type":"Polygon","coordinates":[[[76.2954,9.6374],[76.3183,9.4939],[76.3642,9.4894],[76.3924,9.5487],[76.3955,9.5893],[76.3283,9.5989],[76.2954,9.6374]]]},"properties":{"AC_NO":104,"AC_NAME":"Alappuzha","PC_NO":15,"PC_NAME":"ALAPPUZHA","district":"Alappuzha"}},{"type":"Feature","geometry":{"type":"Polygon","coordinates":[[[76.4637,9.5605],[76.4895,9.5069],[76.5539,9.4942],[76.575,9.5868],[76.5627,9.6273],[76.5342,9.6389],[76.4637,9.5605]]]},"properties":{"AC_NO":97,"AC_NAME":"Kottayam","PC_NO":14,"PC_NAME":"KOTTAYAM","district":"Kottayam"}},{"type":"Feature","geometry":{"type":"Polygon","coordinates":[[[76.7088,9.6052],[76.6744,9.5383],[76.6153,9.5071],[76.6154,9.4615],[76.6805,9.4835],[76.7081,9.4544],[76.7652,9.4365],[76.8299,9.4521],[76.8332,9.5366],[76.8079,9.5993],[76.7632,9.6216],[76.7088,9.6052]]]},"properties":{"AC_NO":100,"AC_NAME":"Kanjirappally","PC_NO":17,"PC_NAME":"PATHANAMTHITTA","district":"Kottayam"}},{"type":"Feature","geometry":{"type":"Polygon","coordinates":[[[76.3924,9.5487],[76.3642,9.4894],[76.3609,9.4553],[76.4115,9.344],[76.461,9.3489],[76.489,9.303],[76.4928,9.3254],[76.5136,9.4008],[76.4895,9.5069],[76.4637,9.5605],[76.3924,9.5487]]]},"properties":{"AC_NO":106,"AC_NAME":"Kuttanad","PC_NO":16,"PC_NAME":"MAVELIKKARA (SC)","district":"Alappuzha"}},{"type":"Feature","geometry":{"type":"Polygon","coordinates":[[[76.5539,9.4942],[76.4895,9.5069],[76.5136,9.4008],[76.6154,9.4615],[76.6153,9.5071],[76.5539,9.4942]]]},"properties":{"AC_NO":99,"AC_NAME":"Changanassery","PC_NO":16,"PC_NAME":"MAVELIKKARA (SC)","district":"Kottayam"}},{"type":"Feature","geometry":{"type":"Polygon","coordinates":[[[76.3183,9.4939],[76.3846,9.3075],[76.4115,9.344],[76.3609,9.4553],[76.3642,9.4894],[76.3183,9.4939]]]},"properties":{"AC_NO":105,"AC_NAME":"Ambalappuzha","PC_NO":15,"PC_NAME":"ALAPPUZHA","district":"Alappuzha"}},{"type":"Feature","geometry":{"type":"Polygon","coordinates":[[[76.6154,9.4615],[76.5136,9.4008],[76.4928,9.3254],[76.6114,9.3432],[76.629,9.3947],[76.6796,9.3815],[76.7081,9.4544],[76.6805,9.4835],[76.6154,9.4615]]]},"properties":{"AC_NO":111,"AC_NAME":"Thiruvalla","PC_NO":17,"PC_NAME":"PATHANAMTHITTA","district":"Pathanamthitta"}},{"type":"Feature","geometry":{"type":"Polygon","coordinates":[[[77.0178,9.4073],[76.999,9.3624],[76.8991,9.3487],[76.8948,9.2872],[76.7821,9.3222],[76.7788,9.2273],[76.7216,9.2279],[76.7963,9.1824],[76.7882,9.1132],[76.8515,9.1126],[76.9623,9.1525],[77.0472,9.1234],[77.2077,9.0722],[77.2674,9.1542],[77.2708,9.2023],[77.2819,9.2731],[77.2246,9.2961],[77.2481,9.3778],[77.2067,9.4506],[77.1307,9.4932],[77.0178,9.4073]]]},"properties":{"AC_NO":114,"AC_NAME":"Konni","PC_NO":17,"PC_NAME":"PATHANAMTHITTA","district":"Pathanamthitta"}},{"type":"Feature","geometry":{"type":"Polygon","coordinates":[[[76.9701,9.4648],[76.9277,9.4156],[76.8299,9.4521],[76.7652,9.4365],[76.7081,9.4544],[76.6796,9.3815],[76.7255,9.3344],[76.7821,9.3222],[76.8948,9.2872],[76.8991,9.3487],[76.999,9.3624],[77.0178,9.4073],[76.9701,9.4648]]]},"properties":{"AC_NO":112,"AC_NAME":"Ranni","PC_NO":17,"PC_NAME":"PATHANAMTHITTA","district":"Pathanamthitta"}},{"type":"Feature","geometry":{"type":"Polygon","coordinates":[[[76.6114,9.3432],[76.6416,9.3411],[76.6577,9.2422],[76.7216,9.2279],[76.7788,9.2273],[76.7821,9.3222],[76.7255,9.3344],[76.6796,9.3815],[76.629,9.3947],[76.6114,9.3432]]]},"properties":{"AC_NO":113,"AC_NAME":"Aranmula","PC_NO":17,"PC_NAME":"PATHANAMTHITTA","district":"Pathanamthitta"}},{"type":"Feature","geometry":{"type":"Polygon","coordinates":[[[76.4115,9.344],[76.3846,9.3075],[76.4663,9.129],[76.4475,9.1963],[76.5045,9.2651],[76.489,9.303],[76.461,9.3489],[76.4115,9.344]]]},"properties":{"AC_NO":107,"AC_NAME":"Haripad","PC_NO":15,"PC_NAME":"ALAPPUZHA","district":"Alappuzha"}},{"type":"Feature","geometry":{"type":"Polygon","coordinates":[[[76.489,9.303],[76.5045,9.2651],[76.5253,9.258],[76.5623,9.2722],[76.6392,9.2338],[76.6577,9.2422],[76.6416,9.3411],[76.6114,9.3432],[76.4928,9.3254],[76.489,9.303]]]},"properties":{"AC_NO":110,"AC_NAME":"Chengannur","PC_NO":16,"PC_NAME":"MAVELIKKARA (SC)","district":"Alappuzha"}},{"type":"Feature","geometry":{"type":"Polygon","coordinates":[[[76.5253,9.258],[76.5422,9.1359],[76.6031,9.1307],[76.6349,9.1422],[76.6854,9.1743],[76.6392,9.2338],[76.5623,9.2722],[76.5253,9.258]]]},"properties":{"AC_NO":109,"AC_NAME":"Mavelikkara (SC)","PC_NO":16,"PC_NAME":"MAVELIKKARA (SC)","district":"Alappuzha"}},{"type":"Feature","geometry":{"type":"Polygon","coordinates":[[[76.4663,9.129],[76.485,9.0901],[76.5422,9.1359],[76.5253,9.258],[76.5045,9.2651],[76.4475,9.1963],[76.4663,9.129]]]},"properties":{"AC_NO":108,"AC_NAME":"Kayamkulam","PC_NO":15,"PC_NAME":"ALAPPUZHA","district":"Alappuzha"}},{"type":"Feature","geometry":{"type":"Polygon","coordinates":[[[76.7216,9.2279],[76.6577,9.2422],[76.6392,9.2338],[76.6854,9.1743],[76.6349,9.1422],[76.7114,9.0864],[76.7711,9.0752],[76.7882,9.1132],[76.7963,9.1824],[76.7216,9.2279]]]},"properties":{"AC_NO":115,"AC_NAME":"Adoor (SC)","PC_NO":17,"PC_NAME":"PATHANAMTHITTA","district":"Pathanamthitta"}},{"type":"Feature","geometry":{"type":"Polygon","coordinates":[[[76.7882,9.1132],[76.7711,9.0752],[76.8066,9.0584],[76.7879,8.9921],[76.8435,8.959],[76.8819,8.9754],[76.9436,9.055],[77.0135,9.0722],[77.0472,9.1234],[76.9623,9.1525],[76.8515,9.1126],[76.7882,9.1132]]]},"properties":{"AC_NO":120,"AC_NAME":"Pathanapuram","PC_NO":16,"PC_NAME":"MAVELIKKARA (SC)","district":"Kollam"}},{"type":"Feature","geometry":{"type":"Polygon","coordinates":[[[76.5422,9.1359],[76.485,9.0901],[76.5167,9.0178],[76.5645,9.034],[76.6031,9.1307],[76.5422,9.1359]]]},"properties":{"AC_NO":116,"AC_NAME":"Karunagappally","PC_NO":15,"PC_NAME":"ALAPPUZHA","district":"Kollam"}},{"type":"Feature","geometry":{"type":"Polygon","coordinates":[[[76.6031,9.1307],[76.5645,9.034],[76.5853,8.977],[76.6176,8.9794],[76.6843,8.997],[76.7114,9.0864],[76.6349,9.1422],[76.6031,9.1307]]]},"properties":{"AC_NO":118,"AC_NAME":"Kunnathur (SC)","PC_NO":16,"PC_NAME":"MAVELIKKARA (SC)","district":"Kollam"}},{"type":"Feature","geometry":{"type":"Polygon","coordinates":[[[77.0472,9.1234],[77.0135,9.0722],[76.9436,9.055],[76.8819,8.9754],[76.8435,8.959],[76.8561,8.9032],[76.9884,8.9209],[77.0479,8.8464],[77.107,8.8306],[77.1998,8.77],[77.2624,8.8417],[77.2563,8.8783],[77.2183,8.9182],[77.2183,8.9184],[77.1932,8.9259],[77.1467,9.022],[77.2077,9.0722],[77.0472,9.1234]]]},"properties":{"AC_NO":121,"AC_NAME":"Punalur","PC_NO":18,"PC_NAME":"KOLLAM","district":"Kollam"}},{"type":"Feature","geometry":{"type":"Polygon","coordinates":[[[76.7114,9.0864],[76.6843,8.997],[76.7299,8.9091],[76.7871,8.906],[76.8561,8.9032],[76.8435,8.959],[76.7879,8.9921],[76.8066,9.0584],[76.7711,9.0752],[76.7114,9.0864]]]},"properties":{"AC_NO":119,"AC_NAME":"Kottarakkara","PC_NO":16,"PC_NAME":"MAVELIKKARA (SC)","district":"Kollam"}},{"type":"Feature","geometry":{"type":"Polygon","coordinates":[[[76.5167,9.0178],[76.5545,8.8942],[76.5853,8.977],[76.5645,9.034],[76.5167,9.0178]]]},"properties":{"AC_NO":117,"AC_NAME":"Chavara","PC_NO":18,"PC_NAME":"KOLLAM","district":"Kollam"}},{"type":"Feature","geometry":{"type":"Polygon","coordinates":[[[76.6176,8.9794],[76.6321,8.9152],[76.6716,8.8713],[76.7299,8.9091],[76.6843,8.997],[76.6176,8.9794]]]},"properties":{"AC_NO":123,"AC_NAME":"Kundara","PC_NO":18,"PC_NAME":"KOLLAM","district":"Kollam"}},{"type":"Feature","geometry":{"type":"Polygon","coordinates":[[[76.5853,8.977],[76.5545,8.8942],[76.5911,8.8753],[76.6321,8.9152],[76.6176,8.9794],[76.5853,8.977]]]},"properties":{"AC_NO":124,"AC_NAME":"Kollam","PC_NO":18,"PC_NAME":"KOLLAM","district":"Kollam"}},{"type":"Feature","geometry":{"type":"Polygon","coordinates":[[[76.8561,8.9032],[76.7871,8.906],[76.7809,8.8605],[76.8529,8.8177],[76.9002,8.8115],[76.9333,8.7618],[76.9936,8.7867],[77.0479,8.8464],[76.9884,8.9209],[76.8561,8.9032]]]},"properties":{"AC_NO":122,"AC_NAME":"Chadayamangalam","PC_NO":18,"PC_NAME":"KOLLAM","district":"Kollam"}},{"type":"Feature","geometry":{"type":"Polygon","coordinates":[[[76.6321,8.9152],[76.5911,8.8753],[76.6456,8.8183],[76.6716,8.8713],[76.6321,8.9152]]]},"properties":{"AC_NO":125,"AC_NAME":"Eravipuram","PC_NO":18,"PC_NAME":"KOLLAM","district":"Kollam"}},{"type":"Feature","geometry":{"type":"Polygon","coordinates":[[[76.7299,8.9091],[76.6716,8.8713],[76.6456,8.8183],[76.6731,8.7818],[76.7925,8.8137],[76.7809,8.8605],[76.7871,8.906],[76.7299,8.9091]]]},"properties":{"AC_NO":126,"AC_NAME":"Chathannoor","PC_NO":18,"PC_NAME":"KOLLAM","district":"Kollam"}},{"type":"Feature","geometry":{"type":"Polygon","coordinates":[[[76.7809,8.8605],[76.7925,8.8137],[76.6731,8.7818],[76.7355,8.6966],[76.7401,8.6997],[76.7425,8.7348],[76.8132,8.7679],[76.8529,8.8177],[76.7809,8.8605]]]},"properties":{"AC_NO":127,"AC_NAME":"Varkala","PC_NO":19,"PC_NAME":"ATTINGAL","district":"Thiruvananthapuram"}},{"type":"Feature","geometry":{"type":"Polygon","coordinates":[[[77.0479,8.8464],[76.9936,8.7867],[76.9333,8.7618],[76.8704,8.7176],[76.8838,8.68],[76.9507,8.6758],[76.9783,8.6231],[77.0133,8.6241],[77.0762,8.7011],[77.1832,8.7169],[77.1998,8.77],[77.107,8.8306],[77.0479,8.8464]]]},"properties":{"AC_NO":131,"AC_NAME":"Vamanapuram","PC_NO":19,"PC_NAME":"ATTINGAL","district":"Thiruvananthapuram"}},{"type":"Feature","geometry":{"type":"Polygon","coordinates":[[[76.8529,8.8177],[76.8132,8.7679],[76.7425,8.7348],[76.7401,8.6997],[76.8486,8.6916],[76.8704,8.7176],[76.9333,8.7618],[76.9002,8.8115],[76.8529,8.8177]]]},"properties":{"AC_NO":128,"AC_NAME":"Attingal (SC)","PC_NO":19,"PC_NAME":"ATTINGAL","district":"Thiruvananthapuram"}},{"type":"Feature","geometry":{"type":"Polygon","coordinates":[[[76.7355,8.6966],[76.8554,8.5485],[76.8562,8.5797],[76.8838,8.68],[76.8704,8.7176],[76.8486,8.6916],[76.7401,8.6997],[76.7355,8.6966]]]},"properties":{"AC_NO":129,"AC_NAME":"Chirayinkeezhu","PC_NO":19,"PC_NAME":"ATTINGAL","district":"Thiruvananthapuram"}},{"type":"Feature","geometry":{"type":"Polygon","coordinates":[[[76.9783,8.6231],[76.9946,8.5519],[77.0128,8.5479],[77.1181,8.502],[77.1298,8.5564],[77.1997,8.5768],[77.2458,8.6164],[77.1832,8.7169],[77.0762,8.7011],[77.0133,8.6241],[76.9783,8.6231]]]},"properties":{"AC_NO":136,"AC_NAME":"Aruvikkara","PC_NO":19,"PC_NAME":"ATTINGAL","district":"Thiruvananthapuram"}},{"type":"Feature","geometry":{"type":"Polygon","coordinates":[[[76.8838,8.68],[76.8562,8.5797],[76.927,8.605],[76.9529,8.5642],[76.9946,8.5519],[76.9783,8.6231],[76.9507,8.6758],[76.8838,8.68]]]},"properties":{"AC_NO":130,"AC_NAME":"Nedumangad","PC_NO":19,"PC_NAME":"ATTINGAL","district":"Thiruvananthapuram"}},{"type":"Feature","geometry":{"type":"Polygon","coordinates":[[[76.8554,8.5485],[76.9086,8.4822],[76.9413,8.5097],[76.9529,8.5642],[76.927,8.605],[76.8562,8.5797],[76.8554,8.5485]]]},"properties":{"AC_NO":132,"AC_NAME":"Kazhakoottam","PC_NO":20,"PC_NAME":"THIRUVANANTHAPURA","district":"Thiruvananthapuram"}},{"type":"Feature","geometry":{"type":"Polygon","coordinates":[[[77.1181,8.502],[77.0966,8.4575],[77.092,8.4074],[77.1484,8.3322],[77.1771,8.3261],[77.1607,8.3741],[77.2135,8.4707],[77.2619,8.5065],[77.269,8.5789],[77.2458,8.6164],[77.1997,8.5768],[77.1298,8.5564],[77.1181,8.502]]]},"properties":{"AC_NO":137,"AC_NAME":"Parassala","PC_NO":20,"PC_NAME":"THIRUVANANTHAPURA","district":"Thiruvananthapuram"}},{"type":"Feature","geometry":{"type":"Polygon","coordinates":[[[76.9946,8.5519],[76.9529,8.5642],[76.9413,8.5097],[77.0035,8.507],[77.0128,8.5479],[76.9946,8.5519]]]},"properties":{"AC_NO":133,"AC_NAME":"Vattiyoorkavu(SC)","PC_NO":20,"PC_NAME":"THIRUVANANTHAPURA","district":"Thiruvananthapuram"}},{"type":"Feature","geometry":{"type":"Polygon","coordinates":[[[77.0128,8.5479],[77.0035,8.507],[77.0032,8.4699],[77.0102,8.45],[77.0441,8.4264],[77.0966,8.4575],[77.1181,8.502],[77.0128,8.5479]]]},"properties":{"AC_NO":138,"AC_NAME":"Kattakkada","PC_NO":19,"PC_NAME":"ATTINGAL","district":"Thiruvananthapuram"}},{"type":"Feature","geometry":{"type":"Polygon","coordinates":[[[76.9086,8.4822],[76.9322,8.4554],[77.0032,8.4699],[77.0035,8.507],[76.9413,8.5097],[76.9086,8.4822]]]},"properties":{"AC_NO":134,"AC_NAME":"Thiruvananthapura","PC_NO":20,"PC_NAME":"THIRUVANANTHAPURA","district":"Thiruvananthapuram"}},{"type":"Feature","geometry":{"type":"Polygon","coordinates":[[[77.0032,8.4699],[76.9322,8.4554],[76.9708,8.4023],[77.0102,8.45],[77.0032,8.4699]]]},"properties":{"AC_NO":135,"AC_NAME":"Nemom","PC_NO":20,"PC_NAME":"THIRUVANANTHAPURA","district":"Thiruvananthapuram"}},{"type":"Feature","geometry":{"type":"Polygon","coordinates":[[[77.0966,8.4575],[77.0441,8.4264],[77.0814,8.3045],[77.0978,8.2925],[77.1484,8.3322],[77.092,8.4074],[77.0966,8.4575]]]},"properties":{"AC_NO":140,"AC_NAME":"Neyyattinkara","PC_NO":20,"PC_NAME":"THIRUVANANTHAPURA","district":"Thiruvananthapuram"}},{"type":"Feature","geometry":{"type":"Polygon","coordinates":[[[77.0102,8.45],[76.9708,8.4023],[77.0814,8.3045],[77.0441,8.4264],[77.0102,8.45]]]},"properties":{"AC_NO":139,"AC_NAME":"Kovalam","PC_NO":20,"PC_NAME":"THIRUVANANTHAPURA","district":"Thiruvananthapuram"}}]}