{"type":"FeatureCollection", "features": [
{"type":"Feature","geometry":{"type":"Polygon","coordinates":[[[74.9756,12.5708],[74.9553,12.559],[74.9919,12.4669],[75.0519,12.365],[75.104,12.2424],[75.1647,12.0914],[75.1903,12.0974],[75.204,12.1916],[75.2872,12.2601],[75.4144,12.2928],[75.4105,12.3467],[75.3713,12.4379],[75.4238,12.4673],[75.3825,12.5017],[75.3456,12.4628],[75.3146,12.4985],[75.27,12.5582],[75.2238,12.5704],[75.1992,12.611],[75.1477,12.6344],[75.1111,12.6818],[75.0465,12.6676],[75.0523,12.72],[74.9874,12.7423],[74.9985,12.7862],[74.9331,12.7808],[74.8677,12.7514],[74.9538,12.5584],[74.9756,12.5708]]]},"properties":{"district":"Kasaragod"}},
{"type":"Feature","geometry":{"type":"Polygon","coordinates":[[[75.1647,12.0914],[75.2012,12.0064],[75.228,12.023],[75.3047,11.9492],[75.3534,11.8709],[75.433,11.8094],[75.4715,11.7704],[75.5443,11.7046],[75.5637,11.6938],[75.6006,11.6869],[75.6917,11.7998],[75.7292,11.7809],[75.7729,11.8027],[75.8053,11.8503],[75.9179,11.8449],[75.9403,11.9436],[75.8707,11.9523],[75.8009,12.0365],[75.8023,12.0791],[75.7148,12.0705],[75.6898,12.1113],[75.6485,12.1092],[75.6358,12.1492],[75.577,12.1578],[75.5319,12.2014],[75.4931,12.2742],[75.4144,12.2928],[75.2872,12.2601],[75.204,12.1916],[75.1903,12.0974],[75.1647,12.0914]]]},"properties":{"district":"Kannur"}},
{"type":"Feature","geometry":{"type":"Polygon","coordinates":[[[75.8053,11.8503],[75.7729,11.8027],[75.7881,11.7653],[75.8506,11.7029],[75.9151,11.6907],[75.9027,11.6789],[75.9012,11.617],[75.9804,11.541],[76.1429,11.4518],[76.1861,11.4737],[76.2378,11.5275],[76.234,11.5686],[76.2649,11.5938],[76.3776,11.6019],[76.4325,11.6316],[76.4089,11.7065],[76.414,11.7589],[76.3393,11.7391],[76.2801,11.8115],[76.2464,11.8029],[76.2075,11.8617],[76.1577,11.8709],[76.1212,11.851],[76.1124,11.9791],[76.003,11.9314],[75.9403,11.9436],[75.9179,11.8449],[75.8053,11.8503]]]},"properties":{"district":"Wayanad"}},
{"type":"Feature","geometry":{"type":"Polygon","coordinates":[[[75.7729,11.8027],[75.7292,11.7809],[75.6917,11.7998],[75.6006,11.6869],[75.5637,11.6938],[75.5443,11.7046],[75.5366,11.6939],[75.5906,11.5618],[75.6186,11.4875],[75.6807,11.4509],[75.732,11.3562],[75.7517,11.3091],[75.7715,11.2501],[75.7857,11.2095],[75.8261,11.1245],[75.8882,11.1787],[75.8577,11.2079],[75.977,11.2678],[75.9958,11.2544],[76.0493,11.2674],[76.1165,11.3376],[76.0996,11.396],[76.1429,11.4518],[75.9804,11.541],[75.9012,11.617],[75.9027,11.6789],[75.9151,11.6907],[75.8506,11.7029],[75.7881,11.7653],[75.7729,11.8027]]]},"properties":{"district":"Kozhikode"}},
{"type":"Feature","geometry":{"type":"Polygon","coordinates":[[[76.1429,11.4518],[76.0996,11.396],[76.1165,11.3376],[76.0493,11.2674],[75.9958,11.2544],[75.977,11.2678],[75.8577,11.2079],[75.8882,11.1787],[75.8261,11.1245],[75.8413,11.0825],[75.8582,11.0186],[75.8839,10.9127],[75.8938,10.8676],[75.9129,10.786],[75.9566,10.6866],[76.0071,10.6897],[76.0693,10.7304],[76.0392,10.7673],[76.0323,10.8315],[76.1029,10.8597],[76.1317,10.8966],[76.1616,10.9122],[76.2535,10.8876],[76.2689,10.9155],[76.3352,10.9061],[76.3284,10.9799],[76.3632,10.9757],[76.2949,11.0505],[76.3463,11.0887],[76.4121,11.1158],[76.4103,11.2067],[76.4426,11.2039],[76.45,11.2129],[76.4532,11.2395],[76.5219,11.272],[76.5475,11.3594],[76.462,11.3875],[76.3712,11.4544],[76.3256,11.4534],[76.2644,11.4809],[76.2378,11.5275],[76.1861,11.4737],[76.1429,11.4518]]]},"properties":{"district":"Malappuram"}},
{"type":"Feature","geometry":{"type":"Polygon","coordinates":[[[76.3463,11.0887],[76.2949,11.0505],[76.3632,10.9757],[76.3284,10.9799],[76.3352,10.9061],[76.2689,10.9155],[76.2535,10.8876],[76.1616,10.9122],[76.1317,10.8966],[76.1029,10.8597],[76.0323,10.8315],[76.0392,10.7673],[76.0693,10.7304],[76.1613,10.707],[76.1889,10.7825],[76.2402,10.7735],[76.3548,10.7431],[76.3657,10.7638],[76.3976,10.7463],[76.4725,10.7495],[76.4028,10.591],[76.4391,10.5572],[76.479,10.4865],[76.5825,10.4372],[76.587,10.4364],[76.6232,10.3798],[76.6867,10.364],[76.7489,10.367],[76.7544,10.3363],[76.8376,10.338],[76.8162,10.4237],[76.8283,10.4508],[76.8388,10.5971],[76.8145,10.6358],[76.8826,10.6395],[76.8679,10.6954],[76.9046,10.7626],[76.9001,10.8086],[76.8505,10.8189],[76.8281,10.873],[76.7412,10.8903],[76.6593,10.9306],[76.7109,11.039],[76.7548,11.079],[76.7284,11.1303],[76.6896,11.1592],[76.7317,11.2156],[76.7067,11.2381],[76.6292,11.194],[76.4426,11.2039],[76.4103,11.2067],[76.4121,11.1158],[76.3463,11.0887]]]},"properties":{"district":"Palakkad"}},
{"type":"Feature","geometry":{"type":"Polygon","coordinates":[[[76.3657,10.7638],[76.3548,10.7431],[76.2402,10.7735],[76.1889,10.7825],[76.1613,10.707],[76.0693,10.7304],[76.0071,10.6897],[75.9566,10.6866],[76.0531,10.4826],[76.0671,10.456],[76.1102,10.3505],[76.1671,10.1823],[76.1752,10.1865],[76.1794,10.1884],[76.2198,10.2071],[76.3121,10.1829],[76.3581,10.237],[76.4466,10.2974],[76.6877,10.2673],[76.8096,10.2864],[76.9011,10.2519],[76.83,10.3039],[76.8376,10.338],[76.7544,10.3363],[76.7489,10.367],[76.6867,10.364],[76.6232,10.3798],[76.587,10.4364],[76.5825,10.4372],[76.479,10.4865],[76.4391,10.5572],[76.4028,10.591],[76.4725,10.7495],[76.3976,10.7463],[76.3657,10.7638]]]},"properties":{"district":"Thrissur"}},
{"type":"Feature","geometry":{"type":"Polygon","coordinates":[[[77.0509,10.2627],[77.0197,10.2137],[77.0875,10.186],[76.9672,10.1605],[76.927,10.1791],[76.8668,10.0948],[76.825,10.0897],[76.797,10.0419],[76.8397,10.0245],[76.7696,10.0181],[76.7085,9.9759],[76.6959,9.9092],[76.6301,9.9156],[76.6294,9.8559],[76.6328,9.8468],[76.6675,9.8446],[76.7424,9.8047],[76.768,9.8112],[76.8666,9.7353],[76.8817,9.7211],[76.9268,9.6536],[76.8935,9.6314],[76.8888,9.546],[76.9701,9.4648],[77.0152,9.4419],[77.0178,9.4073],[77.1307,9.4932],[77.2067,9.4506],[77.2481,9.3778],[77.2246,9.2961],[77.2819,9.2731],[77.3251,9.3371],[77.3363,9.4116],[77.4114,9.5075],[77.3655,9.5351],[77.3178,9.6027],[77.2688,9.573],[77.1983,9.6144],[77.1806,9.6582],[77.2325,9.7695],[77.2188,9.9047],[77.2728,9.965],[77.2619,10.0219],[77.2013,10.1065],[77.2665,10.1218],[77.2881,10.2317],[77.2277,10.3164],[77.2358,10.3522],[77.1765,10.3581],[77.0565,10.2869],[77.0509,10.2627]]]},"properties":{"district":"Idukki"}},
{"type":"Feature","geometry":{"type":"Polygon","coordinates":[[[76.3581,10.237],[76.3121,10.1829],[76.2198,10.2071],[76.1794,10.1884],[76.1752,10.1865],[76.1671,10.1823],[76.2207,9.9989],[76.2402,9.9746],[76.2773,9.7891],[76.2794,9.789],[76.303,9.8899],[76.3531,9.8838],[76.3726,9.8368],[76.3881,9.8442],[76.4136,9.8228],[76.4586,9.8486],[76.5803,9.8221],[76.6096,9.8514],[76.6294,9.8559],[76.6301,9.9156],[76.6959,9.9092],[76.7085,9.9759],[76.7696,10.0181],[76.8397,10.0245],[76.797,10.0419],[76.825,10.0897],[76.8668,10.0948],[76.927,10.1791],[76.9672,10.1605],[77.0875,10.186],[77.0197,10.2137],[77.0509,10.2627],[76.9826,10.2204],[76.9011,10.2519],[76.8096,10.2864],[76.6877,10.2673],[76.4466,10.2974],[76.3581,10.237]]]},"properties":{"district":"Ernakulam"}},
{"type":"Feature","geometry":{"type":"Polygon","coordinates":[[[76.303,9.8899],[76.2794,9.789],[76.2773,9.7891],[76.2954,9.6374],[76.3183,9.4939],[76.3432,9.4007],[76.3846,9.3075],[76.4663,9.129],[76.485,9.0901],[76.4783,9.124],[76.5422,9.1359],[76.6031,9.1307],[76.6349,9.1422],[76.6854,9.1743],[76.6392,9.2338],[76.6577,9.2422],[76.6416,9.3411],[76.6114,9.3432],[76.4928,9.3254],[76.5136,9.4008],[76.4895,9.5069],[76.4637,9.5605],[76.3924,9.5487],[76.3955,9.5893],[76.3975,9.649],[76.3761,9.6968],[76.3726,9.8368],[76.3531,9.8838],[76.303,9.8899]]]},"properties":{"district":"Alappuzha"}},
{"type":"Feature","geometry":{"type":"Polygon","coordinates":[[[76.6096,9.8514],[76.5803,9.8221],[76.4586,9.8486],[76.4136,9.8228],[76.3881,9.8442],[76.3726,9.8368],[76.3761,9.6968],[76.3975,9.649],[76.3955,9.5893],[76.3924,9.5487],[76.4637,9.5605],[76.4895,9.5069],[76.5136,9.4008],[76.6154,9.4615],[76.6805,9.4835],[76.7081,9.4544],[76.7652,9.4365],[76.8299,9.4521],[76.855,9.457],[76.9277,9.4156],[76.9701,9.4648],[76.8888,9.546],[76.8935,9.6314],[76.9268,9.6536],[76.8817,9.7211],[76.8666,9.7353],[76.768,9.8112],[76.7424,9.8047],[76.6675,9.8446],[76.6328,9.8468],[76.6294,9.8559],[76.6096,9.8514]]]},"properties":{"district":"Kottayam"}},
{"type":"Feature","geometry":{"type":"Polygon","coordinates":[[[76.6154,9.4615],[76.5136,9.4008],[76.4928,9.3254],[76.6114,9.3432],[76.6416,9.3411],[76.6577,9.2422],[76.6392,9.2338],[76.6854,9.1743],[76.6349,9.1422],[76.7114,9.0864],[76.7711,9.0752],[76.7882,9.1132],[76.8515,9.1126],[76.9623,9.1525],[77.0472,9.1234],[77.111,9.0934],[77.2077,9.0722],[77.2122,9.1002],[77.2674,9.1542],[77.2819,9.2731],[77.2246,9.2961],[77.2481,9.3778],[77.2067,9.4506],[77.1307,9.4932],[77.0178,9.4073],[77.0152,9.4419],[76.9701,9.4648],[76.9277,9.4156],[76.855,9.457],[76.8299,9.4521],[76.7652,9.4365],[76.7081,9.4544],[76.6805,9.4835],[76.6154,9.4615]]]},"properties":{"district":"Pathanamthitta"}},
{"type":"Feature","geometry":{"type":"Polygon","coordinates":[[[76.7882,9.1132],[76.7711,9.0752],[76.7114,9.0864],[76.6349,9.1422],[76.6031,9.1307],[76.5422,9.1359],[76.4783,9.124],[76.485,9.0901],[76.5167,9.0178],[76.5545,8.8942],[76.5911,8.8753],[76.6456,8.8183],[76.6731,8.7818],[76.7925,8.8137],[76.7809,8.8605],[76.8529,8.8177],[76.9002,8.8115],[76.9333,8.7618],[76.9936,8.7867],[77.0479,8.8464],[77.107,8.8306],[77.1998,8.77],[77.2624,8.8417],[77.2563,8.8783],[77.1932,8.9259],[77.1467,9.022],[77.2077,9.0722],[77.111,9.0934],[77.0472,9.1234],[76.9623,9.1525],[76.8515,9.1126],[76.7882,9.1132]]]},"properties":{"district":"Kollam"}},
{"type":"Feature","geometry":{"type":"Polygon","coordinates":[[[76.7809,8.8605],[76.7925,8.8137],[76.6731,8.7818],[76.7355,8.6966],[76.8554,8.5485],[76.9086,8.4822],[76.9322,8.4554],[76.9708,8.4023],[76.9865,8.3758],[77.0814,8.3045],[77.1484,8.3322],[77.2135,8.4707],[77.2619,8.5065],[77.2837,8.547],[77.2458,8.6164],[77.2013,8.6688],[77.1832,8.7169],[77.1998,8.77],[77.107,8.8306],[77.0479,8.8464],[76.9936,8.7867],[76.9333,8.7618],[76.9002,8.8115],[76.8529,8.8177],[76.7809,8.8605]]]},"properties":{"district":"Thiruvananthapuram"}}
]}