{"type":"FeatureCollection", "features": [
{"type":"Feature","geometry":{"type":"Polygon","coordinates":[[[89.0518,26.3987],[89.1328,26.2988],[89.1553,26.1387],[89.2595,26.0932],[89.3644,26.0082],[89.4076,26.0416],[89.5025,26.0028],[89.6486,26.0684],[89.5982,26.154],[89.6345,26.2267],[89.6807,26.231],[89.6816,26.1636],[89.7225,26.1675],[89.7281,26.1732],[89.7287,26.1739],[89.7297,26.1743],[89.7304,26.1742],[89.7353,26.1736],[89.7333,26.1771],[89.7285,26.1778],[89.709,26.1737],[89.7048,26.1774],[89.7034,26.1817],[89.7025,26.1845],[89.7019,26.1856],[89.6988,26.1908],[89.7155,26.1897],[89.7173,26.191],[89.7148,26.2049],[89.718,26.2063],[89.7211,26.2064],[89.7231,26.2065],[89.7237,26.2063],[89.7246,26.206],[89.7256,26.2059],[89.7272,26.2064],[89.7276,26.2065],[89.7324,26.2104],[89.732,26.2158],[89.7292,26.2168],[89.729,26.2169],[89.7227,26.2167],[89.7036,26.214],[89.7005,26.2185],[89.704,26.2183],[89.7136,26.2272],[89.7195,26.2317],[89.7208,26.2322],[89.7227,26.2327],[89.7273,26.2424],[89.716,26.2581],[89.7044,26.2566],[89.7035,26.2572],[89.7031,26.2574],[89.7114,26.2708],[89.7117,26.2708],[89.7148,26.2699],[89.7149,26.2599],[89.7172,26.2591],[89.7197,26.2577],[89.7209,26.2575],[89.7211,26.2575],[89.7245,26.2577],[89.7249,26.2577],[89.7267,26.258],[89.7281,26.2582],[89.7356,26.2614],[89.7356,26.2617],[89.7386,26.2712],[89.7382,26.272],[89.7179,26.2958],[89.7238,26.3092],[89.7297,26.2936],[89.7342,26.2928],[89.7357,26.2926],[89.7376,26.2927],[89.7379,26.2928],[89.7404,26.294],[89.7412,26.2943],[89.7424,26.2947],[89.7475,26.2918],[89.7487,26.2911],[89.749,26.2909],[89.7497,26.2905],[89.7507,26.2902],[89.7526,26.2894],[89.7528,26.2894],[89.7543,26.289],[89.7544,26.2889],[89.7567,26.2888],[89.7568,26.2885],[89.7579,26.2882],[89.7578,26.2893],[89.7583,26.2895],[89.7592,26.2898],[89.7596,26.29],[89.7599,26.2906],[89.7602,26.2913],[89.7605,26.2923],[89.7606,26.2925],[89.7598,26.2937],[89.7576,26.2981],[89.7541,26.3021],[89.7538,26.3029],[89.7538,26.3036],[89.7527,26.3081],[89.7524,26.3094],[89.7522,26.3118],[89.7521,26.3122],[89.7517,26.3145],[89.7516,26.3157],[89.7511,26.3211],[89.7537,26.3229],[89.7557,26.3229],[89.758,26.3196],[89.7582,26.319],[89.7583,26.3189],[89.7599,26.3169],[89.7603,26.3168],[89.7622,26.3162],[89.7626,26.3163],[89.7675,26.3197],[89.7688,26.3218],[89.7701,26.3249],[89.7727,26.3254],[89.7762,26.3262],[89.7779,26.3267],[89.7792,26.3272],[89.7816,26.3287],[89.7824,26.3295],[89.7832,26.3309],[89.7834,26.3322],[89.7834,26.3337],[89.7833,26.3351],[89.7814,26.3418],[89.7824,26.3492],[89.7829,26.3513],[89.7832,26.3517],[89.785,26.3534],[89.7911,26.3578],[89.7922,26.3584],[89.7929,26.3587],[89.794,26.3591],[89.795,26.3594],[89.7995,26.3607],[89.8031,26.362],[89.8056,26.3635],[89.8074,26.3649],[89.8082,26.3655],[89.8098,26.3675],[89.8105,26.3685],[89.8138,26.3711],[89.8156,26.3715],[89.8162,26.3714],[89.8172,26.3711],[89.8197,26.3709],[89.8198,26.3709],[89.8213,26.372],[89.8218,26.3721],[89.8218,26.3716],[89.8212,26.3684],[89.8208,26.3679],[89.8185,26.3657],[89.8183,26.3656],[89.8174,26.3651],[89.8153,26.3641],[89.8145,26.3628],[89.813,26.3602],[89.8128,26.3588],[89.8128,26.3582],[89.813,26.357],[89.8138,26.356],[89.8147,26.3546],[89.815,26.354],[89.8155,26.3531],[89.8161,26.3529],[89.8177,26.3527],[89.8189,26.3523],[89.8202,26.3516],[89.8205,26.3516],[89.8217,26.3515],[89.8246,26.3535],[89.8249,26.3539],[89.8253,26.356],[89.8237,26.3576],[89.8218,26.3608],[89.8221,26.3632],[89.8231,26.3644],[89.8237,26.3647],[89.8241,26.3649],[89.8263,26.3661],[89.8276,26.3665],[89.8277,26.3666],[89.8285,26.3718],[89.8284,26.372],[89.8273,26.3738],[89.8271,26.3744],[89.8275,26.3753],[89.8272,26.3758],[89.8258,26.3775],[89.8261,26.3781],[89.8266,26.3787],[89.8269,26.3791],[89.8278,26.3809],[89.8286,26.3816],[89.8329,26.3841],[89.8347,26.384],[89.8349,26.384],[89.8356,26.3837],[89.8365,26.382],[89.8367,26.3814],[89.8371,26.3811],[89.8375,26.3808],[89.8386,26.3794],[89.8388,26.3791],[89.841,26.3783],[89.8423,26.378],[89.8435,26.3781],[89.8442,26.3786],[89.8446,26.3822],[89.8448,26.3828],[89.8503,26.3854],[89.8517,26.3853],[89.8544,26.3824],[89.8578,26.3833],[89.8583,26.3837],[89.8585,26.384],[89.8576,26.3858],[89.8568,26.3871],[89.8556,26.39],[89.8556,26.3918],[89.8566,26.3948],[89.8572,26.3956],[89.856,26.3974],[89.8555,26.3976],[89.8544,26.3978],[89.8535,26.3999],[89.8533,26.4002],[89.8523,26.4006],[89.8515,26.4016],[89.8511,26.4023],[89.8503,26.4033],[89.8501,26.4034],[89.8499,26.4035],[89.849,26.4039],[89.8477,26.4041],[89.8473,26.4012],[89.847,26.3993],[89.8469,26.3991],[89.8459,26.397],[89.8431,26.3939],[89.8387,26.3914],[89.8326,26.3917],[89.8311,26.3928],[89.8301,26.394],[89.83,26.3948],[89.83,26.396],[89.8298,26.3971],[89.8299,26.3974],[89.8304,26.3984],[89.8313,26.3995],[89.8324,26.4007],[89.832,26.4022],[89.8324,26.4035],[89.8328,26.4053],[89.8329,26.4078],[89.8329,26.4085],[89.8329,26.4086],[89.8345,26.4111],[89.8353,26.4121],[89.8357,26.4121],[89.7487,26.4634],[89.6189,26.3954],[89.6037,26.4079],[89.5581,26.4101],[89.5374,26.4709],[89.3307,26.4928],[89.2872,26.4873],[89.1244,26.522],[89.0506,26.5263],[88.9692,26.5444],[88.9465,26.4759],[88.852,26.3901],[88.7569,26.3103],[89.0276,26.2832],[88.9513,26.4351],[89.0518,26.3987]]]},"properties":{"district":"KOCH BIH>R"}},
{"type":"Feature","geometry":{"type":"Polygon","coordinates":[[[89.6189,26.3954],[89.7487,26.4634],[89.8357,26.4121],[89.8408,26.4117],[89.8449,26.4116],[89.846,26.4118],[89.849,26.4127],[89.8494,26.4128],[89.8507,26.4128],[89.8529,26.4126],[89.8535,26.4124],[89.8544,26.412],[89.8573,26.412],[89.8573,26.4129],[89.856,26.4156],[89.8553,26.4161],[89.8551,26.4161],[89.8547,26.4163],[89.8542,26.4166],[89.8527,26.4179],[89.8497,26.4205],[89.8496,26.4229],[89.8507,26.4228],[89.8514,26.4227],[89.853,26.4235],[89.8532,26.4235],[89.855,26.4243],[89.8558,26.425],[89.856,26.432],[89.857,26.4337],[89.8589,26.4364],[89.8588,26.4368],[89.8582,26.4384],[89.8582,26.4388],[89.8583,26.4391],[89.8592,26.4407],[89.8594,26.4409],[89.8604,26.4417],[89.8606,26.4419],[89.8612,26.4426],[89.8638,26.4457],[89.864,26.4467],[89.866,26.4474],[89.8668,26.448],[89.869,26.4495],[89.8711,26.4509],[89.8717,26.4513],[89.8718,26.4526],[89.8705,26.4558],[89.8702,26.4568],[89.8719,26.4609],[89.8724,26.462],[89.871,26.4664],[89.8697,26.4676],[89.8676,26.4684],[89.8659,26.4682],[89.8657,26.4684],[89.8645,26.4709],[89.8643,26.4732],[89.8643,26.4736],[89.864,26.4741],[89.8631,26.476],[89.8616,26.4822],[89.8622,26.4832],[89.8583,26.4846],[89.8566,26.4852],[89.8559,26.4855],[89.8551,26.4866],[89.8544,26.4877],[89.8543,26.4881],[89.854,26.4891],[89.854,26.4923],[89.8558,26.4948],[89.8562,26.4954],[89.8576,26.5004],[89.8579,26.5055],[89.8595,26.7041],[89.671,26.739],[89.6177,26.728],[89.6508,26.7764],[89.4389,26.8405],[89.328,26.8437],[89.1346,26.8077],[89.1015,26.8425],[89.0927,26.8045],[89.0734,26.7048],[89.046,26.636],[89.1244,26.522],[89.2872,26.4873],[89.3307,26.4928],[89.5374,26.4709],[89.5581,26.4101],[89.6037,26.4079],[89.6189,26.3954]]]},"properties":{"district":">L|PUR DU>R"}},
{"type":"Feature","geometry":{"type":"Polygon","coordinates":[[[89.0506,26.5263],[89.1244,26.522],[89.046,26.636],[89.0734,26.7048],[89.0927,26.8045],[89.1015,26.8425],[89.096,26.8915],[88.8724,26.9642],[88.8153,26.9907],[88.7418,26.9259],[88.6087,26.8816],[88.4858,26.8768],[88.5065,26.84],[88.4829,26.8529],[88.4401,26.8351],[88.4223,26.7316],[88.4493,26.7042],[88.4091,26.6981],[88.3915,26.6768],[88.401,26.6483],[88.4092,26.6352],[88.4368,26.5445],[88.5264,26.4817],[88.6116,26.4711],[88.6942,26.346],[88.7569,26.3103],[88.852,26.3901],[88.9465,26.4759],[88.9692,26.5444],[89.0506,26.5263]]]},"properties":{"district":"JALP>IGURI"}},
{"type":"Feature","geometry":{"type":"Polygon","coordinates":[[[88.7418,26.9259],[88.8153,26.9907],[88.8724,26.9642],[88.8692,27.1113],[88.746,27.1428],[88.7142,27.1616],[88.7132,27.1621],[88.6624,27.1613],[88.6622,27.1612],[88.6619,27.161],[88.5539,27.184],[88.553,27.1835],[88.5338,27.1757],[88.5334,27.1749],[88.4688,27.1158],[88.4684,27.1154],[88.4683,27.1152],[88.4358,27.0807],[88.4225,26.9804],[88.4858,26.8768],[88.6087,26.8816],[88.7418,26.9259]]]},"properties":{"district":"K>LIMPONG"}},
{"type":"Feature","geometry":{"type":"Polygon","coordinates":[[[88.1444,26.9217],[88.1774,26.8043],[88.1636,26.6599],[88.1034,26.5398],[88.2252,26.4537],[88.2257,26.4536],[88.2437,26.4539],[88.3353,26.497],[88.4092,26.6352],[88.401,26.6483],[88.3915,26.6768],[88.4091,26.6981],[88.4493,26.7042],[88.4223,26.7316],[88.4401,26.8351],[88.4829,26.8529],[88.5065,26.84],[88.4858,26.8768],[88.4225,26.9804],[88.4358,27.0807],[88.3471,27.1049],[88.347,27.1051],[88.3467,27.1056],[88.3238,27.1104],[88.3155,27.1263],[88.3153,27.1263],[88.2792,27.1322],[88.1812,27.1333],[88.1811,27.1332],[88.1806,27.1329],[88.0965,27.1331],[88.0763,27.1945],[88.0767,27.1946],[88.0772,27.1949],[88.0143,27.212],[87.9901,27.1089],[88.0775,27.0361],[88.1444,26.9217]]]},"properties":{"district":"D>RJILING"}},
{"type":"Feature","geometry":{"type":"Polygon","coordinates":[[[88.2437,26.4539],[88.2925,26.3516],[88.2107,26.2778],[88.1974,26.2719],[88.1445,26.2523],[88.1407,26.228],[88.1148,26.2241],[88.0912,26.2023],[88.0763,26.1783],[87.9783,26.1438],[87.9765,26.1435],[87.975,26.1434],[87.9836,26.0792],[87.9845,26.0789],[87.9165,26.0759],[87.9143,26.0761],[87.8206,25.9333],[87.8196,25.9337],[87.8074,25.9293],[87.8074,25.9292],[87.8074,25.9287],[87.8222,25.9123],[87.8223,25.8808],[87.8923,25.8652],[87.9072,25.7733],[88.0465,25.6993],[88.055,25.637],[88.0353,25.548],[88.0733,25.4838],[88.1029,25.3799],[88.1054,25.2744],[88.2091,25.308],[88.203,25.4338],[88.2652,25.4477],[88.2698,25.4825],[88.3955,25.5957],[88.4454,25.5968],[88.318,25.7429],[88.2595,25.8138],[88.1566,25.779],[88.102,25.8303],[88.0901,25.9241],[88.1785,26.0216],[88.174,26.1287],[88.197,26.1636],[88.3513,26.2221],[88.3497,26.2822],[88.4962,26.4373],[88.3353,26.497],[88.2437,26.4539]]]},"properties":{"district":"UTTAR DIN>JPUR"}},
{"type":"Feature","geometry":{"type":"Polygon","coordinates":[[[88.2698,25.4825],[88.2652,25.4477],[88.203,25.4338],[88.2091,25.308],[88.4064,25.2954],[88.4172,25.3142],[88.4389,25.2079],[88.6149,25.2036],[88.7588,25.1863],[88.9322,25.1809],[88.9284,25.3097],[88.8806,25.3294],[88.8237,25.4011],[88.8075,25.5132],[88.5738,25.5089],[88.4454,25.5968],[88.3955,25.5957],[88.2698,25.4825]]]},"properties":{"district":"DAKSHIN DIN>JPUR"}},
{"type":"Feature","geometry":{"type":"Polygon","coordinates":[[[88.4172,25.3142],[88.4064,25.2954],[88.2091,25.308],[88.1054,25.2744],[88.1029,25.3799],[88.0733,25.4838],[87.9478,25.5395],[87.9468,25.5393],[87.9094,25.5205],[87.9033,25.5054],[87.8697,25.4968],[87.7638,25.4072],[87.7638,25.4071],[87.7639,25.4071],[87.8593,25.2718],[87.8396,25.2018],[87.8392,25.2019],[87.7733,25.2215],[87.7949,25.0879],[87.896,25.0109],[87.9055,25.0006],[87.9234,25.0002],[87.9479,24.9041],[87.9469,24.9031],[87.8969,24.8568],[87.8976,24.8556],[87.9685,24.756],[87.9678,24.68],[88.0097,24.6692],[88.1116,24.8137],[88.1659,24.8635],[88.1648,24.9439],[88.2008,24.9571],[88.3027,24.8719],[88.3867,24.9392],[88.452,25.0357],[88.4389,25.2079],[88.4172,25.3142]]]},"properties":{"district":"M>LDAH"}},
{"type":"Feature","geometry":{"type":"Polygon","coordinates":[[[87.8969,24.8568],[87.8355,24.7476],[87.9077,24.7215],[87.9117,24.6555],[87.9112,24.6079],[87.911,24.6044],[87.8908,24.5653],[87.957,24.4885],[87.9708,24.4],[87.9716,24.3895],[87.9568,24.3444],[88.0217,24.2523],[87.961,24.1877],[87.8968,24.1535],[87.8954,24.0738],[87.8676,24.0011],[87.8633,23.8741],[87.9643,23.8045],[88.0058,23.8443],[88.0952,23.7523],[88.1599,23.7532],[88.1952,23.7657],[88.323,23.8093],[88.3422,23.8137],[88.4667,23.8233],[88.4769,23.9408],[88.5079,23.9496],[88.5119,23.9919],[88.6315,24.0339],[88.6673,24.0835],[88.7,24.0946],[88.7408,24.2541],[88.6964,24.3154],[88.5591,24.305],[88.5332,24.3331],[88.3901,24.3721],[88.2211,24.4561],[88.0913,24.5643],[88.0374,24.6457],[88.0097,24.6692],[87.9678,24.68],[87.9685,24.756],[87.8976,24.8556],[87.8969,24.8568]]]},"properties":{"district":"MURSHID>B>D"}},
{"type":"Feature","geometry":{"type":"Polygon","coordinates":[[[88.5079,23.9496],[88.4769,23.9408],[88.4667,23.8233],[88.3422,23.8137],[88.323,23.8093],[88.1952,23.7657],[88.1388,23.652],[88.2041,23.6167],[88.2699,23.6003],[88.2751,23.5381],[88.3666,23.5302],[88.3634,23.4719],[88.3305,23.4146],[88.3325,23.3254],[88.3363,23.2803],[88.4147,23.2112],[88.469,23.1986],[88.5053,23.1025],[88.4996,23.0846],[88.4049,22.9858],[88.4078,22.966],[88.4127,22.9431],[88.4611,22.9506],[88.5089,22.9443],[88.5106,22.9366],[88.5582,22.9216],[88.6624,22.8828],[88.6792,22.9453],[88.6792,23.0151],[88.6824,23.0788],[88.6754,23.0959],[88.697,23.1576],[88.7157,23.1809],[88.7517,23.2404],[88.7372,23.3457],[88.7822,23.4414],[88.697,23.5165],[88.6452,23.6096],[88.5588,23.6514],[88.5673,23.7005],[88.5911,23.8536],[88.67,23.884],[88.7334,23.9111],[88.7421,24.0335],[88.7,24.0946],[88.6673,24.0835],[88.6315,24.0339],[88.5119,23.9919],[88.5079,23.9496]]]},"properties":{"district":"NADIA"}},
{"type":"Feature","geometry":{"type":"Polygon","coordinates":[[[88.7157,23.1809],[88.697,23.1576],[88.6754,23.0959],[88.6824,23.0788],[88.6792,23.0151],[88.6792,22.9453],[88.6624,22.8828],[88.5582,22.9216],[88.5106,22.9366],[88.5089,22.9443],[88.4611,22.9506],[88.4127,22.9431],[88.4092,22.9291],[88.408,22.8844],[88.3899,22.8696],[88.3853,22.8682],[88.3748,22.8364],[88.3769,22.8351],[88.348,22.7595],[88.3616,22.7418],[88.3597,22.7334],[88.3589,22.7186],[88.3594,22.7109],[88.3629,22.6841],[88.3531,22.6594],[88.3525,22.6558],[88.3612,22.6314],[88.3928,22.6271],[88.3937,22.6048],[88.3958,22.5919],[88.4087,22.5624],[88.4081,22.5608],[88.4003,22.559],[88.4271,22.5144],[88.4443,22.5015],[88.4373,22.5718],[88.5226,22.5509],[88.5581,22.6199],[88.5886,22.6154],[88.6569,22.5076],[88.757,22.3933],[88.8197,22.3652],[88.811,22.3152],[88.9398,22.261],[88.9781,22.2022],[89.0692,22.1815],[88.9847,22.327],[88.9959,22.4692],[88.9449,22.5575],[88.9282,22.7186],[88.9686,22.8446],[88.8984,22.8983],[88.8751,23.0218],[88.8693,23.0988],[88.9178,23.1292],[88.9069,23.2361],[88.7517,23.2404],[88.7157,23.1809]]]},"properties":{"district":"NORTH TWENTY-FOUR PARGANAS"}},
{"type":"Feature","geometry":{"type":"Polygon","coordinates":[[[88.811,22.3152],[88.8197,22.3652],[88.757,22.3933],[88.6569,22.5076],[88.5886,22.6154],[88.5581,22.6199],[88.5226,22.5509],[88.4373,22.5718],[88.4443,22.5015],[88.4271,22.5144],[88.4108,22.4759],[88.389,22.4542],[88.346,22.4472],[88.3406,22.4289],[88.2974,22.4449],[88.272,22.4785],[88.2965,22.5153],[88.2891,22.5193],[88.239,22.5234],[88.2017,22.5121],[88.1942,22.5063],[88.1232,22.445],[88.1295,22.398],[88.0911,22.3654],[88.0964,22.3027],[88.0807,22.2517],[88.06,22.2061],[88.0885,22.1986],[88.1926,22.1445],[88.1749,22.0483],[88.1515,22.0228],[88.128,22.0013],[88.0993,21.969],[88.0686,21.9061],[87.9977,21.8171],[87.902,21.6869],[87.9918,21.513],[88.2288,21.4837],[88.3338,21.543],[88.434,21.5469],[88.5287,21.5276],[88.6345,21.5503],[88.8699,21.5323],[89.1357,21.5863],[89.145,21.6489],[89.0277,21.788],[89.0275,21.924],[89.0751,22.0142],[89.0383,22.0985],[89.0692,22.1815],[88.9781,22.2022],[88.9398,22.261],[88.811,22.3152]]]},"properties":{"district":"SOUTH 24PARGANAS"}},
{"type":"Feature","geometry":{"type":"Polygon","coordinates":[[[88.4003,22.559],[88.4081,22.5608],[88.4087,22.5624],[88.3958,22.5919],[88.3937,22.6048],[88.3928,22.6271],[88.3612,22.6314],[88.3659,22.6166],[88.3654,22.6092],[88.3459,22.5876],[88.3436,22.5808],[88.3347,22.5701],[88.3217,22.5524],[88.2717,22.5568],[88.2349,22.5556],[88.239,22.5234],[88.2891,22.5193],[88.2965,22.5153],[88.272,22.4785],[88.2974,22.4449],[88.3406,22.4289],[88.346,22.4472],[88.389,22.4542],[88.4108,22.4759],[88.4271,22.5144],[88.4003,22.559]]]},"properties":{"district":"KOLK>TA"}},
{"type":"Feature","geometry":{"type":"Polygon","coordinates":[[[88.3525,22.6558],[88.3423,22.6599],[88.3206,22.6688],[88.2262,22.6722],[88.175,22.6857],[88.0656,22.6856],[87.994,22.7034],[87.9862,22.7805],[87.9256,22.6882],[87.9377,22.6341],[87.8517,22.5952],[87.8858,22.5096],[87.8989,22.4755],[87.9106,22.4272],[87.9398,22.3939],[87.9604,22.2665],[88.06,22.2061],[88.0807,22.2517],[88.0964,22.3027],[88.0911,22.3654],[88.1295,22.398],[88.1232,22.445],[88.1942,22.5063],[88.2017,22.5121],[88.239,22.5234],[88.2349,22.5556],[88.2717,22.5568],[88.3217,22.5524],[88.3347,22.5701],[88.3436,22.5808],[88.3459,22.5876],[88.3654,22.6092],[88.3659,22.6166],[88.3612,22.6314],[88.3525,22.6558]]]},"properties":{"district":"H>ORA"}},
{"type":"Feature","geometry":{"type":"Polygon","coordinates":[[[88.3594,22.7109],[88.3589,22.7186],[88.3597,22.7334],[88.3616,22.7418],[88.348,22.7595],[88.3769,22.8351],[88.3748,22.8364],[88.3853,22.8682],[88.3899,22.8696],[88.408,22.8844],[88.4092,22.9291],[88.4127,22.9431],[88.4078,22.966],[88.4049,22.9858],[88.4996,23.0846],[88.5053,23.1025],[88.469,23.1986],[88.4147,23.2112],[88.3524,23.1183],[88.1862,23.16],[88.1579,23.1029],[88.1504,23.0851],[88.0648,23.0497],[88.0087,22.9678],[87.9612,22.9519],[87.9556,22.9534],[87.9337,22.944],[87.7591,22.9636],[87.7267,22.9968],[87.7113,23.0105],[87.6442,22.988],[87.6115,22.8886],[87.522,22.9298],[87.5424,22.8648],[87.6967,22.7786],[87.7429,22.7701],[87.8004,22.6393],[87.8517,22.5952],[87.9377,22.6341],[87.9256,22.6882],[87.9862,22.7805],[87.994,22.7034],[88.0656,22.6856],[88.175,22.6857],[88.2262,22.6722],[88.3206,22.6688],[88.3423,22.6599],[88.3525,22.6558],[88.3531,22.6594],[88.3629,22.6841],[88.3594,22.7109]]]},"properties":{"district":"HUGLI"}},
{"type":"Feature","geometry":{"type":"Polygon","coordinates":[[[87.9398,22.3939],[87.9106,22.4272],[87.8989,22.4755],[87.8858,22.5096],[87.7567,22.4733],[87.6899,22.5059],[87.646,22.4352],[87.6473,22.3257],[87.7194,22.3103],[87.7092,22.2894],[87.7127,22.1705],[87.672,22.1045],[87.482,22.079],[87.468,22.0266],[87.4958,21.9406],[87.4487,21.8911],[87.4403,21.77],[87.4541,21.74],[87.4837,21.613],[87.7308,21.6819],[87.8142,21.718],[87.9079,21.801],[87.9977,21.8171],[88.0686,21.9061],[88.0993,21.969],[88.128,22.0013],[88.1515,22.0228],[88.1749,22.0483],[88.1926,22.1445],[88.0885,22.1986],[88.06,22.2061],[87.9604,22.2665],[87.9398,22.3939]]]},"properties":{"district":"PURBA MEDIN|PUR"}},
{"type":"Feature","geometry":{"type":"Polygon","coordinates":[[[87.468,22.0266],[87.482,22.079],[87.672,22.1045],[87.7127,22.1705],[87.7092,22.2894],[87.7194,22.3103],[87.6473,22.3257],[87.646,22.4352],[87.6899,22.5059],[87.7567,22.4733],[87.8858,22.5096],[87.8517,22.5952],[87.8004,22.6393],[87.7429,22.7701],[87.6967,22.7786],[87.5424,22.8648],[87.522,22.9298],[87.4159,22.932],[87.3586,22.9554],[87.2203,22.9064],[87.142,22.8523],[87.0601,22.8437],[87.0767,22.7269],[87.1042,22.55],[87.1161,22.4282],[87.2501,22.4144],[87.1815,22.37],[87.2254,22.2363],[87.1796,22.1389],[87.1601,22.1505],[87.1353,22.0882],[87.2257,21.9579],[87.2518,21.8782],[87.2519,21.878],[87.2521,21.8777],[87.3194,21.7908],[87.3228,21.791],[87.4403,21.77],[87.4487,21.8911],[87.4958,21.9406],[87.468,22.0266]]]},"properties":{"district":"PASCHIM MEDIN|PUR"}},
{"type":"Feature","geometry":{"type":"Polygon","coordinates":[[[87.1353,22.0882],[87.1601,22.1505],[87.1796,22.1389],[87.2254,22.2363],[87.1815,22.37],[87.2501,22.4144],[87.1161,22.4282],[87.1042,22.55],[87.0767,22.7269],[86.9538,22.6373],[86.9174,22.6261],[86.8038,22.7088],[86.611,22.7978],[86.5584,22.7109],[86.6334,22.6122],[86.6331,22.6114],[86.6508,22.5933],[86.6513,22.5931],[86.6527,22.5927],[86.7657,22.5755],[86.8874,22.2976],[86.8578,22.2592],[86.851,22.2657],[86.8241,22.2667],[86.788,22.2317],[86.7818,22.237],[86.7248,22.2184],[86.7196,22.1474],[86.7226,22.1468],[86.7234,22.1467],[86.8159,22.1173],[86.8177,22.1166],[86.9657,22.0851],[87.0265,22.0369],[86.9999,21.9137],[87.0979,21.8666],[87.1053,21.9231],[87.2257,21.9579],[87.1353,22.0882]]]},"properties":{"district":"JHARGRAM"}},
{"type":"Feature","geometry":{"type":"Polygon","coordinates":[[[86.611,22.7978],[86.7031,22.8728],[86.7078,22.9547],[86.7522,23.0865],[86.7422,23.166],[86.7702,23.2413],[86.7892,23.3403],[86.8523,23.3851],[86.8266,23.4667],[86.8944,23.494],[86.9025,23.6387],[86.8578,23.6747],[86.805,23.6966],[86.6972,23.6937],[86.692,23.6917],[86.6144,23.6751],[86.6131,23.6753],[86.613,23.6753],[86.5967,23.6731],[86.5962,23.6729],[86.4769,23.6342],[86.4756,23.6335],[86.4476,23.6194],[86.447,23.6189],[86.3675,23.5405],[86.3574,23.4619],[86.3024,23.413],[86.2336,23.4624],[86.233,23.4623],[86.229,23.4444],[86.1545,23.4771],[86.1529,23.4793],[86.1439,23.5636],[86.0476,23.5856],[86.0471,23.5857],[86.0466,23.5857],[86.0242,23.4866],[85.9524,23.4709],[85.9518,23.4708],[85.9488,23.4708],[85.8871,23.4846],[85.8868,23.4848],[85.8631,23.4316],[85.8677,23.3297],[85.8198,23.2682],[85.8939,23.1558],[86.0375,23.1472],[86.0755,23.0943],[86.0898,23.0894],[86.1174,23.0855],[86.1674,23.029],[86.2242,22.9937],[86.2381,22.9962],[86.5012,22.9948],[86.4354,22.9252],[86.4166,22.7902],[86.4165,22.7893],[86.4464,22.7647],[86.4472,22.764],[86.5584,22.7109],[86.611,22.7978]]]},"properties":{"district":"PURULIYA"}},
{"type":"Feature","geometry":{"type":"Polygon","coordinates":[[[86.8944,23.494],[86.8266,23.4667],[86.8523,23.3851],[86.7892,23.3403],[86.7702,23.2413],[86.7422,23.166],[86.7522,23.0865],[86.7078,22.9547],[86.7031,22.8728],[86.611,22.7978],[86.8038,22.7088],[86.9174,22.6261],[86.9538,22.6373],[87.0767,22.7269],[87.0601,22.8437],[87.142,22.8523],[87.2203,22.9064],[87.3586,22.9554],[87.4159,22.932],[87.522,22.9298],[87.6115,22.8886],[87.6442,22.988],[87.7113,23.0105],[87.7641,23.0769],[87.691,23.1288],[87.6233,23.2469],[87.5953,23.2651],[87.4436,23.4067],[87.4033,23.4309],[87.3401,23.4662],[87.2477,23.5212],[87.2136,23.5546],[87.1413,23.5728],[87.0138,23.6323],[86.9025,23.6387],[86.8944,23.494]]]},"properties":{"district":"B>NKURA"}},
{"type":"Feature","geometry":{"type":"Polygon","coordinates":[[[87.7267,22.9968],[87.7591,22.9636],[87.9337,22.944],[87.9556,22.9534],[87.9612,22.9519],[88.0087,22.9678],[88.0648,23.0497],[88.1504,23.0851],[88.1579,23.1029],[88.1862,23.16],[88.3524,23.1183],[88.4147,23.2112],[88.3363,23.2803],[88.3325,23.3254],[88.3305,23.4146],[88.3634,23.4719],[88.3666,23.5302],[88.2751,23.5381],[88.2699,23.6003],[88.2041,23.6167],[88.1388,23.652],[88.1952,23.7657],[88.1599,23.7532],[88.0952,23.7523],[88.0058,23.8443],[87.9643,23.8045],[87.9437,23.7763],[87.9174,23.696],[87.9577,23.6324],[87.9064,23.543],[87.7362,23.5866],[87.6717,23.6209],[87.5357,23.6104],[87.4435,23.6145],[87.4144,23.6846],[87.3916,23.6977],[87.376,23.6016],[87.4266,23.5406],[87.4436,23.4067],[87.5953,23.2651],[87.6233,23.2469],[87.691,23.1288],[87.7641,23.0769],[87.7113,23.0105],[87.7267,22.9968]]]},"properties":{"district":"PURBA BARDDHAM>N"}},
{"type":"Feature","geometry":{"type":"Polygon","coordinates":[[[87.3916,23.6977],[87.2304,23.7424],[87.1509,23.7501],[87.0866,23.8089],[87.055,23.8226],[86.9126,23.8817],[86.9122,23.8819],[86.8914,23.8738],[86.8912,23.8733],[86.8004,23.8339],[86.8003,23.8335],[86.8213,23.7829],[86.805,23.6966],[86.8578,23.6747],[86.9025,23.6387],[87.0138,23.6323],[87.1413,23.5728],[87.2136,23.5546],[87.2477,23.5212],[87.3401,23.4662],[87.4033,23.4309],[87.4436,23.4067],[87.4266,23.5406],[87.376,23.6016],[87.3916,23.6977]]]},"properties":{"district":"PASCHIM BARDDHAM>N"}},
{"type":"Feature","geometry":{"type":"Polygon","coordinates":[[[87.4144,23.6846],[87.4435,23.6145],[87.5357,23.6104],[87.6717,23.6209],[87.7362,23.5866],[87.9064,23.543],[87.9577,23.6324],[87.9174,23.696],[87.9437,23.7763],[87.9643,23.8045],[87.8633,23.8741],[87.8676,24.0011],[87.8954,24.0738],[87.8968,24.1535],[87.961,24.1877],[88.0217,24.2523],[87.9568,24.3444],[87.9716,24.3895],[87.9708,24.4],[87.957,24.4885],[87.8908,24.5653],[87.7719,24.5837],[87.7717,24.5826],[87.8152,24.5017],[87.8011,24.3839],[87.6852,24.2467],[87.6394,24.2547],[87.6949,24.1865],[87.6943,24.1504],[87.5816,24.1545],[87.5719,24.0892],[87.4976,24.0627],[87.5095,24.0485],[87.5119,24.0382],[87.4601,23.9851],[87.2568,24.0404],[87.2566,24.0406],[87.2553,24.0417],[87.233,24.024],[87.2909,23.8943],[87.0866,23.8089],[87.1509,23.7501],[87.2304,23.7424],[87.3916,23.6977],[87.4144,23.6846]]]},"properties":{"district":"B|RBH@M"}}
]}