{"type":"FeatureCollection", "features": [
{"type":"Feature","geometry":{"type":"Polygon","coordinates":[[[84.027,27.4388],[83.9943,27.4461],[83.8737,27.4358],[83.8624,27.3357],[83.9319,27.3125],[83.9118,27.246],[83.9557,27.2353],[83.9874,27.197],[83.9477,27.1125],[83.9642,27.0841],[84.0493,27.0439],[84.0524,26.9064],[84.0814,26.8774],[84.1818,26.8335],[84.2195,26.8717],[84.2546,26.856],[84.256,26.7268],[84.3078,26.748],[84.3303,26.684],[84.4065,26.6726],[84.4154,26.6348],[84.4086,26.5873],[84.4579,26.6219],[84.491,26.6032],[84.5996,26.6947],[84.6511,26.6788],[84.6806,26.6999],[84.7221,26.7447],[84.7199,26.8251],[84.6859,26.8938],[84.6811,26.8898],[84.6991,26.9398],[84.7411,26.9544],[84.7576,27.0028],[84.644,27.047],[84.6868,27.1601],[84.6893,27.2236],[84.648,27.3005],[84.624,27.3368],[84.4222,27.3715],[84.3384,27.3756],[84.2753,27.397],[84.2479,27.4533],[84.1487,27.4861],[84.0977,27.5167],[84.0522,27.4433],[84.027,27.4388]]]},"properties":{"district":"PASHCHIMI CHAMPARAN"}},
{"type":"Feature","geometry":{"type":"Polygon","coordinates":[[[84.6811,26.8898],[84.6859,26.8938],[84.7199,26.8251],[84.7221,26.7447],[84.6806,26.6999],[84.6511,26.6788],[84.5996,26.6947],[84.491,26.6032],[84.5385,26.4845],[84.6026,26.4418],[84.6516,26.4666],[84.6983,26.4342],[84.768,26.3374],[84.8077,26.3226],[84.8734,26.2556],[84.9022,26.3236],[84.9996,26.3329],[85.0316,26.3235],[85.0448,26.3418],[85.1112,26.3143],[85.229,26.3001],[85.2806,26.3487],[85.2851,26.3957],[85.2062,26.4285],[85.1846,26.4988],[85.2181,26.5392],[85.2595,26.588],[85.2675,26.648],[85.2646,26.6501],[85.2554,26.757],[85.2095,26.7589],[85.1769,26.8152],[85.1909,26.87],[85.1374,26.8701],[85.0577,26.8494],[85.0047,26.8951],[84.9653,26.9583],[84.8586,26.9888],[84.8257,27.0209],[84.7576,27.0028],[84.7411,26.9544],[84.6991,26.9398],[84.6811,26.8898]]]},"properties":{"district":"PURBI CHAMPARAN"}},
{"type":"Feature","geometry":{"type":"Polygon","coordinates":[[[85.5233,26.8175],[85.4542,26.7822],[85.4077,26.7917],[85.3386,26.7455],[85.2554,26.757],[85.2646,26.6501],[85.334,26.6562],[85.3648,26.6303],[85.3812,26.5568],[85.3858,26.5078],[85.3598,26.4349],[85.3652,26.379],[85.3727,26.3351],[85.4119,26.2715],[85.4398,26.2725],[85.5044,26.3808],[85.5878,26.3593],[85.6512,26.3176],[85.7053,26.3054],[85.7304,26.3418],[85.6887,26.4134],[85.7055,26.4392],[85.7685,26.4327],[85.8041,26.4604],[85.7982,26.4963],[85.8174,26.6028],[85.7321,26.656],[85.7234,26.6745],[85.7345,26.7958],[85.7214,26.8205],[85.624,26.8739],[85.5233,26.8175]]]},"properties":{"district":"SITAMARHI"}},
{"type":"Feature","geometry":{"type":"Polygon","coordinates":[[[86.0106,26.656],[85.8587,26.569],[85.8174,26.6028],[85.7982,26.4963],[85.8041,26.4604],[85.7685,26.4327],[85.8356,26.3819],[85.8248,26.2883],[85.9197,26.2839],[85.9791,26.323],[86.0133,26.3017],[86.0143,26.248],[86.0595,26.2083],[86.1187,26.2019],[86.1803,26.2223],[86.2438,26.2045],[86.3253,26.161],[86.3235,26.1228],[86.3589,26.0766],[86.362,26.0698],[86.3885,26.0335],[86.4408,26.0739],[86.4711,26.1191],[86.515,26.1173],[86.5404,26.151],[86.4224,26.1579],[86.4511,26.2137],[86.5152,26.2183],[86.5055,26.2556],[86.5621,26.3059],[86.5665,26.3187],[86.6323,26.3329],[86.663,26.3678],[86.7043,26.3681],[86.7249,26.4266],[86.6925,26.4513],[86.5704,26.4966],[86.5421,26.5383],[86.4976,26.5424],[86.3955,26.5854],[86.3075,26.6204],[86.1998,26.5951],[86.0694,26.6575],[86.0106,26.656]]]},"properties":{"district":"MADHUBANI"}},
{"type":"Feature","geometry":{"type":"Polygon","coordinates":[[[85.2675,26.648],[85.2595,26.588],[85.2181,26.5392],[85.1846,26.4988],[85.2062,26.4285],[85.2851,26.3957],[85.2806,26.3487],[85.3727,26.3351],[85.3652,26.379],[85.3598,26.4349],[85.3858,26.5078],[85.3812,26.5568],[85.3648,26.6303],[85.334,26.6562],[85.2646,26.6501],[85.2675,26.648]]]},"properties":{"district":"SHEOHAR"}},
{"type":"Feature","geometry":{"type":"Polygon","coordinates":[[[87.756,26.4085],[87.7126,26.4274],[87.6458,26.3935],[87.6194,26.3234],[87.6548,26.306],[87.6658,26.2499],[87.6931,26.1994],[87.6921,26.1934],[87.6821,26.1786],[87.6751,26.1113],[87.8213,26.1112],[87.8541,26.103],[87.809,25.9587],[87.8197,25.9336],[87.8637,26.0361],[87.9143,26.0761],[87.9831,26.1043],[87.9783,26.1438],[88.011,26.1455],[88.1407,26.228],[88.1555,26.2581],[88.227,26.2909],[88.2759,26.3785],[88.2256,26.4536],[88.1787,26.4957],[88.2301,26.535],[88.2109,26.561],[88.1062,26.4934],[88.0966,26.4469],[88.0067,26.3611],[87.9916,26.3926],[87.926,26.4184],[87.8999,26.4776],[87.8484,26.4366],[87.7926,26.4689],[87.756,26.4085]]]},"properties":{"district":"KISHANGANJ"}},
{"type":"Feature","geometry":{"type":"Polygon","coordinates":[[[87.0374,26.5613],[87.0728,26.377],[87.0437,26.3362],[87.0621,26.2528],[87.1077,26.1898],[87.0976,26.1394],[87.0601,26.1073],[87.091,26.0513],[87.1226,26.0285],[87.0967,26.032],[87.0784,25.9618],[87.164,25.9428],[87.2785,25.9856],[87.3003,25.9655],[87.3489,25.978],[87.3996,25.9624],[87.4259,25.9918],[87.5089,25.9892],[87.562,26.0031],[87.6228,26.0266],[87.6267,26.0847],[87.6751,26.1113],[87.6821,26.1786],[87.6921,26.1934],[87.6931,26.1994],[87.6658,26.2499],[87.6548,26.306],[87.6194,26.3234],[87.6458,26.3935],[87.5846,26.3933],[87.5475,26.4183],[87.4636,26.4401],[87.3885,26.419],[87.3314,26.3546],[87.2194,26.4038],[87.1628,26.4039],[87.0917,26.4503],[87.0724,26.5858],[87.0374,26.5613]]]},"properties":{"district":"ARARIA"}},
{"type":"Feature","geometry":{"type":"Polygon","coordinates":[[[84.4154,26.6348],[84.3795,26.6145],[84.2847,26.5996],[84.1567,26.6284],[84.0866,26.6392],[84.0891,26.6031],[84.0483,26.5364],[83.9767,26.5334],[83.9151,26.5027],[83.9109,26.4498],[83.9906,26.4326],[84.0681,26.3884],[84.1761,26.372],[84.177,26.3699],[84.2761,26.3073],[84.3163,26.3281],[84.3629,26.3684],[84.4267,26.3739],[84.4285,26.3743],[84.5389,26.3039],[84.5757,26.3249],[84.6342,26.3016],[84.7644,26.2064],[84.8206,26.2118],[84.8936,26.2165],[84.8734,26.2556],[84.8077,26.3226],[84.768,26.3374],[84.6983,26.4342],[84.6516,26.4666],[84.6026,26.4418],[84.5385,26.4845],[84.491,26.6032],[84.4579,26.6219],[84.4086,26.5873],[84.4154,26.6348]]]},"properties":{"district":"GOPALGANJ"}},
{"type":"Feature","geometry":{"type":"Polygon","coordinates":[[[87.0374,26.5613],[87.0124,26.5311],[86.9319,26.517],[86.8938,26.4617],[86.8331,26.4394],[86.7665,26.4588],[86.7249,26.4266],[86.7043,26.3681],[86.663,26.3678],[86.6323,26.3329],[86.5665,26.3187],[86.5621,26.3059],[86.5055,26.2556],[86.5152,26.2183],[86.4511,26.2137],[86.4224,26.1579],[86.5404,26.151],[86.515,26.1173],[86.4711,26.1191],[86.4408,26.0739],[86.5291,25.9951],[86.559,26.0269],[86.6479,26.0203],[86.6923,26.0275],[86.7408,26.1122],[86.7625,26.1058],[86.8075,26.1009],[87.091,26.0513],[87.0601,26.1073],[87.0976,26.1394],[87.1077,26.1898],[87.0621,26.2528],[87.0437,26.3362],[87.0728,26.377],[87.0374,26.5613]]]},"properties":{"district":"SUPAUL"}},
{"type":"Feature","geometry":{"type":"Polygon","coordinates":[[[85.7055,26.4392],[85.6887,26.4134],[85.7304,26.3418],[85.7053,26.3054],[85.6965,26.2262],[85.7252,26.1926],[85.7488,26.1505],[85.7132,26.0947],[85.7138,26.0894],[85.7194,26.0489],[85.8622,26.023],[85.9021,25.978],[85.9304,25.9552],[86.0107,25.9391],[86.0612,25.9213],[86.0931,25.8973],[86.1596,25.8906],[86.1869,25.8953],[86.2404,25.8803],[86.2234,25.8067],[86.2235,25.7772],[86.2934,25.7635],[86.3297,25.7348],[86.3954,25.7212],[86.4078,25.73],[86.401,25.8003],[86.3589,25.8559],[86.3145,25.867],[86.3822,25.9515],[86.3885,26.0335],[86.362,26.0698],[86.3589,26.0766],[86.3235,26.1228],[86.3253,26.161],[86.2438,26.2045],[86.1803,26.2223],[86.1187,26.2019],[86.0595,26.2083],[86.0143,26.248],[86.0133,26.3017],[85.9791,26.323],[85.9197,26.2839],[85.8248,26.2883],[85.8356,26.3819],[85.7685,26.4327],[85.7055,26.4392]]]},"properties":{"district":"DARBHANGA"}},
{"type":"Feature","geometry":{"type":"Polygon","coordinates":[[[85.5878,26.3593],[85.5044,26.3808],[85.4398,26.2725],[85.4119,26.2715],[85.3727,26.3351],[85.2806,26.3487],[85.229,26.3001],[85.1112,26.3143],[85.0448,26.3418],[85.0316,26.3235],[84.9996,26.3329],[84.9022,26.3236],[84.8734,26.2556],[84.8936,26.2165],[84.9415,26.1194],[84.9425,26.0148],[84.9988,26.0087],[85.0665,25.9743],[85.105,25.9986],[85.1747,26.011],[85.2231,25.9995],[85.2851,26.0121],[85.286,25.95],[85.371,25.9325],[85.4268,25.938],[85.4544,25.9249],[85.5613,25.9108],[85.6402,25.9221],[85.6336,26.0042],[85.6829,26.0278],[85.7138,26.0894],[85.7132,26.0947],[85.7488,26.1505],[85.7252,26.1926],[85.6965,26.2262],[85.7053,26.3054],[85.6512,26.3176],[85.5878,26.3593]]]},"properties":{"district":"MUZAFFARPUR"}},
{"type":"Feature","geometry":{"type":"Polygon","coordinates":[[[84.3629,26.3684],[84.3163,26.3281],[84.2761,26.3073],[84.177,26.3699],[84.1766,26.2646],[84.098,26.2333],[84.0312,26.2169],[84.0085,26.1888],[84.0501,26.13],[84.2073,25.9991],[84.3119,25.9438],[84.3541,25.9588],[84.4119,25.9308],[84.4545,25.8878],[84.4624,25.948],[84.4349,25.9616],[84.4093,26.0327],[84.5524,26.0321],[84.6245,26.0787],[84.6634,26.0741],[84.7077,26.0854],[84.7172,26.1245],[84.7596,26.1662],[84.7644,26.2064],[84.6342,26.3016],[84.5757,26.3249],[84.5389,26.3039],[84.4285,26.3743],[84.4267,26.3739],[84.3629,26.3684]]]},"properties":{"district":"SIWAN"}},
{"type":"Feature","geometry":{"type":"Polygon","coordinates":[[[84.8206,26.2118],[84.7644,26.2064],[84.7596,26.1662],[84.7172,26.1245],[84.7077,26.0854],[84.6634,26.0741],[84.6245,26.0787],[84.5524,26.0321],[84.4093,26.0327],[84.4349,25.9616],[84.4624,25.948],[84.4545,25.8878],[84.4897,25.8882],[84.5339,25.8764],[84.5509,25.8408],[84.608,25.805],[84.6005,25.7384],[84.6337,25.708],[84.7632,25.706],[84.8499,25.6997],[84.9033,25.719],[84.9501,25.7045],[84.9812,25.725],[85.0262,25.7321],[85.0817,25.7111],[85.104,25.6597],[85.1326,25.6271],[85.1881,25.6226],[85.1946,25.6873],[85.1746,25.773],[85.1771,25.7852],[85.1646,25.8383],[85.1208,25.8601],[85.107,25.9023],[85.0962,25.9172],[85.0665,25.9743],[84.9988,26.0087],[84.9425,26.0148],[84.9415,26.1194],[84.8936,26.2165],[84.8206,26.2118]]]},"properties":{"district":"SARAN"}},
{"type":"Feature","geometry":{"type":"Polygon","coordinates":[[[87.562,26.0031],[87.5089,25.9892],[87.4259,25.9918],[87.3996,25.9624],[87.3489,25.978],[87.3003,25.9655],[87.2785,25.9856],[87.164,25.9428],[87.0784,25.9618],[87.0256,25.9567],[86.9957,25.9264],[87.0421,25.8475],[87.0186,25.8198],[87.0086,25.7424],[87.0479,25.6867],[87.0274,25.6603],[87.0587,25.5791],[87.0523,25.5272],[87.0979,25.5169],[87.0784,25.4546],[87.1054,25.4336],[87.1648,25.4518],[87.2286,25.4506],[87.2123,25.4999],[87.242,25.541],[87.2608,25.568],[87.2487,25.6229],[87.2784,25.7029],[87.4147,25.6756],[87.4335,25.683],[87.5054,25.6812],[87.5701,25.6601],[87.5945,25.6912],[87.6631,25.6875],[87.6703,25.7007],[87.7105,25.7654],[87.7541,25.7533],[87.8067,25.7685],[87.8288,25.7884],[87.8054,25.8754],[87.8116,25.8817],[87.8223,25.8808],[87.8074,25.9292],[87.8197,25.9336],[87.809,25.9587],[87.8541,26.103],[87.8213,26.1112],[87.6751,26.1113],[87.6267,26.0847],[87.6228,26.0266],[87.562,26.0031]]]},"properties":{"district":"PURNIA"}},
{"type":"Feature","geometry":{"type":"Polygon","coordinates":[[[86.6923,26.0275],[86.6479,26.0203],[86.6242,26.0032],[86.6381,25.9287],[86.7072,25.904],[86.7538,25.8559],[86.8424,25.871],[86.8696,25.822],[86.8527,25.7398],[86.8585,25.6744],[86.8036,25.6372],[86.8385,25.6174],[86.8447,25.5281],[86.8221,25.4435],[86.9466,25.4746],[87.0269,25.4647],[87.07,25.4703],[87.0979,25.5169],[87.0523,25.5272],[87.0587,25.5791],[87.0274,25.6603],[87.0479,25.6867],[87.0086,25.7424],[87.0186,25.8198],[87.0421,25.8475],[86.9957,25.9264],[87.0256,25.9567],[87.0784,25.9618],[87.0967,26.032],[87.1226,26.0285],[87.091,26.0513],[86.8075,26.1009],[86.7625,26.1058],[86.7408,26.1122],[86.6923,26.0275]]]},"properties":{"district":"MADHEPURA"}},
{"type":"Feature","geometry":{"type":"Polygon","coordinates":[[[86.3885,26.0335],[86.3822,25.9515],[86.3145,25.867],[86.3589,25.8559],[86.401,25.8003],[86.4078,25.73],[86.4586,25.6924],[86.5081,25.6183],[86.5837,25.5912],[86.5971,25.6216],[86.6493,25.6402],[86.7318,25.6617],[86.8036,25.6372],[86.8585,25.6744],[86.8527,25.7398],[86.8696,25.822],[86.8424,25.871],[86.7538,25.8559],[86.7072,25.904],[86.6381,25.9287],[86.6242,26.0032],[86.6479,26.0203],[86.559,26.0269],[86.5291,25.9951],[86.4408,26.0739],[86.3885,26.0335]]]},"properties":{"district":"SAHARSA"}},
{"type":"Feature","geometry":{"type":"Polygon","coordinates":[[[85.6336,26.0042],[85.6402,25.9221],[85.6351,25.9066],[85.6082,25.848],[85.6198,25.7601],[85.5574,25.646],[85.5291,25.5973],[85.5301,25.5374],[85.5451,25.4845],[85.6959,25.4857],[85.7311,25.5224],[85.7352,25.5247],[85.7594,25.5661],[85.7752,25.5856],[85.847,25.5731],[85.8315,25.6207],[85.8486,25.6446],[85.9514,25.6499],[86.014,25.6083],[86.0244,25.7163],[86.0951,25.7435],[86.1404,25.7113],[86.1841,25.6623],[86.293,25.6386],[86.3954,25.7212],[86.3297,25.7348],[86.2934,25.7635],[86.2235,25.7772],[86.2234,25.8067],[86.2404,25.8803],[86.1869,25.8953],[86.1596,25.8906],[86.0931,25.8973],[86.0612,25.9213],[86.0107,25.9391],[85.9304,25.9552],[85.9021,25.978],[85.8622,26.023],[85.7194,26.0489],[85.7138,26.0894],[85.6829,26.0278],[85.6336,26.0042]]]},"properties":{"district":"SAMASTIPUR"}},
{"type":"Feature","geometry":{"type":"Polygon","coordinates":[[[85.0665,25.9743],[85.0962,25.9172],[85.107,25.9023],[85.1208,25.8601],[85.1646,25.8383],[85.1771,25.7852],[85.1746,25.773],[85.1946,25.6873],[85.1881,25.6226],[85.2237,25.6078],[85.2426,25.5993],[85.2543,25.5851],[85.3253,25.5102],[85.3179,25.4778],[85.251,25.4519],[85.2199,25.4152],[85.3015,25.3936],[85.3602,25.4088],[85.413,25.4576],[85.4969,25.4255],[85.5759,25.4217],[85.6113,25.3803],[85.5994,25.4277],[85.5557,25.4271],[85.5451,25.4845],[85.5301,25.5374],[85.5291,25.5973],[85.5574,25.646],[85.6198,25.7601],[85.6082,25.848],[85.6351,25.9066],[85.6402,25.9221],[85.5613,25.9108],[85.4544,25.9249],[85.4268,25.938],[85.371,25.9325],[85.286,25.95],[85.2851,26.0121],[85.2231,25.9995],[85.1747,26.011],[85.105,25.9986],[85.0665,25.9743]]]},"properties":{"district":"VAISHALI"}},
{"type":"Feature","geometry":{"type":"Polygon","coordinates":[[[87.8067,25.7685],[87.7541,25.7533],[87.7105,25.7654],[87.6703,25.7007],[87.6631,25.6875],[87.5945,25.6912],[87.5701,25.6601],[87.5054,25.6812],[87.4335,25.683],[87.4147,25.6756],[87.2784,25.7029],[87.2487,25.6229],[87.2608,25.568],[87.242,25.541],[87.2123,25.4999],[87.2286,25.4506],[87.2159,25.3919],[87.2635,25.3516],[87.2926,25.3998],[87.3393,25.4169],[87.4418,25.3635],[87.4871,25.3691],[87.5518,25.3324],[87.6121,25.3125],[87.6988,25.3039],[87.7119,25.2577],[87.7791,25.247],[87.8037,25.219],[87.8593,25.2718],[87.8541,25.2973],[87.7866,25.3387],[87.7638,25.4071],[87.8548,25.4667],[87.8848,25.5199],[87.947,25.5393],[88.0496,25.4853],[88.0203,25.5912],[88.0486,25.6486],[88.0465,25.6993],[87.9657,25.7255],[87.9384,25.7737],[87.9072,25.7733],[87.8923,25.8652],[87.8223,25.8808],[87.8116,25.8817],[87.8054,25.8754],[87.8288,25.7884],[87.8067,25.7685]]]},"properties":{"district":"KATIHAR"}},
{"type":"Feature","geometry":{"type":"Polygon","coordinates":[[[86.0244,25.7163],[86.014,25.6083],[85.9514,25.6499],[85.8486,25.6446],[85.8315,25.6207],[85.847,25.5731],[85.7752,25.5856],[85.7594,25.5661],[85.7352,25.5247],[85.7814,25.5481],[85.8892,25.5],[85.8868,25.4219],[86.0327,25.392],[86.0647,25.3339],[86.1473,25.298],[86.1585,25.2651],[86.1927,25.2501],[86.2635,25.2783],[86.2609,25.2855],[86.2962,25.2991],[86.3881,25.3799],[86.4769,25.3989],[86.5051,25.4265],[86.4379,25.4744],[86.3849,25.4899],[86.3628,25.4806],[86.283,25.543],[86.293,25.6386],[86.1841,25.6623],[86.1404,25.7113],[86.0951,25.7435],[86.0244,25.7163]]]},"properties":{"district":"BEGUSARAI"}},
{"type":"Feature","geometry":{"type":"Polygon","coordinates":[[[86.3954,25.7212],[86.293,25.6386],[86.283,25.543],[86.3628,25.4806],[86.3849,25.4899],[86.4379,25.4744],[86.5051,25.4265],[86.5408,25.4924],[86.576,25.4858],[86.6008,25.4274],[86.6358,25.3988],[86.6437,25.278],[86.726,25.2541],[86.7765,25.2749],[86.7884,25.307],[86.8568,25.3635],[86.8197,25.4121],[86.8221,25.4435],[86.8447,25.5281],[86.8385,25.6174],[86.8036,25.6372],[86.7318,25.6617],[86.6493,25.6402],[86.5971,25.6216],[86.5837,25.5912],[86.5081,25.6183],[86.4586,25.6924],[86.4078,25.73],[86.3954,25.7212]]]},"properties":{"district":"KHAGARIA"}},
{"type":"Feature","geometry":{"type":"Polygon","coordinates":[[[84.3845,25.7329],[84.3358,25.7435],[84.3244,25.6712],[84.2222,25.6628],[84.1737,25.7211],[84.1051,25.7211],[84.0752,25.6953],[84.0811,25.6362],[84.0175,25.6147],[83.9519,25.5675],[83.9172,25.5488],[83.8417,25.4471],[83.7827,25.3975],[83.8976,25.2952],[84.018,25.2631],[84.0595,25.3089],[84.0462,25.3757],[84.1183,25.3585],[84.1674,25.371],[84.2732,25.3603],[84.3058,25.4223],[84.3639,25.4673],[84.336,25.5163],[84.3253,25.5514],[84.3483,25.6221],[84.3275,25.6599],[84.3845,25.7329]]]},"properties":{"district":"BUXAR"}},
{"type":"Feature","geometry":{"type":"MultiPolygon","coordinates":[[[[84.9812,25.725],[84.9501,25.7045],[84.9033,25.719],[84.8499,25.6997],[84.7997,25.5677],[84.7872,25.5545],[84.7543,25.5009],[84.7787,25.4492],[84.7633,25.4172],[84.7293,25.3394],[84.7021,25.3152],[84.7032,25.2565],[84.7466,25.2701],[84.8074,25.2166],[84.8574,25.2285],[84.9036,25.2889],[85.0162,25.2644],[85.0573,25.2889],[85.1717,25.3071],[85.1877,25.3367],[85.1789,25.4007],[85.2199,25.4152],[85.251,25.4519],[85.3179,25.4778],[85.3253,25.5102],[85.2543,25.5851],[85.2426,25.5993],[85.2237,25.6078],[85.1881,25.6226],[85.1326,25.6271],[85.104,25.6597],[85.0817,25.7111],[85.0262,25.7321],[84.9812,25.725]]],[[[85.7352,25.5247],[85.7311,25.5224],[85.6959,25.4857],[85.5451,25.4845],[85.5557,25.4271],[85.5994,25.4277],[85.6113,25.3803],[85.6453,25.3137],[85.6681,25.3441],[85.7296,25.3419],[85.8088,25.288],[85.9061,25.291],[85.9318,25.3214],[86.0202,25.2965],[86.0647,25.3339],[86.0327,25.392],[85.8868,25.4219],[85.8892,25.5],[85.7814,25.5481],[85.7352,25.5247]]]]},"properties":{"district":"PATNA"}},
{"type":"Feature","geometry":{"type":"Polygon","coordinates":[[[84.7632,25.706],[84.6337,25.708],[84.6005,25.7384],[84.5602,25.7371],[84.5619,25.6859],[84.5166,25.6771],[84.4628,25.7104],[84.4066,25.6986],[84.3845,25.7329],[84.3275,25.6599],[84.3483,25.6221],[84.3253,25.5514],[84.336,25.5163],[84.3639,25.4673],[84.3058,25.4223],[84.2732,25.3603],[84.3362,25.2951],[84.3264,25.277],[84.3316,25.2034],[84.4057,25.1957],[84.4634,25.1611],[84.5174,25.2057],[84.6299,25.2383],[84.6672,25.2904],[84.7021,25.3152],[84.7293,25.3394],[84.7633,25.4172],[84.7787,25.4492],[84.7543,25.5009],[84.7872,25.5545],[84.7997,25.5677],[84.8499,25.6997],[84.7632,25.706]]]},"properties":{"district":"BHOJPUR"}},
{"type":"Feature","geometry":{"type":"Polygon","coordinates":[[[87.0979,25.5169],[87.07,25.4703],[87.0269,25.4647],[86.9466,25.4746],[86.8221,25.4435],[86.8197,25.4121],[86.8568,25.3635],[86.7884,25.307],[86.7765,25.2749],[86.726,25.2541],[86.6493,25.218],[86.7104,25.1715],[86.6908,25.1142],[86.8614,25.097],[86.9425,25.1057],[86.9523,25.1008],[87.013,25.1087],[87.1216,25.0923],[87.1759,25.0578],[87.2503,25.106],[87.2954,25.0889],[87.3147,25.1606],[87.3346,25.2165],[87.4019,25.2269],[87.4628,25.195],[87.4906,25.2613],[87.5429,25.2808],[87.5518,25.3324],[87.4871,25.3691],[87.4418,25.3635],[87.3393,25.4169],[87.2926,25.3998],[87.2635,25.3516],[87.2159,25.3919],[87.2286,25.4506],[87.1648,25.4518],[87.1054,25.4336],[87.0784,25.4546],[87.0979,25.5169]]]},"properties":{"district":"BHAGALPUR"}},
{"type":"Feature","geometry":{"type":"Polygon","coordinates":[[[86.576,25.4858],[86.5408,25.4924],[86.5051,25.4265],[86.4769,25.3989],[86.3881,25.3799],[86.2962,25.2991],[86.2609,25.2855],[86.2635,25.2783],[86.3528,25.2991],[86.392,25.2278],[86.3637,25.1956],[86.3705,25.1443],[86.4194,25.1382],[86.3968,25.0509],[86.4394,25.0455],[86.4393,24.9985],[86.5064,24.9846],[86.5867,24.9452],[86.6502,24.9809],[86.6567,25.0646],[86.6908,25.1142],[86.7104,25.1715],[86.6493,25.218],[86.726,25.2541],[86.6437,25.278],[86.6358,25.3988],[86.6008,25.4274],[86.576,25.4858]]]},"properties":{"district":"MUNGER"}},
{"type":"Feature","geometry":{"type":"Polygon","coordinates":[[[85.6113,25.3803],[85.5759,25.4217],[85.4969,25.4255],[85.413,25.4576],[85.3602,25.4088],[85.3015,25.3936],[85.2199,25.4152],[85.1789,25.4007],[85.1877,25.3367],[85.1717,25.3071],[85.1781,25.2889],[85.1562,25.1841],[85.1617,25.1034],[85.1917,25.0501],[85.2307,25.015],[85.2803,25.0266],[85.3608,24.9846],[85.3879,24.9616],[85.4861,25.0044],[85.5443,24.9892],[85.559,25.029],[85.5981,25.0292],[85.64,25.0672],[85.6335,25.0972],[85.6021,25.1034],[85.6332,25.1271],[85.6883,25.1329],[85.6999,25.264],[85.7771,25.2603],[85.8347,25.2181],[85.9254,25.2408],[85.9061,25.291],[85.8088,25.288],[85.7296,25.3419],[85.6681,25.3441],[85.6453,25.3137],[85.6113,25.3803]]]},"properties":{"district":"NALANDA"}},
{"type":"Feature","geometry":{"type":"Polygon","coordinates":[[[83.7827,25.3975],[83.7173,25.3974],[83.6283,25.3286],[83.5379,25.3044],[83.4099,25.2462],[83.4022,25.2125],[83.3574,25.1997],[83.3638,25.1115],[83.3243,25.0375],[83.35,25.0093],[83.3548,24.9045],[83.4021,24.8141],[83.3935,24.7823],[83.4581,24.7318],[83.4894,24.7366],[83.5204,24.6773],[83.5007,24.6511],[83.5236,24.6032],[83.5222,24.5475],[83.7108,24.5442],[83.7517,24.6284],[83.7328,24.6606],[83.7606,24.7051],[83.7597,24.717],[83.7807,24.7348],[83.7749,24.7954],[83.7253,24.815],[83.7292,24.823],[83.7226,24.8398],[83.7621,24.8911],[83.7598,24.8977],[83.8044,24.9888],[83.8341,25.0349],[83.8042,25.1118],[83.8065,25.1776],[83.8318,25.2383],[83.8837,25.2525],[83.8976,25.2952],[83.7827,25.3975]]]},"properties":{"district":"KAIMUR"}},
{"type":"Feature","geometry":{"type":"Polygon","coordinates":[[[85.9061,25.291],[85.9254,25.2408],[85.9697,25.1878],[85.9537,25.1226],[85.9759,25.0733],[85.975,24.9977],[85.9794,24.9845],[86.1185,24.9749],[86.163,25.047],[86.2343,24.9933],[86.2431,25.0557],[86.3705,25.1443],[86.3637,25.1956],[86.392,25.2278],[86.3528,25.2991],[86.2635,25.2783],[86.1927,25.2501],[86.1585,25.2651],[86.1473,25.298],[86.0647,25.3339],[86.0202,25.2965],[85.9318,25.3214],[85.9061,25.291]]]},"properties":{"district":"LAKHISARAI"}},
{"type":"Feature","geometry":{"type":"Polygon","coordinates":[[[84.1674,25.371],[84.1183,25.3585],[84.0462,25.3757],[84.0595,25.3089],[84.018,25.2631],[83.8976,25.2952],[83.8837,25.2525],[83.8318,25.2383],[83.8065,25.1776],[83.8042,25.1118],[83.8341,25.0349],[83.8044,24.9888],[83.7598,24.8977],[83.7621,24.8911],[83.7226,24.8398],[83.7292,24.823],[83.7253,24.815],[83.7749,24.7954],[83.7807,24.7348],[83.7597,24.717],[83.7606,24.7051],[83.7328,24.6606],[83.7517,24.6284],[83.7108,24.5442],[83.5222,24.5475],[83.5961,24.5126],[83.717,24.5034],[83.8001,24.5296],[83.937,24.5499],[84.007,24.6435],[84.057,24.732],[84.1366,24.8227],[84.274,24.9724],[84.2876,24.9898],[84.3146,25.0193],[84.4187,25.0754],[84.4453,25.1292],[84.4526,25.1405],[84.4634,25.1611],[84.4057,25.1957],[84.3316,25.2034],[84.3264,25.277],[84.3362,25.2951],[84.2732,25.3603],[84.1674,25.371]]]},"properties":{"district":"ROHTAS"}},
{"type":"Feature","geometry":{"type":"Polygon","coordinates":[[[84.9036,25.2889],[84.8574,25.2285],[84.8365,25.2059],[84.8261,25.1337],[84.8679,25.0632],[84.8862,25.0615],[84.9064,25.0658],[84.9347,24.9867],[84.9912,25.0258],[85.0882,24.9919],[85.0918,24.9953],[85.1267,25.054],[85.1917,25.0501],[85.1617,25.1034],[85.1562,25.1841],[85.1781,25.2889],[85.1717,25.3071],[85.0573,25.2889],[85.0162,25.2644],[84.9036,25.2889]]]},"properties":{"district":"JAHANABAD"}},
{"type":"Feature","geometry":{"type":"Polygon","coordinates":[[[84.6672,25.2904],[84.6299,25.2383],[84.5174,25.2057],[84.4634,25.1611],[84.4526,25.1405],[84.4453,25.1292],[84.541,25.1049],[84.6545,25.1035],[84.7359,25.0692],[84.7322,25.0453],[84.8115,25.0728],[84.8679,25.0632],[84.8261,25.1337],[84.8365,25.2059],[84.8574,25.2285],[84.8074,25.2166],[84.7466,25.2701],[84.7032,25.2565],[84.7021,25.3152],[84.6672,25.2904]]]},"properties":{"district":"ARWAL"}},
{"type":"Feature","geometry":{"type":"Polygon","coordinates":[[[85.6335,25.0972],[85.6808,25.1132],[85.774,25.0826],[85.7516,25.0027],[85.8334,24.986],[85.8896,25.0128],[85.975,24.9977],[85.9759,25.0733],[85.9537,25.1226],[85.9697,25.1878],[85.9254,25.2408],[85.8347,25.2181],[85.7771,25.2603],[85.6999,25.264],[85.6883,25.1329],[85.6332,25.1271],[85.6021,25.1034],[85.6335,25.0972]]]},"properties":{"district":"SHEIKHPURA"}},
{"type":"Feature","geometry":{"type":"Polygon","coordinates":[[[86.3705,25.1443],[86.2431,25.0557],[86.2343,24.9933],[86.163,25.047],[86.1185,24.9749],[85.9794,24.9845],[85.975,24.9977],[85.8896,25.0128],[85.8334,24.986],[85.8222,24.9221],[85.8625,24.9387],[85.8921,24.8741],[85.9744,24.8678],[86.0096,24.8085],[86.0552,24.7795],[86.1233,24.7056],[86.1187,24.6254],[86.1615,24.5863],[86.2383,24.6002],[86.3006,24.5603],[86.3092,24.5107],[86.276,24.4658],[86.3578,24.4293],[86.4132,24.3802],[86.4672,24.3811],[86.4914,24.4296],[86.5093,24.5224],[86.5804,24.5669],[86.6079,24.6082],[86.6131,24.6699],[86.5851,24.6802],[86.527,24.7754],[86.5353,24.8691],[86.4999,24.9229],[86.5064,24.9846],[86.4393,24.9985],[86.4394,25.0455],[86.3968,25.0509],[86.4194,25.1382],[86.3705,25.1443]]]},"properties":{"district":"JAMUI"}},
{"type":"Feature","geometry":{"type":"Polygon","coordinates":[[[86.9425,25.1057],[86.8614,25.097],[86.6908,25.1142],[86.6567,25.0646],[86.6502,24.9809],[86.5867,24.9452],[86.5064,24.9846],[86.4999,24.9229],[86.5353,24.8691],[86.527,24.7754],[86.5851,24.6802],[86.6131,24.6699],[86.6079,24.6082],[86.6696,24.5646],[86.7499,24.5947],[86.7542,24.621],[86.881,24.5721],[86.928,24.6251],[86.9778,24.6395],[87.051,24.6087],[87.0544,24.6705],[87.0812,24.7292],[87.0739,24.8157],[87.1064,24.8542],[87.1565,24.8845],[87.1431,24.9134],[87.1459,25.0189],[87.1759,25.0578],[87.1216,25.0923],[87.013,25.1087],[86.9523,25.1008],[86.9425,25.1057]]]},"properties":{"district":"BANKA"}},
{"type":"Feature","geometry":{"type":"Polygon","coordinates":[[[85.559,25.029],[85.5443,24.9892],[85.4861,25.0044],[85.3879,24.9616],[85.3749,24.8947],[85.3306,24.8812],[85.3044,24.8281],[85.2946,24.7897],[85.2672,24.744],[85.3212,24.7295],[85.3067,24.6569],[85.3248,24.6467],[85.3161,24.5835],[85.3708,24.5552],[85.4317,24.5291],[85.4912,24.5483],[85.5378,24.5274],[85.5809,24.6006],[85.6513,24.5745],[85.6777,24.5907],[85.6512,24.6783],[85.7085,24.726],[85.7072,24.7798],[85.7354,24.821],[85.8093,24.794],[85.8671,24.8042],[85.9252,24.741],[86.0552,24.7795],[86.0096,24.8085],[85.9744,24.8678],[85.8921,24.8741],[85.8625,24.9387],[85.8222,24.9221],[85.8334,24.986],[85.7516,25.0027],[85.774,25.0826],[85.6808,25.1132],[85.6335,25.0972],[85.64,25.0672],[85.5981,25.0292],[85.559,25.029]]]},"properties":{"district":"NAWADA"}},
{"type":"Feature","geometry":{"type":"Polygon","coordinates":[[[84.4453,25.1292],[84.4187,25.0754],[84.3146,25.0193],[84.2876,24.9898],[84.274,24.9724],[84.1366,24.8227],[84.057,24.732],[84.007,24.6435],[84.0631,24.5791],[84.1084,24.4774],[84.2895,24.5629],[84.3277,24.4873],[84.3717,24.5091],[84.4291,24.571],[84.468,24.5365],[84.4897,24.5126],[84.547,24.527],[84.5966,24.5961],[84.6352,24.6512],[84.7227,24.6992],[84.7355,24.7741],[84.6995,24.8254],[84.6428,24.8669],[84.7203,24.9329],[84.746,24.985],[84.7322,25.0453],[84.7359,25.0692],[84.6545,25.1035],[84.541,25.1049],[84.4453,25.1292]]]},"properties":{"district":"AURANGABAD"}},
{"type":"Feature","geometry":{"type":"Polygon","coordinates":[[[85.2803,25.0266],[85.2307,25.015],[85.1917,25.0501],[85.1267,25.054],[85.0918,24.9953],[85.0882,24.9919],[84.9912,25.0258],[84.9347,24.9867],[84.9064,25.0658],[84.8862,25.0615],[84.8679,25.0632],[84.8115,25.0728],[84.7322,25.0453],[84.746,24.985],[84.7203,24.9329],[84.6428,24.8669],[84.6995,24.8254],[84.7355,24.7741],[84.7227,24.6992],[84.6352,24.6512],[84.5966,24.5961],[84.547,24.527],[84.4897,24.5126],[84.468,24.5365],[84.4291,24.571],[84.3717,24.5091],[84.3277,24.4873],[84.3418,24.3935],[84.3872,24.3824],[84.4618,24.336],[84.5019,24.2884],[84.5682,24.4095],[84.6649,24.3908],[84.6853,24.4551],[84.7487,24.4964],[84.8265,24.5247],[84.8398,24.4526],[84.9042,24.3951],[84.955,24.3712],[85.0307,24.4145],[85.0831,24.3997],[85.1748,24.4216],[85.1596,24.4594],[85.2287,24.4677],[85.2841,24.4933],[85.288,24.5235],[85.3708,24.5552],[85.3161,24.5835],[85.3248,24.6467],[85.3067,24.6569],[85.3212,24.7295],[85.2672,24.744],[85.2946,24.7897],[85.3044,24.8281],[85.3306,24.8812],[85.3749,24.8947],[85.3879,24.9616],[85.3608,24.9846],[85.2803,25.0266]]]},"properties":{"district":"GAYA"}}
]}