{"type":"FeatureCollection", "features": [
{"type":"Feature","geometry":{"type":"Polygon","coordinates":[[[80.3318,13.2355],[80.3468,13.3134],[80.3261,13.4449],[80.2638,13.5625],[80.2426,13.4709],[80.1822,13.4899],[80.0272,13.5137],[79.9724,13.469],[79.9579,13.3788],[79.9351,13.3534],[79.7985,13.2988],[79.7947,13.2421],[79.7642,13.2191],[79.6841,13.2433],[79.6518,13.2919],[79.5351,13.275],[79.5441,13.3168],[79.4999,13.3482],[79.3983,13.3302],[79.4324,13.1964],[79.3918,13.192],[79.329,13.1308],[79.2838,13.1229],[79.3224,13.0781],[79.3349,13.0604],[79.451,13.0933],[79.4819,13.1395],[79.5505,13.1349],[79.6335,13.1466],[79.6555,13.208],[79.6954,13.1589],[79.7368,13.1675],[79.7375,13.0612],[79.7895,13.0249],[79.8211,12.9618],[79.8896,12.9446],[79.9916,13.0534],[80.0232,13.037],[80.0943,13.0454],[80.1128,13.024],[80.1294,13.0522],[80.1233,13.0725],[80.1403,13.1067],[80.1454,13.1406],[80.2015,13.1271],[80.2419,13.1286],[80.255,13.15],[80.3029,13.1982],[80.3318,13.2355]]]},"properties":{"district":"THIRUVALLUR"}},
{"type":"Feature","geometry":{"type":"Polygon","coordinates":[[[80.3029,13.1982],[80.255,13.15],[80.2419,13.1286],[80.2015,13.1271],[80.1454,13.1406],[80.1403,13.1067],[80.1233,13.0725],[80.1294,13.0522],[80.1128,13.024],[80.1254,12.9862],[80.1884,12.9635],[80.1632,12.9376],[80.1784,12.8657],[80.2495,12.8573],[80.2669,12.9753],[80.2776,13.0133],[80.283,13.0458],[80.2863,13.0603],[80.2982,13.1019],[80.3008,13.1212],[80.301,13.143],[80.3318,13.2355],[80.3029,13.1982]]]},"properties":{"district":"CHENNAI"}},
{"type":"Feature","geometry":{"type":"Polygon","coordinates":[[[79.5505,13.1349],[79.4819,13.1395],[79.451,13.0933],[79.3349,13.0604],[79.3224,13.0781],[79.3216,13.0334],[79.289,12.9749],[79.218,12.954],[79.201,12.9038],[79.128,12.8928],[79.1136,12.7947],[79.0935,12.7579],[79.1096,12.7591],[79.2068,12.7416],[79.2385,12.7973],[79.2971,12.7476],[79.3577,12.7196],[79.3806,12.6278],[79.4269,12.6595],[79.4762,12.7287],[79.4569,12.8106],[79.4729,12.8743],[79.5599,12.8528],[79.5683,12.8991],[79.6589,12.9493],[79.7419,12.9935],[79.7895,13.0249],[79.7375,13.0612],[79.7368,13.1675],[79.6954,13.1589],[79.6555,13.208],[79.6335,13.1466],[79.5505,13.1349]]]},"properties":{"district":"RANIPET"}},
{"type":"Feature","geometry":{"type":"Polygon","coordinates":[[[79.2838,13.1229],[79.1853,13.0797],[79.16,13.0203],[79.0849,13.0274],[79.0369,13.0706],[78.9825,13.0864],[78.8889,13.0734],[78.8751,13.0969],[78.7943,13.0667],[78.7133,13.0691],[78.7046,13.0164],[78.6209,12.9913],[78.6336,12.9309],[78.6033,12.8428],[78.6201,12.8135],[78.6932,12.7893],[78.8647,12.8859],[78.9162,12.9077],[78.8924,12.8459],[78.9006,12.7893],[78.8467,12.7422],[78.896,12.6891],[78.981,12.6737],[79.024,12.6931],[79.0935,12.7579],[79.1136,12.7947],[79.128,12.8928],[79.201,12.9038],[79.218,12.954],[79.289,12.9749],[79.3216,13.0334],[79.3224,13.0781],[79.2838,13.1229]]]},"properties":{"district":"VELLORE"}},
{"type":"Feature","geometry":{"type":"Polygon","coordinates":[[[79.7895,13.0249],[79.7419,12.9935],[79.6589,12.9493],[79.5683,12.8991],[79.5599,12.8528],[79.6401,12.81],[79.7447,12.7439],[79.7345,12.7017],[79.6308,12.6384],[79.7065,12.5723],[79.7435,12.5324],[79.8216,12.5827],[79.8263,12.6202],[79.9292,12.6417],[79.9526,12.6991],[79.9088,12.7987],[80.0098,12.8081],[80.056,12.853],[80.0626,12.8994],[80.1018,12.951],[80.1254,12.9862],[80.1128,13.024],[80.0943,13.0454],[80.0232,13.037],[79.9916,13.0534],[79.8896,12.9446],[79.8211,12.9618],[79.7895,13.0249]]]},"properties":{"district":"KANCHIPURAM"}},
{"type":"Feature","geometry":{"type":"Polygon","coordinates":[[[80.1018,12.951],[80.0626,12.8994],[80.056,12.853],[80.0098,12.8081],[79.9088,12.7987],[79.9526,12.6991],[79.9292,12.6417],[79.8263,12.6202],[79.8216,12.5827],[79.7435,12.5324],[79.7454,12.4633],[79.6668,12.3882],[79.6423,12.3449],[79.6829,12.316],[79.7977,12.3369],[79.8727,12.2425],[79.9601,12.2333],[80.0043,12.2478],[80.0568,12.3262],[80.1377,12.4106],[80.1652,12.5259],[80.2547,12.7808],[80.2495,12.8573],[80.1784,12.8657],[80.1632,12.9376],[80.1884,12.9635],[80.1254,12.9862],[80.1018,12.951]]]},"properties":{"district":"CHENGALPATTU"}},
{"type":"Feature","geometry":{"type":"Polygon","coordinates":[[[77.7592,12.6971],[77.6781,12.6607],[77.5986,12.6676],[77.6058,12.6292],[77.5793,12.5732],[77.5873,12.5152],[77.6348,12.4869],[77.6168,12.3683],[77.5513,12.2913],[77.4789,12.2712],[77.472,12.208],[77.5187,12.1946],[77.6093,12.2062],[77.7313,12.1802],[77.7461,12.1574],[77.7947,12.1655],[77.8149,12.2341],[77.8673,12.2659],[77.8781,12.3347],[77.9254,12.3239],[77.9716,12.4124],[77.9087,12.5115],[77.9561,12.483],[78.0155,12.5046],[78.0478,12.4752],[78.1262,12.434],[78.1299,12.3936],[78.1788,12.3357],[78.2371,12.3224],[78.2764,12.2615],[78.3489,12.2504],[78.3924,12.2063],[78.5843,12.1643],[78.6334,12.1773],[78.6713,12.2204],[78.6481,12.2583],[78.6037,12.2625],[78.5885,12.3134],[78.6172,12.3474],[78.5673,12.3891],[78.4345,12.3888],[78.4422,12.4505],[78.4179,12.4797],[78.4126,12.6269],[78.3714,12.6272],[78.3026,12.6663],[78.2307,12.7609],[78.1342,12.782],[78.0772,12.8389],[78.0238,12.8532],[78.0085,12.8067],[77.9469,12.8383],[77.9219,12.8842],[77.8356,12.8714],[77.8077,12.8477],[77.7947,12.7581],[77.7592,12.6971]]]},"properties":{"district":"KRISHNAGIRI"}},
{"type":"Feature","geometry":{"type":"Polygon","coordinates":[[[78.8647,12.8859],[78.6932,12.7893],[78.6201,12.8135],[78.6033,12.8428],[78.5634,12.7354],[78.555,12.6994],[78.4742,12.6474],[78.4126,12.6269],[78.4179,12.4797],[78.4422,12.4505],[78.4345,12.3888],[78.5673,12.3891],[78.6172,12.3474],[78.5885,12.3134],[78.6037,12.2625],[78.6481,12.2583],[78.71,12.3042],[78.7585,12.4428],[78.8366,12.5816],[78.8585,12.6333],[78.896,12.6891],[78.8467,12.7422],[78.9006,12.7893],[78.8924,12.8459],[78.9162,12.9077],[78.8647,12.8859]]]},"properties":{"district":"TIRUPATHUR"}},
{"type":"Feature","geometry":{"type":"Polygon","coordinates":[[[79.4729,12.8743],[79.4569,12.8106],[79.4762,12.7287],[79.4269,12.6595],[79.3806,12.6278],[79.3577,12.7196],[79.2971,12.7476],[79.2385,12.7973],[79.2068,12.7416],[79.1096,12.7591],[79.0935,12.7579],[79.024,12.6931],[78.981,12.6737],[78.896,12.6891],[78.8585,12.6333],[78.8366,12.5816],[78.7585,12.4428],[78.71,12.3042],[78.6481,12.2583],[78.6713,12.2204],[78.6334,12.1773],[78.6842,12.1063],[78.7169,11.9836],[78.7574,12.0116],[78.8301,12.0078],[78.9147,12.0146],[78.958,12.0683],[78.9957,12.0675],[79.0524,12.0363],[79.0906,12.0781],[79.1357,12.0257],[79.2008,12.0706],[79.2601,12.0825],[79.277,12.1254],[79.2111,12.1657],[79.2796,12.2917],[79.2324,12.3619],[79.2269,12.4023],[79.2566,12.4482],[79.3249,12.4508],[79.4009,12.4323],[79.417,12.4083],[79.5072,12.3459],[79.5308,12.3701],[79.6423,12.3449],[79.6668,12.3882],[79.7454,12.4633],[79.7435,12.5324],[79.7065,12.5723],[79.6308,12.6384],[79.7345,12.7017],[79.7447,12.7439],[79.6401,12.81],[79.5599,12.8528],[79.4729,12.8743]]]},"properties":{"district":"TIRUVANNAMALAI"}},
{"type":"Feature","geometry":{"type":"Polygon","coordinates":[[[77.9087,12.5115],[77.9716,12.4124],[77.9254,12.3239],[77.8781,12.3347],[77.8673,12.2659],[77.8149,12.2341],[77.7947,12.1655],[77.7461,12.1574],[77.7738,12.1206],[77.7089,12.0361],[77.6756,11.952],[77.7376,11.9402],[77.7624,11.9101],[77.8476,11.8946],[77.8673,11.9159],[77.9345,11.9003],[77.9781,11.8966],[78.0612,11.9379],[78.1187,11.9599],[78.235,11.979],[78.2359,11.9182],[78.3676,11.8887],[78.449,11.8301],[78.5401,11.8054],[78.5973,11.8239],[78.6274,11.8717],[78.7239,11.9197],[78.7169,11.9836],[78.6842,12.1063],[78.6334,12.1773],[78.5843,12.1643],[78.3924,12.2063],[78.3489,12.2504],[78.2764,12.2615],[78.2371,12.3224],[78.1788,12.3357],[78.1299,12.3936],[78.1262,12.434],[78.0478,12.4752],[78.0155,12.5046],[77.9561,12.483],[77.9087,12.5115]]]},"properties":{"district":"DHARMAPURI"}},
{"type":"Feature","geometry":{"type":"Polygon","coordinates":[[[79.2269,12.4023],[79.2324,12.3619],[79.2796,12.2917],[79.2111,12.1657],[79.277,12.1254],[79.2601,12.0825],[79.2008,12.0706],[79.1357,12.0257],[79.1298,11.9681],[79.1953,11.947],[79.2418,11.8713],[79.3576,11.8531],[79.4182,11.8943],[79.4551,11.8712],[79.5772,11.8424],[79.6404,11.7986],[79.6748,11.8067],[79.6842,11.8127],[79.685,11.881],[79.7502,11.92],[79.8571,12.0068],[79.8488,12.0492],[79.8738,12.0426],[80.0043,12.2478],[79.9601,12.2333],[79.8727,12.2425],[79.7977,12.3369],[79.6829,12.316],[79.6423,12.3449],[79.5308,12.3701],[79.5072,12.3459],[79.417,12.4083],[79.4009,12.4323],[79.3249,12.4508],[79.2566,12.4482],[79.2269,12.4023]],[[79.6185,11.9705],[79.6211,12.0103],[79.6689,11.9184],[79.6259,11.9059],[79.6287,11.9571],[79.6185,11.9705]]]},"properties":{"district":"VILUPPURAM"}},
{"type":"Feature","geometry":{"type":"Polygon","coordinates":[[[78.8301,12.0078],[78.7574,12.0116],[78.7169,11.9836],[78.7239,11.9197],[78.6274,11.8717],[78.6949,11.8508],[78.6906,11.8043],[78.6402,11.7642],[78.6618,11.6474],[78.6925,11.6895],[78.7807,11.7029],[78.8035,11.6864],[78.7862,11.6138],[78.8291,11.5778],[78.8431,11.5233],[78.8775,11.5075],[78.924,11.5675],[79.0044,11.5747],[79.0774,11.599],[79.1836,11.586],[79.1944,11.6023],[79.2487,11.6527],[79.2964,11.6369],[79.3772,11.6791],[79.4317,11.6658],[79.4284,11.7307],[79.4638,11.7675],[79.4821,11.8118],[79.4551,11.8712],[79.4182,11.8943],[79.3576,11.8531],[79.2418,11.8713],[79.1953,11.947],[79.1298,11.9681],[79.1357,12.0257],[79.0906,12.0781],[79.0524,12.0363],[78.9957,12.0675],[78.958,12.0683],[78.9147,12.0146],[78.8301,12.0078]]]},"properties":{"district":"KALLAKKURICHI"}},
{"type":"Feature","geometry":{"type":"Polygon","coordinates":[[[78.1187,11.9599],[78.0612,11.9379],[77.9781,11.8966],[77.9345,11.9003],[77.8673,11.9159],[77.8476,11.8946],[77.7624,11.9101],[77.7376,11.9402],[77.6756,11.952],[77.6755,11.952],[77.6854,11.8777],[77.6662,11.8244],[77.7104,11.8106],[77.6901,11.6941],[77.706,11.6344],[77.7754,11.6964],[77.7357,11.6019],[77.7427,11.5633],[77.6967,11.4645],[77.7314,11.4448],[77.7845,11.4778],[77.8471,11.4364],[77.875,11.4132],[77.9553,11.4692],[77.9783,11.5288],[78.0186,11.5288],[78.0736,11.5222],[78.1598,11.5387],[78.2087,11.5651],[78.2638,11.5591],[78.3097,11.5879],[78.3452,11.5417],[78.3745,11.5886],[78.433,11.5954],[78.4649,11.5027],[78.4329,11.4759],[78.4484,11.4294],[78.4861,11.407],[78.5545,11.3578],[78.5544,11.3181],[78.6421,11.3432],[78.6635,11.3742],[78.6511,11.422],[78.7032,11.4563],[78.7414,11.4497],[78.7889,11.3876],[78.8227,11.4281],[78.7893,11.4541],[78.8431,11.5233],[78.8291,11.5778],[78.7862,11.6138],[78.8035,11.6864],[78.7807,11.7029],[78.6925,11.6895],[78.6618,11.6474],[78.6402,11.7642],[78.6906,11.8043],[78.6949,11.8508],[78.6274,11.8717],[78.5973,11.8239],[78.5401,11.8054],[78.449,11.8301],[78.3676,11.8887],[78.2359,11.9182],[78.235,11.979],[78.1187,11.9599]]]},"properties":{"district":"SALEM"}},
{"type":"Feature","geometry":{"type":"Polygon","coordinates":[[[77.6755,11.952],[77.5379,11.9325],[77.4948,11.944],[77.4616,11.9001],[77.4666,11.8472],[77.4272,11.761],[77.3936,11.7879],[77.3351,11.7713],[77.2938,11.8091],[77.1109,11.7736],[77.0823,11.74],[77.0128,11.8148],[76.9697,11.7765],[76.907,11.7954],[76.8883,11.7338],[76.8337,11.6491],[76.8468,11.5951],[76.8463,11.5841],[76.9736,11.5658],[77.0147,11.5259],[76.9573,11.3812],[77.0136,11.3688],[77.0454,11.4026],[77.1102,11.4064],[77.1416,11.3369],[77.1871,11.342],[77.3333,11.2576],[77.3636,11.3173],[77.4055,11.1995],[77.3768,11.1353],[77.4023,11.1221],[77.4538,11.1201],[77.6032,11.2127],[77.6433,11.1903],[77.663,11.1014],[77.7389,11.084],[77.7778,11.054],[77.8178,11.0703],[77.8755,11.0236],[77.933,11.0702],[77.8878,11.0868],[77.8849,11.1528],[77.8613,11.1859],[77.8616,11.2462],[77.791,11.2926],[77.778,11.3115],[77.7555,11.3386],[77.7037,11.3948],[77.6839,11.4277],[77.6967,11.4645],[77.7427,11.5633],[77.7357,11.6019],[77.7754,11.6964],[77.706,11.6344],[77.6901,11.6941],[77.7104,11.8106],[77.6662,11.8244],[77.6854,11.8777],[77.6755,11.952]]]},"properties":{"district":"ERODE"}},
{"type":"Feature","geometry":{"type":"Polygon","coordinates":[[[79.6842,11.8127],[79.6817,11.797],[79.6748,11.8067],[79.6404,11.7986],[79.5772,11.8424],[79.4551,11.8712],[79.4821,11.8118],[79.4638,11.7675],[79.4284,11.7307],[79.4317,11.6658],[79.3772,11.6791],[79.2964,11.6369],[79.2487,11.6527],[79.1944,11.6023],[79.1836,11.586],[79.0774,11.599],[79.0044,11.5747],[78.924,11.5675],[78.8775,11.5075],[78.9602,11.4063],[78.9822,11.4024],[79.1066,11.4019],[79.1752,11.3742],[79.2261,11.3921],[79.2855,11.3801],[79.3146,11.4186],[79.3722,11.4152],[79.4635,11.3183],[79.4985,11.3139],[79.5103,11.2282],[79.4586,11.1505],[79.5269,11.1839],[79.648,11.251],[79.6561,11.3034],[79.697,11.3216],[79.8032,11.3811],[79.813,11.424],[79.7572,11.5672],[79.7769,11.7],[79.7958,11.7855],[79.7198,11.7849],[79.7295,11.837],[79.685,11.881],[79.6842,11.8127]]]},"properties":{"district":"CUDDALORE"}},
{"type":"Feature","geometry":{"type":"Polygon","coordinates":[[[76.5172,11.3695],[76.5497,11.3316],[76.5219,11.272],[76.4532,11.2395],[76.4491,11.2055],[76.6292,11.194],[76.7067,11.2381],[76.6999,11.2571],[76.737,11.2449],[76.7902,11.2793],[76.8425,11.2875],[76.8483,11.335],[76.9573,11.3812],[77.0147,11.5259],[76.9736,11.5658],[76.8463,11.5841],[76.8468,11.5951],[76.7491,11.6153],[76.6139,11.6081],[76.5614,11.6328],[76.5116,11.7051],[76.4325,11.6316],[76.3776,11.6019],[76.2649,11.5938],[76.2474,11.4683],[76.2845,11.4829],[76.3712,11.4544],[76.462,11.3875],[76.5172,11.3695]]]},"properties":{"district":"THE NILGIRIS"}},
{"type":"Feature","geometry":{"type":"Polygon","coordinates":[[[78.3097,11.5879],[78.2638,11.5591],[78.2087,11.5651],[78.1598,11.5387],[78.0736,11.5222],[78.0186,11.5288],[77.9783,11.5288],[77.9553,11.4692],[77.875,11.4132],[77.8471,11.4364],[77.7845,11.4778],[77.7314,11.4448],[77.6967,11.4645],[77.6839,11.4277],[77.7037,11.3948],[77.7555,11.3386],[77.778,11.3115],[77.791,11.2926],[77.8616,11.2462],[77.8613,11.1859],[77.8849,11.1528],[77.8878,11.0868],[77.933,11.0702],[77.9941,11.097],[78.0605,11.0763],[78.1123,11.0637],[78.1652,11.0123],[78.1824,11.0703],[78.2308,11.0948],[78.3229,11.0594],[78.3459,11.1388],[78.4138,11.2082],[78.4652,11.3117],[78.4557,11.355],[78.4861,11.407],[78.4484,11.4294],[78.4329,11.4759],[78.4649,11.5027],[78.433,11.5954],[78.3745,11.5886],[78.3452,11.5417],[78.3097,11.5879]]]},"properties":{"district":"NAMAKKAL"}},
{"type":"Feature","geometry":{"type":"Polygon","coordinates":[[[78.8431,11.5233],[78.7893,11.4541],[78.8227,11.4281],[78.7889,11.3876],[78.7414,11.4497],[78.7032,11.4563],[78.6511,11.422],[78.6635,11.3742],[78.665,11.3174],[78.7246,11.3221],[78.752,11.2861],[78.6758,11.1954],[78.6809,11.1304],[78.7176,11.0557],[78.759,11.1227],[78.8077,11.0806],[78.8489,11.0902],[78.9733,11.0947],[79.0066,11.0564],[79.0684,11.1074],[79.0666,11.2057],[79.1371,11.269],[79.1777,11.2391],[79.1648,11.1786],[79.2641,11.172],[79.2965,11.2135],[79.2462,11.3098],[79.2855,11.3801],[79.2261,11.3921],[79.1752,11.3742],[79.1066,11.4019],[78.9822,11.4024],[78.9602,11.4063],[78.8775,11.5075],[78.8431,11.5233]]]},"properties":{"district":"PERAMBALUR"}},
{"type":"Feature","geometry":{"type":"Polygon","coordinates":[[[76.9573,11.3812],[76.8483,11.335],[76.8425,11.2875],[76.7902,11.2793],[76.737,11.2449],[76.6999,11.2571],[76.7067,11.2381],[76.6928,11.1723],[76.7475,11.1177],[76.8001,11.0551],[76.766,11.0297],[76.7109,11.039],[76.6593,10.9306],[76.7412,10.8903],[76.8125,10.8769],[76.8505,10.8189],[76.9042,10.7725],[76.8679,10.6954],[76.8785,10.6717],[76.8301,10.6379],[76.8388,10.5971],[76.8283,10.4508],[76.8162,10.4237],[76.8463,10.3579],[76.83,10.3039],[76.9826,10.2204],[77.0509,10.2627],[77.0931,10.3115],[77.0883,10.3722],[77.0417,10.4236],[77.0746,10.4621],[77.0894,10.5842],[77.0018,10.5793],[76.959,10.6423],[77.068,10.6631],[77.0784,10.7268],[77.1321,10.7535],[77.1678,10.7999],[77.2329,10.7759],[77.2798,10.789],[77.2878,10.8519],[77.2579,10.8964],[77.1808,10.9251],[77.1566,10.9953],[77.1739,11.0507],[77.2357,11.067],[77.2703,11.1058],[77.2237,11.1247],[77.1574,11.1972],[77.106,11.1731],[77.0994,11.1043],[77.0538,11.1252],[77.0047,11.194],[77.0071,11.2643],[77.0457,11.3226],[77.1416,11.3369],[77.1102,11.4064],[77.0454,11.4026],[77.0136,11.3688],[76.9573,11.3812]]]},"properties":{"district":"COIMBATORE"}},
{"type":"Feature","geometry":{"type":"Polygon","coordinates":[[[78.4861,11.407],[78.4557,11.355],[78.4652,11.3117],[78.4138,11.2082],[78.3459,11.1388],[78.3229,11.0594],[78.2308,11.0948],[78.1824,11.0703],[78.1652,11.0123],[78.1931,10.9651],[78.308,10.9596],[78.4093,10.9571],[78.4651,10.9193],[78.5463,10.8796],[78.5859,10.8315],[78.5688,10.7474],[78.5135,10.6949],[78.3974,10.6896],[78.374,10.7188],[78.2928,10.7019],[78.2827,10.7459],[78.2533,10.5367],[78.1862,10.5283],[78.2235,10.4657],[78.3145,10.4389],[78.2775,10.3829],[78.3385,10.3259],[78.3332,10.3007],[78.3784,10.3104],[78.4454,10.4083],[78.5053,10.3763],[78.5225,10.4372],[78.5836,10.4412],[78.58,10.5093],[78.4967,10.4854],[78.4572,10.579],[78.4823,10.639],[78.5179,10.6697],[78.6274,10.7044],[78.6809,10.67],[78.6911,10.7339],[78.7089,10.7328],[78.7358,10.6775],[78.7944,10.6527],[78.8198,10.6951],[78.8734,10.7057],[78.8682,10.8265],[78.7761,10.832],[78.8173,10.8361],[79.0044,10.8939],[78.983,10.9654],[79.0119,11.0098],[79.0066,11.0564],[78.9733,11.0947],[78.8489,11.0902],[78.8077,11.0806],[78.759,11.1227],[78.7176,11.0557],[78.6809,11.1304],[78.6758,11.1954],[78.752,11.2861],[78.7246,11.3221],[78.665,11.3174],[78.6635,11.3742],[78.6421,11.3432],[78.5544,11.3181],[78.5545,11.3578],[78.4861,11.407]]]},"properties":{"district":"TIRUCHIRAPPALLI"}},
{"type":"Feature","geometry":{"type":"Polygon","coordinates":[[[79.3146,11.4186],[79.2855,11.3801],[79.2462,11.3098],[79.2965,11.2135],[79.2641,11.172],[79.1648,11.1786],[79.1777,11.2391],[79.1371,11.269],[79.0666,11.2057],[79.0684,11.1074],[79.0066,11.0564],[79.0119,11.0098],[78.983,10.9654],[79.0044,10.8939],[79.0497,10.8883],[79.0862,10.9273],[79.1289,10.9336],[79.2121,10.9409],[79.311,11.0182],[79.3459,11.0418],[79.3927,11.0635],[79.4586,11.1505],[79.5103,11.2282],[79.4985,11.3139],[79.4635,11.3183],[79.3722,11.4152],[79.3146,11.4186]]]},"properties":{"district":"ARIYALUR"}},
{"type":"Feature","geometry":{"type":"Polygon","coordinates":[[[79.697,11.3216],[79.6561,11.3034],[79.648,11.251],[79.5269,11.1839],[79.5511,11.1301],[79.5486,11.0755],[79.515,10.9708],[79.6325,10.981],[79.7009,11.0153],[79.7481,10.9964],[79.8402,11.0021],[79.8584,11.1293],[79.8551,11.1856],[79.8352,11.3111],[79.8431,11.3512],[79.813,11.424],[79.8032,11.3811],[79.697,11.3216]]]},"properties":{"district":"MAYILADUTHURAI"}},
{"type":"Feature","geometry":{"type":"Polygon","coordinates":[[[77.1416,11.3369],[77.0457,11.3226],[77.0071,11.2643],[77.0047,11.194],[77.0538,11.1252],[77.0994,11.1043],[77.106,11.1731],[77.1574,11.1972],[77.2237,11.1247],[77.2703,11.1058],[77.2357,11.067],[77.1739,11.0507],[77.1566,10.9953],[77.1808,10.9251],[77.2579,10.8964],[77.2878,10.8519],[77.2798,10.789],[77.2329,10.7759],[77.1678,10.7999],[77.1321,10.7535],[77.0784,10.7268],[77.068,10.6631],[76.959,10.6423],[77.0018,10.5793],[77.0894,10.5842],[77.0746,10.4621],[77.0417,10.4236],[77.0883,10.3722],[77.0931,10.3115],[77.1765,10.3581],[77.2277,10.3164],[77.2881,10.2317],[77.351,10.2742],[77.3156,10.3549],[77.3329,10.4557],[77.4053,10.5235],[77.3681,10.5472],[77.4176,10.6258],[77.4827,10.65],[77.5161,10.6139],[77.5801,10.6792],[77.6555,10.6732],[77.7442,10.6373],[77.7668,10.6796],[77.8086,10.6811],[77.8266,10.7502],[77.7985,10.8063],[77.8722,10.7949],[77.8731,10.8358],[77.7766,10.8698],[77.7607,10.9045],[77.7918,11.0332],[77.7778,11.054],[77.7389,11.084],[77.663,11.1014],[77.6433,11.1903],[77.6032,11.2127],[77.4538,11.1201],[77.4023,11.1221],[77.3768,11.1353],[77.4055,11.1995],[77.3636,11.3173],[77.3333,11.2576],[77.1871,11.342],[77.1416,11.3369]]]},"properties":{"district":"TIRUPPUR"}},
{"type":"Feature","geometry":{"type":"Polygon","coordinates":[[[79.4586,11.1505],[79.3927,11.0635],[79.3459,11.0418],[79.311,11.0182],[79.2121,10.9409],[79.1289,10.9336],[79.0862,10.9273],[79.0497,10.8883],[79.0044,10.8939],[78.8173,10.8361],[78.7761,10.832],[78.8682,10.8265],[78.8734,10.7057],[78.965,10.6542],[78.989,10.7198],[79.0244,10.6987],[79.0701,10.6404],[79.1263,10.6349],[79.1848,10.538],[79.1404,10.5124],[79.1829,10.4719],[79.1261,10.4369],[79.1447,10.3822],[79.1185,10.3027],[79.1168,10.2345],[79.152,10.1915],[79.2272,10.1367],[79.2669,10.229],[79.3296,10.2847],[79.3632,10.2927],[79.3811,10.3164],[79.4723,10.3157],[79.4822,10.4912],[79.3988,10.5581],[79.3466,10.5959],[79.3427,10.6585],[79.301,10.7383],[79.3419,10.7398],[79.3728,10.8018],[79.3025,10.8241],[79.2701,10.8838],[79.3237,10.9247],[79.4013,10.8927],[79.4568,10.8636],[79.4882,10.8894],[79.515,10.9708],[79.5486,11.0755],[79.5511,11.1301],[79.5269,11.1839],[79.4586,11.1505]]]},"properties":{"district":"THANJAVUR"}},
{"type":"Feature","geometry":{"type":"Polygon","coordinates":[[[77.933,11.0702],[77.8755,11.0236],[77.8178,11.0703],[77.7778,11.054],[77.7918,11.0332],[77.7607,10.9045],[77.7766,10.8698],[77.8731,10.8358],[77.8722,10.7949],[77.7985,10.8063],[77.8266,10.7502],[77.8086,10.6811],[77.8278,10.6344],[77.8722,10.6321],[77.8809,10.6494],[77.9785,10.6393],[78.0053,10.6757],[77.9985,10.7743],[78.055,10.7724],[78.1052,10.8056],[78.1487,10.8047],[78.1523,10.7411],[78.1396,10.5638],[78.1862,10.5283],[78.2533,10.5367],[78.2827,10.7459],[78.2928,10.7019],[78.374,10.7188],[78.3974,10.6896],[78.5135,10.6949],[78.5688,10.7474],[78.5859,10.8315],[78.5463,10.8796],[78.4651,10.9193],[78.4093,10.9571],[78.308,10.9596],[78.1931,10.9651],[78.1652,11.0123],[78.1123,11.0637],[78.0605,11.0763],[77.9941,11.097],[77.933,11.0702]]]},"properties":{"district":"KARUR"}},
{"type":"Feature","geometry":{"type":"Polygon","coordinates":[[[79.7449,10.9146],[79.6682,10.9138],[79.6361,10.8161],[79.7264,10.8291],[79.7322,10.8031],[79.6693,10.7078],[79.6487,10.6439],[79.6726,10.5877],[79.7146,10.5308],[79.6893,10.4557],[79.6299,10.4493],[79.633,10.3618],[79.7005,10.315],[79.7103,10.2778],[79.8619,10.2831],[79.8822,10.3232],[79.8687,10.3756],[79.8587,10.5542],[79.851,10.7552],[79.8527,10.8269],[79.8287,10.8835],[79.7449,10.9146]]]},"properties":{"district":"NAGAPATTINAM"}},
{"type":"Feature","geometry":{"type":"Polygon","coordinates":[[[77.8722,10.6321],[77.8278,10.6344],[77.8086,10.6811],[77.7668,10.6796],[77.7442,10.6373],[77.6555,10.6732],[77.5801,10.6792],[77.5161,10.6139],[77.4827,10.65],[77.4176,10.6258],[77.3681,10.5472],[77.4053,10.5235],[77.3329,10.4557],[77.3156,10.3549],[77.351,10.2742],[77.2881,10.2317],[77.2665,10.1218],[77.3237,10.1277],[77.3954,10.1629],[77.4657,10.1294],[77.5367,10.1797],[77.6221,10.2188],[77.6634,10.1891],[77.7023,10.2132],[77.7292,10.1592],[77.701,10.0857],[77.7125,10.026],[77.7633,10.056],[77.8607,10.0754],[77.875,10.0617],[77.937,10.0969],[77.9541,10.1388],[78.0293,10.1808],[78.1204,10.1904],[78.1644,10.1414],[78.1696,10.0944],[78.208,10.0664],[78.2577,10.0877],[78.2847,10.191],[78.3277,10.2273],[78.3332,10.3007],[78.3385,10.3259],[78.2775,10.3829],[78.3145,10.4389],[78.2235,10.4657],[78.1862,10.5283],[78.1396,10.5638],[78.1523,10.7411],[78.1487,10.8047],[78.1052,10.8056],[78.055,10.7724],[77.9985,10.7743],[78.0053,10.6757],[77.9785,10.6393],[77.8809,10.6494],[77.8722,10.6321]]]},"properties":{"district":"DINDIGUL"}},
{"type":"Feature","geometry":{"type":"Polygon","coordinates":[[[79.6361,10.8161],[79.6682,10.9138],[79.7449,10.9146],[79.7481,10.9964],[79.7009,11.0153],[79.6325,10.981],[79.515,10.9708],[79.4882,10.8894],[79.4568,10.8636],[79.4013,10.8927],[79.3237,10.9247],[79.2701,10.8838],[79.3025,10.8241],[79.3728,10.8018],[79.3419,10.7398],[79.301,10.7383],[79.3427,10.6585],[79.3466,10.5959],[79.3988,10.5581],[79.4822,10.4912],[79.4723,10.3157],[79.7103,10.2778],[79.7005,10.315],[79.633,10.3618],[79.6299,10.4493],[79.6893,10.4557],[79.7146,10.5308],[79.6726,10.5877],[79.6487,10.6439],[79.6693,10.7078],[79.7322,10.8031],[79.7264,10.8291],[79.6361,10.8161]]]},"properties":{"district":"THIRUVARUR"}},
{"type":"Feature","geometry":{"type":"Polygon","coordinates":[[[78.4572,10.579],[78.4967,10.4854],[78.58,10.5093],[78.5836,10.4412],[78.5225,10.4372],[78.5053,10.3763],[78.5208,10.3272],[78.5111,10.27],[78.6365,10.2695],[78.6473,10.2258],[78.7085,10.1756],[78.7672,10.1636],[78.8096,10.213],[78.8317,10.1485],[78.882,10.1547],[78.924,10.1231],[78.9305,10.0218],[79.0029,9.9874],[78.9897,9.9472],[79.0454,9.8609],[79.1135,9.8469],[79.1289,9.8949],[79.2555,10.0451],[79.2272,10.1367],[79.152,10.1915],[79.1168,10.2345],[79.1185,10.3027],[79.1447,10.3822],[79.1261,10.4369],[79.1829,10.4719],[79.1404,10.5124],[79.1848,10.538],[79.1263,10.6349],[79.0701,10.6404],[79.0244,10.6987],[78.989,10.7198],[78.965,10.6542],[78.8734,10.7057],[78.8198,10.6951],[78.7944,10.6527],[78.7358,10.6775],[78.7089,10.7328],[78.6911,10.7339],[78.6809,10.67],[78.6274,10.7044],[78.5179,10.6697],[78.4823,10.639],[78.4572,10.579]]]},"properties":{"district":"PUDUKKOTTAI"}},
{"type":"Feature","geometry":{"type":"Polygon","coordinates":[[[78.3784,10.3104],[78.4124,10.2129],[78.3946,10.1744],[78.4516,10.1191],[78.4486,10.025],[78.4564,9.9688],[78.3153,9.9229],[78.2773,9.8698],[78.2666,9.8497],[78.2007,9.8732],[78.1243,9.855],[78.1936,9.8065],[78.1443,9.7836],[78.2105,9.7826],[78.3919,9.6507],[78.4174,9.5975],[78.5018,9.6102],[78.6161,9.5374],[78.8189,9.5951],[78.7936,9.6238],[78.7978,9.7028],[78.7511,9.7149],[78.7384,9.7535],[78.7692,9.7787],[78.8875,9.7578],[78.872,9.8628],[78.9226,9.9228],[78.9897,9.9472],[79.0029,9.9874],[78.9305,10.0218],[78.924,10.1231],[78.882,10.1547],[78.8317,10.1485],[78.8096,10.213],[78.7672,10.1636],[78.7085,10.1756],[78.6473,10.2258],[78.6365,10.2695],[78.5111,10.27],[78.5208,10.3272],[78.5053,10.3763],[78.4454,10.4083],[78.3784,10.3104]]]},"properties":{"district":"SIVAGANGA"}},
{"type":"Feature","geometry":{"type":"Polygon","coordinates":[[[78.3332,10.3007],[78.3277,10.2273],[78.2847,10.191],[78.2577,10.0877],[78.208,10.0664],[78.1696,10.0944],[78.1644,10.1414],[78.1204,10.1904],[78.0293,10.1808],[77.9541,10.1388],[77.937,10.0969],[77.875,10.0617],[77.8607,10.0754],[77.7633,10.056],[77.7125,10.026],[77.6795,9.9336],[77.6186,9.8584],[77.5976,9.7745],[77.5662,9.7479],[77.5353,9.6751],[77.4643,9.5799],[77.4754,9.563],[77.4984,9.5757],[77.5372,9.66],[77.5857,9.667],[77.6424,9.7064],[77.7101,9.7053],[77.7896,9.6393],[77.9227,9.6475],[78.0104,9.6395],[78.0388,9.6781],[78.0878,9.6827],[78.0837,9.758],[78.1443,9.7836],[78.1936,9.8065],[78.1243,9.855],[78.2007,9.8732],[78.2666,9.8497],[78.2773,9.8698],[78.3153,9.9229],[78.4564,9.9688],[78.4486,10.025],[78.4516,10.1191],[78.3946,10.1744],[78.4124,10.2129],[78.3784,10.3104],[78.3332,10.3007]]]},"properties":{"district":"MADURAI"}},
{"type":"Feature","geometry":{"type":"Polygon","coordinates":[[[77.4657,10.1294],[77.3954,10.1629],[77.3237,10.1277],[77.2665,10.1218],[77.2049,10.087],[77.262,10.0307],[77.261,9.9526],[77.2188,9.9047],[77.2325,9.7695],[77.2226,9.7356],[77.1806,9.6582],[77.2346,9.5815],[77.3252,9.5806],[77.4024,9.5252],[77.4754,9.563],[77.4643,9.5799],[77.5353,9.6751],[77.5662,9.7479],[77.5976,9.7745],[77.6186,9.8584],[77.6795,9.9336],[77.7125,10.026],[77.701,10.0857],[77.7292,10.1592],[77.7023,10.2132],[77.6634,10.1891],[77.6221,10.2188],[77.5367,10.1797],[77.4657,10.1294]]]},"properties":{"district":"THENI"}},
{"type":"Feature","geometry":{"type":"Polygon","coordinates":[[[78.9897,9.9472],[78.9226,9.9228],[78.872,9.8628],[78.8875,9.7578],[78.7692,9.7787],[78.7384,9.7535],[78.7511,9.7149],[78.7978,9.7028],[78.7936,9.6238],[78.8189,9.5951],[78.6161,9.5374],[78.5018,9.6102],[78.4174,9.5975],[78.3756,9.5679],[78.383,9.5176],[78.3253,9.514],[78.3011,9.4421],[78.2178,9.4476],[78.2432,9.3813],[78.2959,9.3889],[78.3286,9.2752],[78.2808,9.2843],[78.2737,9.1417],[78.3853,9.0943],[78.4151,9.1141],[78.536,9.1376],[78.5785,9.1304],[78.6574,9.1577],[78.6787,9.1957],[78.7289,9.2096],[78.8758,9.2573],[78.9956,9.2734],[79.0897,9.2602],[79.2086,9.2817],[79.2168,9.2553],[79.3263,9.2588],[79.3115,9.3278],[79.2659,9.2925],[79.1599,9.284],[79.0665,9.298],[78.982,9.3604],[78.9236,9.4264],[78.9144,9.493],[78.9268,9.5851],[78.9803,9.6896],[79.1135,9.8469],[79.0454,9.8609],[78.9897,9.9472]]]},"properties":{"district":"RAMANATHAPURAM"}},
{"type":"Feature","geometry":{"type":"Polygon","coordinates":[[[78.0104,9.6395],[77.9227,9.6475],[77.7896,9.6393],[77.7101,9.7053],[77.6424,9.7064],[77.5857,9.667],[77.5372,9.66],[77.4984,9.5757],[77.4754,9.563],[77.4024,9.5252],[77.4114,9.5075],[77.3923,9.4592],[77.3392,9.4202],[77.4413,9.3542],[77.5222,9.3353],[77.5504,9.3713],[77.5859,9.3097],[77.6557,9.2836],[77.7117,9.2917],[77.7815,9.2392],[77.8473,9.2444],[77.8554,9.2459],[77.9198,9.2029],[77.9568,9.2487],[78.0084,9.2742],[78.0094,9.3078],[78.0534,9.3609],[78.1686,9.369],[78.2162,9.3006],[78.2808,9.2843],[78.3286,9.2752],[78.2959,9.3889],[78.2432,9.3813],[78.2178,9.4476],[78.3011,9.4421],[78.3253,9.514],[78.383,9.5176],[78.3756,9.5679],[78.4174,9.5975],[78.3919,9.6507],[78.2105,9.7826],[78.1443,9.7836],[78.0837,9.758],[78.0878,9.6827],[78.0388,9.6781],[78.0104,9.6395]]]},"properties":{"district":"VIRUDHUNAGAR"}},
{"type":"Feature","geometry":{"type":"Polygon","coordinates":[[[77.3392,9.4202],[77.3251,9.3371],[77.2828,9.3015],[77.2708,9.2023],[77.2674,9.1542],[77.2122,9.1002],[77.1976,9.0471],[77.1467,9.022],[77.1932,8.9259],[77.2183,8.9183],[77.2563,8.8783],[77.2994,8.8797],[77.3008,8.7739],[77.3449,8.7424],[77.4245,8.7583],[77.4779,8.7265],[77.5612,8.7051],[77.556,8.7876],[77.5886,8.8274],[77.5939,8.9411],[77.6192,8.9477],[77.6964,8.927],[77.6856,8.9783],[77.7232,9.0015],[77.6778,9.1065],[77.7058,9.1885],[77.7442,9.1625],[77.8601,9.1966],[77.8473,9.2444],[77.7815,9.2392],[77.7117,9.2917],[77.6557,9.2836],[77.5859,9.3097],[77.5504,9.3713],[77.5222,9.3353],[77.4413,9.3542],[77.3392,9.4202]]]},"properties":{"district":"TENKASI"}},
{"type":"Feature","geometry":{"type":"Polygon","coordinates":[[[78.1686,9.369],[78.0534,9.3609],[78.0094,9.3078],[78.0084,9.2742],[77.9568,9.2487],[77.9198,9.2029],[77.8554,9.2459],[77.8473,9.2444],[77.8601,9.1966],[77.7442,9.1625],[77.7058,9.1885],[77.6778,9.1065],[77.7232,9.0015],[77.6856,8.9783],[77.6964,8.927],[77.7615,8.9246],[77.7891,8.8853],[77.8197,8.8388],[77.8525,8.803],[77.8168,8.7727],[77.8144,8.6638],[77.8123,8.5702],[77.8305,8.4894],[77.8378,8.3802],[77.9131,8.3236],[77.9735,8.3375],[78.0066,8.3559],[78.0664,8.3738],[78.0637,8.4124],[78.1433,8.5017],[78.1306,8.5479],[78.1379,8.6534],[78.1599,8.7163],[78.1666,8.8261],[78.185,8.9104],[78.22,8.9656],[78.3853,9.0943],[78.2737,9.1417],[78.2808,9.2843],[78.2162,9.3006],[78.1686,9.369]]]},"properties":{"district":"THOOTHUKUDI"}},
{"type":"Feature","geometry":{"type":"Polygon","coordinates":[[[77.6192,8.9477],[77.5939,8.9411],[77.5886,8.8274],[77.556,8.7876],[77.5612,8.7051],[77.4779,8.7265],[77.4245,8.7583],[77.3449,8.7424],[77.3008,8.7739],[77.2994,8.8797],[77.2563,8.8783],[77.2624,8.8417],[77.1969,8.7684],[77.1832,8.7169],[77.2013,8.6688],[77.269,8.5789],[77.3341,8.5532],[77.3641,8.5304],[77.4293,8.5108],[77.4458,8.4745],[77.4885,8.3893],[77.5347,8.3605],[77.5308,8.3191],[77.5641,8.2793],[77.5417,8.2319],[77.5392,8.1627],[77.5898,8.1403],[77.7296,8.1641],[77.7937,8.1623],[77.8411,8.2517],[77.8909,8.2705],[77.9735,8.3375],[77.9131,8.3236],[77.8378,8.3802],[77.8305,8.4894],[77.8123,8.5702],[77.8144,8.6638],[77.8168,8.7727],[77.8525,8.803],[77.8197,8.8388],[77.7891,8.8853],[77.7615,8.9246],[77.6964,8.927],[77.6192,8.9477]]]},"properties":{"district":"TIRUNELVELI"}},
{"type":"Feature","geometry":{"type":"Polygon","coordinates":[[[77.269,8.5789],[77.2619,8.5065],[77.2135,8.4707],[77.1607,8.3741],[77.1771,8.3261],[77.119,8.3214],[77.0978,8.2925],[77.2275,8.19],[77.3042,8.1367],[77.3372,8.1259],[77.4115,8.1036],[77.5559,8.0766],[77.5898,8.1403],[77.5392,8.1627],[77.5417,8.2319],[77.5641,8.2793],[77.5308,8.3191],[77.5347,8.3605],[77.4885,8.3893],[77.4458,8.4745],[77.4293,8.5108],[77.3641,8.5304],[77.3341,8.5532],[77.269,8.5789]]]},"properties":{"district":"KANNIYAKUMARI"}}
]}