{"type":"FeatureCollection","features":[{"type":"Feature","geometry":{"type":"Polygon","coordinates":[[[87.7733,25.2215],[87.6988,25.3039],[87.5518,25.3324],[87.4957,25.2708],[87.496,25.2704],[87.7141,25.2297],[87.7345,24.9956],[87.7907,24.9166],[87.9476,24.9038],[87.9479,24.9041],[87.9234,25.0002],[87.9055,25.0006],[87.896,25.0109],[87.7949,25.0879],[87.7733,25.2215]]]},"properties":{"AC_NO":1,"AC_NAME":"RAJMAHAL","PC_NO":1,"PC_NAME":"RAJMAHAL (ST)","district":"SAHIBGANJ"}},{"type":"Feature","geometry":{"type":"Polygon","coordinates":[[[87.4829,25.2505],[87.4826,25.2495],[87.4765,25.1945],[87.4633,25.1949],[87.4632,25.1949],[87.4743,25.1385],[87.4023,25.1183],[87.3268,25.0921],[87.3267,25.003],[87.3166,24.9567],[87.3167,24.9401],[87.4668,24.981],[87.5794,24.985],[87.7232,24.9083],[87.7907,24.9166],[87.7345,24.9956],[87.7141,25.2297],[87.496,25.2704],[87.4963,25.2701],[87.4829,25.2505]]]},"properties":{"AC_NO":2,"AC_NAME":"BORIO (ST)","PC_NO":1,"PC_NAME":"RAJMAHAL (ST)","district":"SAHIBGANJ"}},{"type":"Feature","geometry":{"type":"Polygon","coordinates":[[[87.3147,25.1606],[87.1759,25.0578],[87.1657,25.0454],[87.1659,25.0451],[87.3166,24.9567],[87.3267,25.003],[87.3268,25.0921],[87.4023,25.1183],[87.4743,25.1385],[87.4632,25.1949],[87.4628,25.195],[87.3346,25.2165],[87.3147,25.1606]]]},"properties":{"AC_NO":18,"AC_NAME":"MAHAGAMA","PC_NO":3,"PC_NAME":"GODDA","district":"GODDA"}},{"type":"Feature","geometry":{"type":"Polygon","coordinates":[[[87.1206,24.855],[87.1111,24.8577],[87.1064,24.8542],[87.0739,24.8157],[87.094,24.7979],[87.0936,24.7963],[87.3313,24.7677],[87.3167,24.9401],[87.3166,24.9567],[87.1659,25.0451],[87.1667,25.0439],[87.1206,24.855]]]},"properties":{"AC_NO":17,"AC_NAME":"GODDA","PC_NO":3,"PC_NAME":"GODDA","district":"GODDA"}},{"type":"Feature","geometry":{"type":"Polygon","coordinates":[[[87.4668,24.981],[87.3167,24.9401],[87.3313,24.7677],[87.3836,24.5838],[87.3703,24.507],[87.3721,24.505],[87.4236,24.5155],[87.4662,24.5694],[87.4603,24.7935],[87.5094,24.7986],[87.5927,24.8116],[87.7419,24.7705],[87.7907,24.9166],[87.7232,24.9083],[87.5794,24.985],[87.4668,24.981]]]},"properties":{"AC_NO":3,"AC_NAME":"BARHAIT (ST)","PC_NO":1,"PC_NAME":"RAJMAHAL (ST)","district":"SAHIBGANJ"}},{"type":"Feature","geometry":{"type":"Polygon","coordinates":[[[87.9469,24.9031],[87.9476,24.9038],[87.7907,24.9166],[87.7419,24.7705],[87.7974,24.7188],[87.752,24.5885],[87.7718,24.5833],[87.7719,24.5837],[87.8908,24.5653],[87.911,24.6044],[87.9112,24.6079],[87.9117,24.6555],[87.8355,24.7476],[87.8969,24.8568],[87.9469,24.9031]]]},"properties":{"AC_NO":5,"AC_NAME":"PAKAUR","PC_NO":1,"PC_NAME":"RAJMAHAL (ST)","district":"PAKUR"}},{"type":"Feature","geometry":{"type":"Polygon","coordinates":[[[87.5094,24.7986],[87.4603,24.7935],[87.4662,24.5694],[87.4236,24.5155],[87.3721,24.505],[87.3653,24.4639],[87.588,24.3211],[87.5657,24.5166],[87.6683,24.587],[87.752,24.5885],[87.7974,24.7188],[87.7419,24.7705],[87.5927,24.8116],[87.5094,24.7986]]]},"properties":{"AC_NO":4,"AC_NAME":"LITIPARA (ST)","PC_NO":1,"PC_NAME":"RAJMAHAL (ST)","district":"PAKUR"}},{"type":"Feature","geometry":{"type":"Polygon","coordinates":[[[87.0489,24.6236],[86.928,24.6251],[86.9148,24.542],[86.9167,24.4999],[87.0491,24.4822],[87.114,24.5217],[87.0958,24.6323],[87.3086,24.5918],[87.3703,24.507],[87.3836,24.5838],[87.3313,24.7677],[87.0936,24.7963],[87.0936,24.7962],[87.0489,24.6236]]]},"properties":{"AC_NO":16,"AC_NAME":"POREYAHAT","PC_NO":3,"PC_NAME":"GODDA","district":"GODDA"}},{"type":"Feature","geometry":{"type":"Polygon","coordinates":[[[85.889,24.7928],[85.8268,24.8082],[85.7354,24.821],[85.6512,24.6783],[85.5378,24.5274],[85.4441,24.5344],[85.444,24.5344],[85.4868,24.438],[85.5752,24.3934],[85.7026,24.3999],[85.7654,24.2913],[85.8533,24.2738],[85.8736,24.2882],[85.7722,24.6448],[85.9026,24.7666],[85.889,24.7928]]]},"properties":{"AC_NO":19,"AC_NAME":"KODARMA","PC_NO":5,"PC_NAME":"KODARMA","district":"KODERMA"}},{"type":"Feature","geometry":{"type":"Polygon","coordinates":[[[86.0552,24.7795],[85.9026,24.7666],[85.7722,24.6448],[85.8736,24.2882],[86.0171,24.3116],[86.0363,24.4045],[85.9953,24.5293],[86.1517,24.6002],[86.1517,24.6003],[86.1233,24.7056],[86.0552,24.7795]]]},"properties":{"AC_NO":28,"AC_NAME":"DHANWAR","PC_NO":5,"PC_NAME":"KODARMA","district":"GIRIDIH"}},{"type":"Feature","geometry":{"type":"Polygon","coordinates":[[[87.3703,24.507],[87.3086,24.5918],[87.0958,24.6323],[87.114,24.5217],[87.1337,24.3933],[87.0722,24.3144],[86.9873,24.306],[87.0659,24.2498],[87.1578,24.212],[87.2039,24.346],[87.3474,24.4486],[87.3653,24.4639],[87.3721,24.505],[87.3703,24.507]]]},"properties":{"AC_NO":11,"AC_NAME":"JAMA (ST)","PC_NO":2,"PC_NAME":"DUMKA (ST)","district":"DUMKA"}},{"type":"Feature","geometry":{"type":"Polygon","coordinates":[[[87.6852,24.2467],[87.8011,24.3839],[87.8152,24.5017],[87.7717,24.5826],[87.7718,24.5833],[87.752,24.5885],[87.6683,24.587],[87.5657,24.5166],[87.588,24.3211],[87.6394,24.2547],[87.6852,24.2467]]]},"properties":{"AC_NO":6,"AC_NAME":"MAHESHPUR (ST)","PC_NO":1,"PC_NAME":"RAJMAHAL (ST)","district":"PAKUR"}},{"type":"Feature","geometry":{"type":"Polygon","coordinates":[[[86.6079,24.6082],[86.5093,24.5224],[86.4921,24.433],[86.492,24.4325],[86.5802,24.4031],[86.7432,24.4028],[86.8892,24.4471],[86.9167,24.4999],[86.9148,24.542],[86.7542,24.621],[86.6696,24.5646],[86.6079,24.6082]]]},"properties":{"AC_NO":15,"AC_NAME":"DEOGHAR (SC)","PC_NO":3,"PC_NAME":"GODDA","district":"DEOGHAR"}},{"type":"Feature","geometry":{"type":"Polygon","coordinates":[[[86.2498,24.5869],[86.2467,24.5876],[86.1515,24.5999],[86.1517,24.6002],[85.9953,24.5293],[86.0363,24.4045],[86.0171,24.3116],[86.1265,24.2575],[86.2748,24.2731],[86.3163,24.4418],[86.316,24.442],[86.3006,24.5603],[86.2498,24.5869]]]},"properties":{"AC_NO":30,"AC_NAME":"JAMUA (SC)","PC_NO":5,"PC_NAME":"KODARMA","district":"GIRIDIH"}},{"type":"Feature","geometry":{"type":"Polygon","coordinates":[[[83.8728,24.5318],[83.8515,24.4035],[84.0576,24.3906],[84.0704,24.4519],[84.3317,24.4351],[84.3277,24.4873],[84.2895,24.5629],[84.1084,24.4774],[84.0631,24.5791],[84.007,24.6435],[83.8728,24.5318]]]},"properties":{"AC_NO":79,"AC_NAME":"HUSSAINABAD","PC_NO":13,"PC_NAME":"PALAMU (SC)","district":"PALAMU"}},{"type":"Feature","geometry":{"type":"Polygon","coordinates":[[[86.9167,24.4999],[86.8892,24.4471],[86.7432,24.4028],[86.7551,24.2937],[86.9873,24.306],[87.0722,24.3144],[87.1337,24.3933],[87.114,24.5217],[87.0491,24.4822],[86.9167,24.4999]]]},"properties":{"AC_NO":12,"AC_NAME":"JARMUNDI","PC_NO":3,"PC_NAME":"GODDA","district":"DUMKA"}},{"type":"Feature","geometry":{"type":"Polygon","coordinates":[[[85.3708,24.5552],[85.2287,24.4677],[85.0889,24.3726],[85.1074,24.3318],[85.1855,24.3305],[85.2064,24.3394],[85.2998,24.3402],[85.2873,24.2076],[85.3135,24.1554],[85.3252,24.147],[85.348,24.1558],[85.499,24.1712],[85.6077,24.263],[85.6231,24.2817],[85.6422,24.325],[85.5486,24.3484],[85.4868,24.438],[85.444,24.5344],[85.442,24.534],[85.3708,24.5552]]]},"properties":{"AC_NO":21,"AC_NAME":"BARHI","PC_NO":14,"PC_NAME":"HAZARIBAGH","district":"HAZARIBAGH"}},{"type":"Feature","geometry":{"type":"Polygon","coordinates":[[[87.4601,23.9851],[87.5119,24.0382],[87.5095,24.0485],[87.4934,24.0542],[87.4976,24.0627],[87.5816,24.1545],[87.6943,24.1504],[87.7001,24.1764],[87.6949,24.1865],[87.6394,24.2547],[87.588,24.3211],[87.3653,24.4639],[87.3474,24.4486],[87.333,24.3519],[87.3712,24.2622],[87.2953,24.2266],[87.3958,24.1196],[87.2566,24.0406],[87.2568,24.0404],[87.4601,23.9851]]]},"properties":{"AC_NO":7,"AC_NAME":"SIKARIPARA (ST)","PC_NO":2,"PC_NAME":"DUMKA (ST)","district":"DUMKA"}},{"type":"Feature","geometry":{"type":"Polygon","coordinates":[[[84.9042,24.3951],[84.7503,24.4965],[84.7484,24.4964],[84.6649,24.3908],[84.5682,24.4095],[84.4917,24.2867],[84.5774,24.0712],[84.7446,24.1806],[84.8769,24.1092],[85.0145,24.1476],[85.0301,24.242],[85.1074,24.3318],[85.0889,24.3726],[85.0307,24.4145],[84.9042,24.3951]]]},"properties":{"AC_NO":27,"AC_NAME":"CHATRA (SC)","PC_NO":4,"PC_NAME":"CHATRA","district":"CHATRA"}},{"type":"Feature","geometry":{"type":"Polygon","coordinates":[[[83.7585,24.5108],[83.7576,24.5104],[83.7398,24.4436],[83.6938,24.4167],[83.6662,24.3178],[83.739,24.2285],[83.8188,24.289],[83.8515,24.4035],[83.8728,24.5318],[83.7585,24.5108]]]},"properties":{"AC_NO":77,"AC_NAME":"BISHRAMPUR","PC_NO":13,"PC_NAME":"PALAMU (SC)","district":"GARHWA"}},{"type":"Feature","geometry":{"type":"Polygon","coordinates":[[[87.2553,24.0417],[87.2566,24.0406],[87.3958,24.1196],[87.2953,24.2266],[87.3712,24.2622],[87.333,24.3519],[87.3474,24.4486],[87.2039,24.346],[87.1578,24.212],[87.0659,24.2498],[87.0505,24.2061],[87.0403,24.1961],[87.0107,24.2132],[86.9749,24.1971],[86.9798,24.1958],[86.9796,24.1813],[86.9641,24.1783],[86.9446,24.1656],[86.9344,24.1358],[86.966,24.1273],[86.9622,24.1151],[86.9801,24.1245],[87.0942,24.0997],[87.1357,24.0375],[87.233,24.024],[87.2553,24.0417]]]},"properties":{"AC_NO":10,"AC_NAME":"DUMKA (ST)","PC_NO":2,"PC_NAME":"DUMKA (ST)","district":"DUMKA"}},{"type":"Feature","geometry":{"type":"Polygon","coordinates":[[[83.5035,24.5255],[83.385,24.4548],[83.4496,24.377],[83.3798,24.3115],[83.4081,24.2623],[83.3298,24.1014],[83.4322,24.0859],[83.516,24.0255],[83.5159,24.0242],[83.598,24.1939],[83.6872,24.1267],[83.8425,24.2616],[83.8188,24.289],[83.739,24.2285],[83.6662,24.3178],[83.6938,24.4167],[83.7398,24.4436],[83.7576,24.5104],[83.7567,24.5101],[83.5035,24.5255]]]},"properties":{"AC_NO":81,"AC_NAME":"BHAWANATHPUR","PC_NO":13,"PC_NAME":"PALAMU (SC)","district":"GARHWA"}},{"type":"Feature","geometry":{"type":"Polygon","coordinates":[[[86.3968,24.4036],[86.3775,24.4196],[86.35,24.4473],[86.3168,24.4416],[86.3163,24.4418],[86.2748,24.2731],[86.2486,24.1198],[86.3406,24.0544],[86.4358,24.0328],[86.4664,24.0194],[86.5706,24.1431],[86.5283,24.155],[86.4559,24.3719],[86.3968,24.4036]]]},"properties":{"AC_NO":31,"AC_NAME":"GANDEY","PC_NO":5,"PC_NAME":"KODARMA","district":"GIRIDIH"}},{"type":"Feature","geometry":{"type":"Polygon","coordinates":[[[86.4559,24.3719],[86.5283,24.155],[86.5706,24.1431],[86.6429,24.1345],[86.6807,24.1292],[86.7157,24.1549],[86.7759,24.2427],[86.7616,24.268],[86.7551,24.2937],[86.7432,24.4028],[86.5802,24.4031],[86.492,24.4325],[86.4914,24.4296],[86.4559,24.3719]]]},"properties":{"AC_NO":13,"AC_NAME":"MADHUPUR","PC_NO":3,"PC_NAME":"GODDA","district":"DEOGHAR"}},{"type":"Feature","geometry":{"type":"Polygon","coordinates":[[[85.4868,24.438],[85.5486,24.3484],[85.6422,24.325],[85.6231,24.2817],[85.6077,24.263],[85.499,24.1712],[85.348,24.1558],[85.3252,24.147],[85.3169,24.0838],[85.4459,24.0349],[85.574,24.023],[85.6424,24.12],[85.7106,24.1016],[85.6814,24.1756],[85.8533,24.2738],[85.7654,24.2913],[85.7026,24.3999],[85.5752,24.3934],[85.4868,24.438]]]},"properties":{"AC_NO":20,"AC_NAME":"BARKATHA","PC_NO":5,"PC_NAME":"KODARMA","district":"HAZARIBAGH"}},{"type":"Feature","geometry":{"type":"Polygon","coordinates":[[[84.3318,24.4349],[84.3317,24.4351],[84.0704,24.4519],[84.0576,24.3906],[84.0761,24.3002],[84.1437,24.2306],[84.0463,24.1574],[84.1546,23.9412],[84.3115,23.9076],[84.2237,24.0368],[84.3255,24.1444],[84.3592,24.2611],[84.4417,24.3319],[84.439,24.3317],[84.3318,24.4349]]]},"properties":{"AC_NO":78,"AC_NAME":"CHHATARPUR (SC)","PC_NO":13,"PC_NAME":"PALAMU (SC)","district":"PALAMU"}},{"type":"Feature","geometry":{"type":"Polygon","coordinates":[[[83.8515,24.4035],[83.8188,24.289],[83.8425,24.2616],[83.9672,24.1508],[83.8714,24.0696],[83.8662,23.9817],[83.8928,23.9817],[83.9335,23.8642],[83.9108,23.8174],[83.7412,23.7301],[83.7418,23.7287],[83.7736,23.6101],[83.9376,23.5688],[84.016,23.6343],[83.9839,23.7241],[84.0255,23.8029],[84.1546,23.9412],[84.0463,24.1574],[84.1437,24.2306],[84.0761,24.3002],[84.0576,24.3906],[83.8515,24.4035]]]},"properties":{"AC_NO":76,"AC_NAME":"DALTONGANJ","PC_NO":13,"PC_NAME":"PALAMU (SC)","district":"PALAMU"}},{"type":"Feature","geometry":{"type":"Polygon","coordinates":[[[86.9873,24.306],[86.7551,24.2937],[86.7616,24.268],[86.7759,24.2427],[86.7157,24.1549],[86.6976,24.1197],[86.7225,24.0156],[86.847,24.0337],[86.8468,24.0519],[86.9535,24.0418],[86.976,24.1075],[86.9622,24.1151],[86.966,24.1273],[86.9344,24.1358],[86.9446,24.1656],[86.9641,24.1783],[86.9796,24.1813],[86.9798,24.1958],[86.9749,24.1971],[87.0107,24.2132],[87.0403,24.1961],[87.0505,24.2061],[87.0659,24.2498],[86.9873,24.306]]]},"properties":{"AC_NO":14,"AC_NAME":"SARATH","PC_NO":2,"PC_NAME":"DUMKA (ST)","district":"DEOGHAR"}},{"type":"Feature","geometry":{"type":"Polygon","coordinates":[[[85.2064,24.3394],[85.1855,24.3305],[85.1074,24.3318],[85.0301,24.242],[85.0145,24.1476],[84.8769,24.1092],[84.7446,24.1806],[84.5774,24.0712],[84.5813,23.9867],[84.7581,24.0403],[84.934,23.9351],[84.966,23.7156],[85.0528,23.7131],[85.021,23.8976],[85.0533,23.9867],[85.2032,23.9637],[85.2308,24.0465],[85.1704,24.1],[85.1608,24.2301],[85.2873,24.2076],[85.2998,24.3402],[85.2064,24.3394]]]},"properties":{"AC_NO":26,"AC_NAME":"SIMARIA (SC)","PC_NO":4,"PC_NAME":"CHATRA","district":"CHATRA"}},{"type":"Feature","geometry":{"type":"Polygon","coordinates":[[[85.8533,24.2738],[85.6814,24.1756],[85.7106,24.1016],[85.8242,24.0734],[85.93,23.98],[86.0174,24.0586],[86.0822,24.1862],[86.1265,24.2575],[86.0171,24.3116],[85.8736,24.2882],[85.8533,24.2738]]]},"properties":{"AC_NO":29,"AC_NAME":"BAGODAR","PC_NO":5,"PC_NAME":"KODARMA","district":"GIRIDIH"}},{"type":"Feature","geometry":{"type":"Polygon","coordinates":[[[84.4434,24.332],[84.4417,24.3319],[84.3592,24.2611],[84.3255,24.1444],[84.2237,24.0368],[84.3115,23.9076],[84.45,23.9611],[84.4961,23.8951],[84.5813,23.9867],[84.5774,24.0712],[84.4917,24.2867],[84.4898,24.2903],[84.4434,24.332]]]},"properties":{"AC_NO":75,"AC_NAME":"PANKI","PC_NO":4,"PC_NAME":"CHATRA","district":"PALAMU"}},{"type":"Feature","geometry":{"type":"Polygon","coordinates":[[[86.1265,24.2575],[86.0822,24.1862],[86.1751,24.1447],[86.1127,24.069],[86.133,23.9318],[86.2934,23.9159],[86.3397,24.0109],[86.4358,24.0328],[86.3406,24.0544],[86.2486,24.1198],[86.2748,24.2731],[86.1265,24.2575]]]},"properties":{"AC_NO":32,"AC_NAME":"GIRIDIH","PC_NO":6,"PC_NAME":"GIRIDIH","district":"GIRIDIH"}},{"type":"Feature","geometry":{"type":"Polygon","coordinates":[[[83.7408,23.7308],[83.7412,23.7301],[83.9108,23.8174],[83.9335,23.8642],[83.8928,23.9817],[83.8662,23.9817],[83.8714,24.0696],[83.9672,24.1508],[83.8425,24.2616],[83.6872,24.1267],[83.598,24.1939],[83.5159,24.0242],[83.5159,24.0237],[83.5699,23.8692],[83.6673,23.8422],[83.7408,23.7308]]]},"properties":{"AC_NO":80,"AC_NAME":"GARHWA","PC_NO":13,"PC_NAME":"PALAMU (SC)","district":"GARHWA"}},{"type":"Feature","geometry":{"type":"Polygon","coordinates":[[[85.2873,24.2076],[85.1608,24.2301],[85.1704,24.1],[85.2308,24.0465],[85.2032,23.9637],[85.2824,23.8933],[85.394,23.859],[85.574,24.023],[85.4459,24.0349],[85.3169,24.0838],[85.3252,24.147],[85.3135,24.1554],[85.2873,24.2076]]]},"properties":{"AC_NO":25,"AC_NAME":"HAZARIBAGH","PC_NO":14,"PC_NAME":"HAZARIBAGH","district":"HAZARIBAGH"}},{"type":"Feature","geometry":{"type":"Polygon","coordinates":[[[85.93,23.98],[85.9113,23.9482],[85.8354,23.8423],[85.8439,23.8412],[86.0919,23.7606],[86.174,23.7844],[86.1616,23.8247],[86.1161,23.8944],[86.133,23.9318],[86.1127,24.069],[86.1751,24.1447],[86.0822,24.1862],[86.0174,24.0586],[85.93,23.98]]]},"properties":{"AC_NO":33,"AC_NAME":"DUMRI","PC_NO":6,"PC_NAME":"GIRIDIH","district":"BOKARO"}},{"type":"Feature","geometry":{"type":"Polygon","coordinates":[[[86.8912,23.8733],[86.8914,23.8738],[86.9122,23.8819],[86.9125,23.8818],[86.847,24.0337],[86.7225,24.0156],[86.6976,24.1197],[86.7157,24.1549],[86.6807,24.1292],[86.6429,24.1345],[86.5706,24.1431],[86.4664,24.0194],[86.6701,23.9215],[86.8004,23.8337],[86.8004,23.8339],[86.8912,23.8733]]]},"properties":{"AC_NO":9,"AC_NAME":"JAMTARA","PC_NO":2,"PC_NAME":"DUMKA (ST)","district":"JAMTARA"}},{"type":"Feature","geometry":{"type":"Polygon","coordinates":[[[87.0866,23.8089],[87.2909,23.8943],[87.233,24.024],[87.1357,24.0375],[87.0942,24.0997],[86.9801,24.1245],[86.976,24.1075],[86.9535,24.0418],[86.8468,24.0519],[86.847,24.0337],[86.9125,23.8818],[86.9126,23.8817],[87.055,23.8226],[87.0866,23.8089]]]},"properties":{"AC_NO":8,"AC_NAME":"NALA","PC_NO":2,"PC_NAME":"DUMKA (ST)","district":"JAMTARA"}},{"type":"Feature","geometry":{"type":"Polygon","coordinates":[[[85.7106,24.1016],[85.6424,24.12],[85.574,24.023],[85.394,23.859],[85.3273,23.6907],[85.441,23.6452],[85.6212,23.6314],[85.6182,23.8811],[85.6105,23.888],[85.6107,23.9017],[85.6842,23.9625],[85.7117,23.9354],[85.8354,23.8423],[85.9113,23.9482],[85.93,23.98],[85.8242,24.0734],[85.7106,24.1016]]]},"properties":{"AC_NO":24,"AC_NAME":"MANDU","PC_NO":14,"PC_NAME":"HAZARIBAGH","district":"RAMGARH"}},{"type":"Feature","geometry":{"type":"Polygon","coordinates":[[[86.4358,24.0328],[86.3397,24.0109],[86.2934,23.9159],[86.133,23.9318],[86.1161,23.8944],[86.1616,23.8247],[86.2999,23.841],[86.3518,23.7866],[86.3891,23.8287],[86.45,23.8833],[86.639,23.897],[86.6701,23.9215],[86.4664,24.0194],[86.4358,24.0328]]]},"properties":{"AC_NO":42,"AC_NAME":"TUNDI","PC_NO":6,"PC_NAME":"GIRIDIH","district":"DHANBAD"}},{"type":"Feature","geometry":{"type":"Polygon","coordinates":[[[84.5813,23.9867],[84.4961,23.8951],[84.4355,23.8113],[84.5342,23.6704],[84.6414,23.6685],[84.6856,23.6051],[84.8578,23.5331],[84.885,23.5592],[84.9445,23.5962],[84.966,23.7156],[84.934,23.9351],[84.7581,24.0403],[84.5813,23.9867]]]},"properties":{"AC_NO":74,"AC_NAME":"LATEHAR (SC)","PC_NO":4,"PC_NAME":"CHATRA","district":"LATEHAR"}},{"type":"Feature","geometry":{"type":"Polygon","coordinates":[[[85.0528,23.7131],[85.1137,23.6622],[85.2241,23.7005],[85.242,23.5938],[85.3181,23.5704],[85.4887,23.5612],[85.441,23.6452],[85.3273,23.6907],[85.394,23.859],[85.2824,23.8933],[85.2032,23.9637],[85.0533,23.9867],[85.021,23.8976],[85.0528,23.7131]]]},"properties":{"AC_NO":22,"AC_NAME":"BARKAGAON","PC_NO":14,"PC_NAME":"HAZARIBAGH","district":"HAZARIBAGH"}},{"type":"Feature","geometry":{"type":"Polygon","coordinates":[[[85.9488,23.4708],[85.9506,23.4708],[85.9861,23.5523],[85.9541,23.6678],[85.8914,23.6772],[85.8439,23.8412],[85.8354,23.8423],[85.7117,23.9354],[85.6842,23.9625],[85.6107,23.9017],[85.6105,23.888],[85.6182,23.8811],[85.6212,23.6314],[85.7692,23.676],[85.8868,23.4848],[85.8871,23.4846],[85.9488,23.4708]]]},"properties":{"AC_NO":34,"AC_NAME":"GOMIA","PC_NO":6,"PC_NAME":"GIRIDIH","district":"BOKARO"}},{"type":"Feature","geometry":{"type":"Polygon","coordinates":[[[86.5962,23.6729],[86.5965,23.673],[86.5723,23.7512],[86.6596,23.8297],[86.639,23.897],[86.45,23.8833],[86.3891,23.8287],[86.4325,23.7315],[86.4762,23.6338],[86.4769,23.6342],[86.5962,23.6729]]]},"properties":{"AC_NO":38,"AC_NAME":"SINDRI","PC_NO":7,"PC_NAME":"DHANBAD","district":"DHANBAD"}},{"type":"Feature","geometry":{"type":"Polygon","coordinates":[[[86.613,23.6753],[86.6144,23.6751],[86.692,23.6917],[86.6972,23.6937],[86.805,23.6966],[86.8213,23.7829],[86.8003,23.8335],[86.8004,23.8337],[86.6701,23.9215],[86.639,23.897],[86.6596,23.8297],[86.5723,23.7512],[86.5965,23.673],[86.5967,23.6731],[86.613,23.6753]]]},"properties":{"AC_NO":39,"AC_NAME":"NIRSA","PC_NO":7,"PC_NAME":"DHANBAD","district":"DHANBAD"}},{"type":"Feature","geometry":{"type":"Polygon","coordinates":[[[84.0747,23.3336],[84.1918,23.3254],[84.2443,23.4433],[84.328,23.4935],[84.3836,23.607],[84.5342,23.6704],[84.4355,23.8113],[84.4961,23.8951],[84.45,23.9611],[84.3115,23.9076],[84.1546,23.9412],[84.0255,23.8029],[83.9839,23.7241],[84.016,23.6343],[84.0144,23.5034],[83.9671,23.3877],[84.0747,23.3336]]]},"properties":{"AC_NO":73,"AC_NAME":"MANIKA (ST)","PC_NO":4,"PC_NAME":"CHATRA","district":"LATEHAR"}},{"type":"Feature","geometry":{"type":"Polygon","coordinates":[[[86.3518,23.7866],[86.3076,23.7045],[86.3646,23.7025],[86.4325,23.7315],[86.3891,23.8287],[86.3518,23.7866]]]},"properties":{"AC_NO":40,"AC_NAME":"DHANBAD","PC_NO":7,"PC_NAME":"DHANBAD","district":"DHANBAD"}},{"type":"Feature","geometry":{"type":"Polygon","coordinates":[[[86.1616,23.8247],[86.174,23.7844],[86.1707,23.7277],[86.2286,23.7077],[86.3076,23.7045],[86.3518,23.7866],[86.2999,23.841],[86.1616,23.8247]]]},"properties":{"AC_NO":43,"AC_NAME":"BAGHMARA","PC_NO":6,"PC_NAME":"GIRIDIH","district":"DHANBAD"}},{"type":"Feature","geometry":{"type":"Polygon","coordinates":[[[85.9524,23.4709],[86.0242,23.4866],[86.0466,23.5857],[86.0471,23.5857],[86.0515,23.736],[86.1707,23.7277],[86.174,23.7844],[86.0919,23.7606],[85.8439,23.8412],[85.8914,23.6772],[85.9541,23.6678],[85.9861,23.5523],[85.9506,23.4708],[85.9518,23.4708],[85.9524,23.4709]]]},"properties":{"AC_NO":35,"AC_NAME":"BERMO","PC_NO":6,"PC_NAME":"GIRIDIH","district":"BOKARO"}},{"type":"Feature","geometry":{"type":"Polygon","coordinates":[[[86.4756,23.6335],[86.4762,23.6338],[86.4325,23.7315],[86.3646,23.7025],[86.4474,23.6193],[86.4476,23.6194],[86.4756,23.6335]]]},"properties":{"AC_NO":41,"AC_NAME":"JHARIA","PC_NO":7,"PC_NAME":"DHANBAD","district":"DHANBAD"}},{"type":"Feature","geometry":{"type":"Polygon","coordinates":[[[86.1529,23.4793],[86.1539,23.478],[86.2286,23.7077],[86.1707,23.7277],[86.0515,23.736],[86.0471,23.5857],[86.0476,23.5856],[86.1439,23.5636],[86.1529,23.4793]]]},"properties":{"AC_NO":36,"AC_NAME":"BOKARO","PC_NO":7,"PC_NAME":"DHANBAD","district":"BOKARO"}},{"type":"Feature","geometry":{"type":"Polygon","coordinates":[[[86.233,23.4623],[86.2336,23.4624],[86.3024,23.413],[86.3574,23.4619],[86.3675,23.5405],[86.447,23.6189],[86.4474,23.6193],[86.3646,23.7025],[86.3076,23.7045],[86.2286,23.7077],[86.1539,23.478],[86.1545,23.4771],[86.229,23.4444],[86.233,23.4623]]]},"properties":{"AC_NO":37,"AC_NAME":"CHANDANKIYARI (SC)","PC_NO":7,"PC_NAME":"DHANBAD","district":"BOKARO"}},{"type":"Feature","geometry":{"type":"Polygon","coordinates":[[[84.966,23.7156],[84.9445,23.5962],[85.0453,23.6085],[85.17,23.4893],[85.2102,23.3733],[85.2793,23.366],[85.306,23.4052],[85.3487,23.3675],[85.4035,23.4682],[85.3181,23.5704],[85.242,23.5938],[85.2241,23.7005],[85.1137,23.6622],[85.0528,23.7131],[84.966,23.7156]]]},"properties":{"AC_NO":65,"AC_NAME":"KANKE (SC)","PC_NO":8,"PC_NAME":"RANCHI","district":"RANCHI"}},{"type":"Feature","geometry":{"type":"Polygon","coordinates":[[[85.8868,23.4848],[85.7692,23.676],[85.6212,23.6314],[85.441,23.6452],[85.4887,23.5612],[85.5889,23.5043],[85.6063,23.4901],[85.6657,23.4614],[85.8631,23.4316],[85.8868,23.4848]]]},"properties":{"AC_NO":23,"AC_NAME":"RAMGARH","PC_NO":14,"PC_NAME":"HAZARIBAGH","district":"RAMGARH"}},{"type":"Feature","geometry":{"type":"Polygon","coordinates":[[[84.5342,23.6704],[84.3836,23.607],[84.4703,23.5799],[84.4316,23.4387],[84.6156,23.3199],[84.7362,23.3318],[84.8126,23.2832],[84.9008,23.3228],[84.885,23.5592],[84.8578,23.5331],[84.6856,23.6051],[84.6414,23.6685],[84.5342,23.6704]]]},"properties":{"AC_NO":72,"AC_NAME":"LOHARDAGA (ST)","PC_NO":12,"PC_NAME":"LOHARDAGA (ST)","district":"LOHARDAGA"}},{"type":"Feature","geometry":{"type":"Polygon","coordinates":[[[84.885,23.5592],[84.9008,23.3228],[84.8744,23.0673],[84.9467,23.009],[85.0568,23.128],[85.0678,23.2236],[85.1547,23.2849],[85.17,23.4893],[85.0453,23.6085],[84.9445,23.5962],[84.885,23.5592]]]},"properties":{"AC_NO":66,"AC_NAME":"MANDAR (ST)","PC_NO":12,"PC_NAME":"LOHARDAGA (ST)","district":"RANCHI"}},{"type":"Feature","geometry":{"type":"Polygon","coordinates":[[[84.1918,23.3254],[84.427,23.1345],[84.6314,23.0744],[84.6106,22.9807],[84.7211,22.9731],[84.7304,23.0389],[84.6306,23.13],[84.6593,23.2063],[84.6156,23.3199],[84.4316,23.4387],[84.4703,23.5799],[84.3836,23.607],[84.328,23.4935],[84.2443,23.4433],[84.1918,23.3254]]]},"properties":{"AC_NO":69,"AC_NAME":"BISHNUPUR (ST)","PC_NO":12,"PC_NAME":"LOHARDAGA (ST)","district":"GUMLA"}},{"type":"Feature","geometry":{"type":"Polygon","coordinates":[[[85.3181,23.5704],[85.4035,23.4682],[85.3487,23.3675],[85.2248,23.2689],[85.2497,23.201],[85.431,23.1756],[85.5308,23.2519],[85.5514,23.3473],[85.6474,23.3783],[85.6657,23.4614],[85.6063,23.4901],[85.5889,23.5043],[85.4887,23.5612],[85.3181,23.5704]]]},"properties":{"AC_NO":62,"AC_NAME":"KHIJRI (ST)","PC_NO":8,"PC_NAME":"RANCHI","district":"RANCHI"}},{"type":"Feature","geometry":{"type":"Polygon","coordinates":[[[85.17,23.4893],[85.1547,23.2849],[85.2248,23.2689],[85.3487,23.3675],[85.2793,23.366],[85.2102,23.3733],[85.17,23.4893]]]},"properties":{"AC_NO":64,"AC_NAME":"HATIA","PC_NO":8,"PC_NAME":"RANCHI","district":"RANCHI"}},{"type":"Feature","geometry":{"type":"Polygon","coordinates":[[[85.8631,23.4316],[85.6657,23.4614],[85.6474,23.3783],[85.5514,23.3473],[85.5308,23.2519],[85.6774,23.1593],[85.7678,23.1356],[85.811,23.0646],[85.8939,23.1558],[85.8198,23.2682],[85.8677,23.3297],[85.8631,23.4316]]]},"properties":{"AC_NO":61,"AC_NAME":"SILLI","PC_NO":8,"PC_NAME":"RANCHI","district":"RANCHI"}},{"type":"Feature","geometry":{"type":"Polygon","coordinates":[[[85.2793,23.366],[85.3487,23.3675],[85.306,23.4052],[85.2793,23.366]]]},"properties":{"AC_NO":63,"AC_NAME":"RANCHI","PC_NO":8,"PC_NAME":"RANCHI","district":"RANCHI"}},{"type":"Feature","geometry":{"type":"Polygon","coordinates":[[[84.0377,23.1707],[84.1334,23.083],[84.1763,22.9768],[84.3735,22.9794],[84.396,22.9392],[84.2914,22.7822],[84.2918,22.7734],[84.4208,22.7804],[84.4637,22.8366],[84.5461,22.9558],[84.6106,22.9807],[84.6314,23.0744],[84.427,23.1345],[84.1918,23.3254],[84.0747,23.3336],[84.0377,23.1707]]]},"properties":{"AC_NO":68,"AC_NAME":"GUMLA (ST)","PC_NO":12,"PC_NAME":"LOHARDAGA (ST)","district":"GUMLA"}},{"type":"Feature","geometry":{"type":"Polygon","coordinates":[[[84.6156,23.3199],[84.6593,23.2063],[84.6306,23.13],[84.7304,23.0389],[84.7211,22.9731],[84.7737,22.7931],[84.8584,22.7226],[84.9801,22.7857],[85.0079,22.9456],[84.9467,23.009],[84.8744,23.0673],[84.9008,23.3228],[84.8126,23.2832],[84.7362,23.3318],[84.6156,23.3199]]]},"properties":{"AC_NO":67,"AC_NAME":"SISAI (ST)","PC_NO":12,"PC_NAME":"LOHARDAGA (ST)","district":"GUMLA"}},{"type":"Feature","geometry":{"type":"Polygon","coordinates":[[[85.0568,23.128],[85.1594,23.0587],[85.235,22.9384],[85.1976,22.8143],[85.3559,22.8775],[85.3603,22.9276],[85.5043,23.0205],[85.431,23.1756],[85.2497,23.201],[85.2248,23.2689],[85.1547,23.2849],[85.0678,23.2236],[85.0568,23.128]]]},"properties":{"AC_NO":60,"AC_NAME":"KHUNTI (ST)","PC_NO":11,"PC_NAME":"KHUNTI (ST)","district":"KHUNTI"}},{"type":"Feature","geometry":{"type":"Polygon","coordinates":[[[85.431,23.1756],[85.5043,23.0205],[85.3603,22.9276],[85.3559,22.8775],[85.4538,22.8021],[85.5163,22.8073],[85.5803,22.9077],[85.7301,22.944],[85.8689,22.9088],[85.811,23.0646],[85.7678,23.1356],[85.6774,23.1593],[85.5308,23.2519],[85.431,23.1756]]]},"properties":{"AC_NO":58,"AC_NAME":"TAMAR (ST)","PC_NO":11,"PC_NAME":"KHUNTI (ST)","district":"RANCHI"}},{"type":"Feature","geometry":{"type":"Polygon","coordinates":[[[86.1674,23.029],[86.1174,23.0855],[86.0898,23.0894],[86.0891,23.0945],[86.0755,23.0943],[86.0375,23.1472],[85.8939,23.1558],[85.811,23.0646],[85.8689,22.9088],[85.9023,22.8662],[86.1154,22.8896],[86.1585,22.831],[86.179,22.829],[86.201,22.8589],[86.2194,22.9743],[86.2474,22.9839],[86.2377,22.9952],[86.2376,22.9948],[86.2242,22.9937],[86.1674,23.029]]]},"properties":{"AC_NO":50,"AC_NAME":"ICHAGARH","PC_NO":8,"PC_NAME":"RANCHI","district":"SARAIKELA-KHARSAWAN"}},{"type":"Feature","geometry":{"type":"Polygon","coordinates":[[[84.9467,23.009],[85.0079,22.9456],[84.9801,22.7857],[84.8584,22.7226],[84.9515,22.5547],[84.9573,22.4567],[84.9574,22.4565],[85.0669,22.4834],[85.0791,22.5724],[85.0919,22.5884],[85.1475,22.8094],[85.1976,22.8143],[85.235,22.9384],[85.1594,23.0587],[85.0568,23.128],[84.9467,23.009]]]},"properties":{"AC_NO":59,"AC_NAME":"TORPA (ST)","PC_NO":11,"PC_NAME":"KHUNTI (ST)","district":"SIMDEGA"}},{"type":"Feature","geometry":{"type":"Polygon","coordinates":[[[86.4165,22.7893],[86.4166,22.7902],[86.4354,22.9252],[86.5012,22.9948],[86.2381,22.9962],[86.2377,22.9952],[86.2474,22.9839],[86.2194,22.9743],[86.201,22.8589],[86.2339,22.8348],[86.2023,22.7818],[86.198,22.7595],[86.1957,22.7502],[86.2096,22.6849],[86.3458,22.7209],[86.4464,22.7647],[86.4165,22.7893]]]},"properties":{"AC_NO":47,"AC_NAME":"JUGSALAI (SC)","PC_NO":9,"PC_NAME":"JAMSHEDPUR","district":"EAST SINGHBHUM"}},{"type":"Feature","geometry":{"type":"Polygon","coordinates":[[[84.6106,22.9807],[84.5461,22.9558],[84.4637,22.8366],[84.4208,22.7804],[84.2918,22.7734],[84.2229,22.6687],[84.0842,22.6382],[84.009,22.5257],[84.1415,22.4737],[84.1571,22.4071],[84.158,22.4065],[84.218,22.4906],[84.3422,22.5873],[84.6283,22.6342],[84.5925,22.7128],[84.7737,22.7931],[84.7211,22.9731],[84.6106,22.9807]]]},"properties":{"AC_NO":70,"AC_NAME":"SIMDEGA (ST)","PC_NO":11,"PC_NAME":"KHUNTI (ST)","district":"GUMLA"}},{"type":"Feature","geometry":{"type":"Polygon","coordinates":[[[85.5163,22.8073],[85.6463,22.8511],[85.7017,22.8067],[85.7042,22.6948],[85.6776,22.6462],[85.7552,22.5918],[85.8682,22.6235],[85.8549,22.721],[85.8983,22.7544],[86.0465,22.709],[86.0708,22.7665],[85.9928,22.8512],[85.9023,22.8662],[85.8689,22.9088],[85.7301,22.944],[85.5803,22.9077],[85.5163,22.8073]]]},"properties":{"AC_NO":57,"AC_NAME":"KHARASAWAN (ST)","PC_NO":11,"PC_NAME":"KHUNTI (ST)","district":"SARAIKELA-KHARSAWAN"}},{"type":"Feature","geometry":{"type":"Polygon","coordinates":[[[85.9023,22.8662],[85.9928,22.8512],[86.0708,22.7665],[86.0465,22.709],[85.8983,22.7544],[85.8549,22.721],[85.8682,22.6235],[85.9107,22.5184],[85.9626,22.485],[86.0634,22.555],[86.1465,22.6261],[86.1645,22.7604],[86.1585,22.831],[86.1154,22.8896],[85.9023,22.8662]]]},"properties":{"AC_NO":51,"AC_NAME":"SERAIKELLA (ST)","PC_NO":10,"PC_NAME":"SINGHBHUM (ST)","district":"SARAIKELA-KHARSAWAN"}},{"type":"Feature","geometry":{"type":"Polygon","coordinates":[[[85.1976,22.8143],[85.1475,22.8094],[85.0919,22.5884],[85.1929,22.6159],[85.2727,22.5841],[85.3521,22.4007],[85.3779,22.4566],[85.5194,22.517],[85.6776,22.6462],[85.7042,22.6948],[85.7017,22.8067],[85.6463,22.8511],[85.5163,22.8073],[85.4538,22.8021],[85.3559,22.8775],[85.1976,22.8143]]]},"properties":{"AC_NO":56,"AC_NAME":"CHAKRADHARPUR (ST)","PC_NO":10,"PC_NAME":"SINGHBHUM (ST)","district":"WEST SINGHBHUM"}},{"type":"Feature","geometry":{"type":"Polygon","coordinates":[[[86.179,22.829],[86.198,22.7595],[86.2023,22.7818],[86.2339,22.8348],[86.201,22.8589],[86.179,22.829]]]},"properties":{"AC_NO":48,"AC_NAME":"JAMSHEDPUR EAST","PC_NO":9,"PC_NAME":"JAMSHEDPUR","district":"EAST SINGHBHUM"}},{"type":"Feature","geometry":{"type":"Polygon","coordinates":[[[86.1585,22.831],[86.1645,22.7604],[86.1957,22.7502],[86.198,22.7595],[86.179,22.829],[86.1585,22.831]]]},"properties":{"AC_NO":49,"AC_NAME":"JAMSHEDPUR WEST","PC_NO":9,"PC_NAME":"JAMSHEDPUR","district":"EAST SINGHBHUM"}},{"type":"Feature","geometry":{"type":"Polygon","coordinates":[[[86.6331,22.6114],[86.6334,22.6122],[86.5584,22.7109],[86.4472,22.764],[86.4464,22.7647],[86.3458,22.7209],[86.3156,22.6283],[86.346,22.5082],[86.4727,22.4354],[86.4777,22.4168],[86.4719,22.3778],[86.4873,22.3477],[86.4874,22.3477],[86.541,22.3083],[86.5413,22.3082],[86.5981,22.3485],[86.5828,22.3823],[86.5895,22.5583],[86.6513,22.5931],[86.6508,22.5933],[86.6331,22.6114]]]},"properties":{"AC_NO":45,"AC_NAME":"GHATSILA (ST)","PC_NO":9,"PC_NAME":"JAMSHEDPUR","district":"EAST SINGHBHUM"}},{"type":"Feature","geometry":{"type":"Polygon","coordinates":[[[84.7737,22.7931],[84.5925,22.7128],[84.6283,22.6342],[84.3422,22.5873],[84.218,22.4906],[84.158,22.4065],[84.159,22.4058],[84.2944,22.3416],[84.3591,22.3478],[84.4565,22.3812],[84.6288,22.4346],[84.7498,22.4193],[84.7593,22.4468],[84.7955,22.4459],[84.9573,22.4568],[84.9573,22.4567],[84.9515,22.5547],[84.8584,22.7226],[84.7737,22.7931]]]},"properties":{"AC_NO":71,"AC_NAME":"KOLEBIRA (ST)","PC_NO":11,"PC_NAME":"KHUNTI (ST)","district":"SIMDEGA"}},{"type":"Feature","geometry":{"type":"Polygon","coordinates":[[[86.1957,22.7502],[86.1645,22.7604],[86.1465,22.6261],[86.0634,22.555],[86.116,22.4871],[86.2687,22.4421],[86.3287,22.3775],[86.4446,22.3124],[86.4872,22.3476],[86.4873,22.3477],[86.4719,22.3778],[86.4777,22.4168],[86.4727,22.4354],[86.346,22.5082],[86.3156,22.6283],[86.3458,22.7209],[86.2096,22.6849],[86.1957,22.7502]]]},"properties":{"AC_NO":46,"AC_NAME":"POTKA (ST)","PC_NO":9,"PC_NAME":"JAMSHEDPUR","district":"EAST SINGHBHUM"}},{"type":"Feature","geometry":{"type":"Polygon","coordinates":[[[85.8682,22.6235],[85.7552,22.5918],[85.6776,22.6462],[85.5194,22.517],[85.6336,22.2793],[85.7337,22.2068],[85.826,22.2363],[85.7645,22.3292],[85.9107,22.5184],[85.8682,22.6235]]]},"properties":{"AC_NO":52,"AC_NAME":"CHAIBASA (ST)","PC_NO":10,"PC_NAME":"SINGHBHUM (ST)","district":"WEST SINGHBHUM"}},{"type":"Feature","geometry":{"type":"Polygon","coordinates":[[[86.8578,22.2592],[86.8874,22.2976],[86.7657,22.5755],[86.6527,22.5927],[86.6513,22.5931],[86.5895,22.5583],[86.5828,22.3823],[86.5981,22.3485],[86.5413,22.3082],[86.5427,22.3078],[86.7248,22.2184],[86.7818,22.237],[86.788,22.2317],[86.8241,22.2667],[86.851,22.2657],[86.8578,22.2592]]]},"properties":{"AC_NO":44,"AC_NAME":"BAHARAGORA","PC_NO":9,"PC_NAME":"JAMSHEDPUR","district":"EAST SINGHBHUM"}},{"type":"Feature","geometry":{"type":"Polygon","coordinates":[[[85.0791,22.5724],[85.0669,22.4834],[85.1031,22.2951],[85.0322,22.1651],[84.9841,22.095],[85.099,22.106],[85.2036,22.0524],[85.2044,22.0518],[85.1752,22.136],[85.2847,22.2625],[85.3521,22.4007],[85.2727,22.5841],[85.1929,22.6159],[85.0919,22.5884],[85.0791,22.5724]]]},"properties":{"AC_NO":55,"AC_NAME":"MANOHARPUR (ST)","PC_NO":10,"PC_NAME":"SINGHBHUM (ST)","district":"WEST SINGHBHUM"}},{"type":"Feature","geometry":{"type":"Polygon","coordinates":[[[85.9107,22.5184],[85.7645,22.3292],[85.826,22.2363],[85.7337,22.2068],[85.7587,22.0859],[85.7598,22.0867],[85.7601,22.0131],[85.9095,21.9878],[86.0312,22.1914],[85.9739,22.2469],[86.0269,22.3863],[85.9626,22.485],[85.9107,22.5184]]]},"properties":{"AC_NO":53,"AC_NAME":"MAJHGAON (ST)","PC_NO":10,"PC_NAME":"SINGHBHUM (ST)","district":"WEST SINGHBHUM"}},{"type":"Feature","geometry":{"type":"Polygon","coordinates":[[[85.3521,22.4007],[85.2847,22.2625],[85.1752,22.136],[85.2044,22.0518],[85.2047,22.0515],[85.2391,22.0096],[85.2815,22.0908],[85.4211,22.159],[85.6764,22.0569],[85.7577,22.0853],[85.7587,22.0859],[85.7337,22.2068],[85.6336,22.2793],[85.5194,22.517],[85.3779,22.4566],[85.3521,22.4007]]]},"properties":{"AC_NO":54,"AC_NAME":"JAGANATHPUR (ST)","PC_NO":10,"PC_NAME":"SINGHBHUM (ST)","district":"WEST SINGHBHUM"}}]}