{"type":"FeatureCollection", "features": [
{"type":"Feature","geometry":{"type":"Polygon","coordinates":[[[87.9476,24.9038],[87.9479,24.9041],[87.9234,25.0002],[87.9055,25.0006],[87.896,25.0109],[87.7949,25.0879],[87.7733,25.2215],[87.6988,25.3039],[87.5518,25.3324],[87.4957,25.2708],[87.496,25.2704],[87.4963,25.2701],[87.4829,25.2505],[87.4826,25.2495],[87.4765,25.1945],[87.4633,25.1949],[87.4632,25.1949],[87.4743,25.1385],[87.4023,25.1183],[87.3268,25.0921],[87.3267,25.003],[87.3166,24.9567],[87.3167,24.9401],[87.3313,24.7677],[87.3836,24.5838],[87.3703,24.507],[87.3721,24.505],[87.4236,24.5155],[87.4662,24.5694],[87.4603,24.7935],[87.5094,24.7986],[87.5927,24.8116],[87.7419,24.7705],[87.7907,24.9166],[87.9476,24.9038]]]},"properties":{"district":"SAHIBGANJ"}},
{"type":"Feature","geometry":{"type":"Polygon","coordinates":[[[87.4632,25.1949],[87.4628,25.195],[87.3346,25.2165],[87.3147,25.1606],[87.1759,25.0578],[87.1657,25.0454],[87.1659,25.0451],[87.1667,25.0439],[87.1206,24.855],[87.1111,24.8577],[87.1064,24.8542],[87.0739,24.8157],[87.094,24.7979],[87.0936,24.7963],[87.0936,24.7962],[87.0489,24.6236],[86.928,24.6251],[86.9148,24.542],[86.9167,24.4999],[87.0491,24.4822],[87.114,24.5217],[87.0958,24.6323],[87.3086,24.5918],[87.3703,24.507],[87.3836,24.5838],[87.3313,24.7677],[87.3167,24.9401],[87.3166,24.9567],[87.3267,25.003],[87.3268,25.0921],[87.4023,25.1183],[87.4743,25.1385],[87.4632,25.1949]]]},"properties":{"district":"GODDA"}},
{"type":"Feature","geometry":{"type":"Polygon","coordinates":[[[87.7907,24.9166],[87.7419,24.7705],[87.5927,24.8116],[87.5094,24.7986],[87.4603,24.7935],[87.4662,24.5694],[87.4236,24.5155],[87.3721,24.505],[87.3653,24.4639],[87.588,24.3211],[87.6394,24.2547],[87.6852,24.2467],[87.8011,24.3839],[87.8152,24.5017],[87.7717,24.5826],[87.7718,24.5833],[87.7719,24.5837],[87.8908,24.5653],[87.911,24.6044],[87.9112,24.6079],[87.9117,24.6555],[87.8355,24.7476],[87.8969,24.8568],[87.9469,24.9031],[87.9476,24.9038],[87.7907,24.9166]]]},"properties":{"district":"PAKUR"}},
{"type":"Feature","geometry":{"type":"Polygon","coordinates":[[[85.9026,24.7666],[85.889,24.7928],[85.8268,24.8082],[85.7354,24.821],[85.6512,24.6783],[85.5378,24.5274],[85.4441,24.5344],[85.444,24.5344],[85.4868,24.438],[85.5752,24.3934],[85.7026,24.3999],[85.7654,24.2913],[85.8533,24.2738],[85.8736,24.2882],[85.7722,24.6448],[85.9026,24.7666]]]},"properties":{"district":"KODERMA"}},
{"type":"Feature","geometry":{"type":"Polygon","coordinates":[[[85.8736,24.2882],[85.8533,24.2738],[85.6814,24.1756],[85.7106,24.1016],[85.8242,24.0734],[85.93,23.98],[86.0174,24.0586],[86.0822,24.1862],[86.1751,24.1447],[86.1127,24.069],[86.133,23.9318],[86.2934,23.9159],[86.3397,24.0109],[86.4358,24.0328],[86.4664,24.0194],[86.5706,24.1431],[86.5283,24.155],[86.4559,24.3719],[86.3968,24.4036],[86.3775,24.4196],[86.35,24.4473],[86.3168,24.4416],[86.3163,24.4418],[86.316,24.442],[86.3006,24.5603],[86.2498,24.5869],[86.2467,24.5876],[86.1515,24.5999],[86.1517,24.6002],[86.1517,24.6003],[86.1233,24.7056],[86.0552,24.7795],[85.9026,24.7666],[85.7722,24.6448],[85.8736,24.2882]]]},"properties":{"district":"GIRIDIH"}},
{"type":"Feature","geometry":{"type":"Polygon","coordinates":[[[87.3703,24.507],[87.3086,24.5918],[87.0958,24.6323],[87.114,24.5217],[87.0491,24.4822],[86.9167,24.4999],[86.8892,24.4471],[86.7432,24.4028],[86.7551,24.2937],[86.9873,24.306],[87.0659,24.2498],[87.0505,24.2061],[87.0403,24.1961],[87.0107,24.2132],[86.9749,24.1971],[86.9798,24.1958],[86.9796,24.1813],[86.9641,24.1783],[86.9446,24.1656],[86.9344,24.1358],[86.966,24.1273],[86.9622,24.1151],[86.9801,24.1245],[87.0942,24.0997],[87.1357,24.0375],[87.233,24.024],[87.2553,24.0417],[87.2566,24.0406],[87.2568,24.0404],[87.4601,23.9851],[87.5119,24.0382],[87.5095,24.0485],[87.4934,24.0542],[87.4976,24.0627],[87.5816,24.1545],[87.6943,24.1504],[87.7001,24.1764],[87.6949,24.1865],[87.6394,24.2547],[87.588,24.3211],[87.3653,24.4639],[87.3721,24.505],[87.3703,24.507]]]},"properties":{"district":"DUMKA"}},
{"type":"Feature","geometry":{"type":"Polygon","coordinates":[[[86.9148,24.542],[86.7542,24.621],[86.6696,24.5646],[86.6079,24.6082],[86.5093,24.5224],[86.4921,24.433],[86.492,24.4325],[86.4914,24.4296],[86.4559,24.3719],[86.5283,24.155],[86.5706,24.1431],[86.6429,24.1345],[86.6807,24.1292],[86.7157,24.1549],[86.6976,24.1197],[86.7225,24.0156],[86.847,24.0337],[86.8468,24.0519],[86.9535,24.0418],[86.976,24.1075],[86.9622,24.1151],[86.966,24.1273],[86.9344,24.1358],[86.9446,24.1656],[86.9641,24.1783],[86.9796,24.1813],[86.9798,24.1958],[86.9749,24.1971],[87.0107,24.2132],[87.0403,24.1961],[87.0505,24.2061],[87.0659,24.2498],[86.9873,24.306],[86.7551,24.2937],[86.7432,24.4028],[86.8892,24.4471],[86.9167,24.4999],[86.9148,24.542]]]},"properties":{"district":"DEOGHAR"}},
{"type":"Feature","geometry":{"type":"Polygon","coordinates":[[[83.8728,24.5318],[83.8515,24.4035],[83.8188,24.289],[83.8425,24.2616],[83.9672,24.1508],[83.8714,24.0696],[83.8662,23.9817],[83.8928,23.9817],[83.9335,23.8642],[83.9108,23.8174],[83.7412,23.7301],[83.7418,23.7287],[83.7736,23.6101],[83.9376,23.5688],[84.016,23.6343],[83.9839,23.7241],[84.0255,23.8029],[84.1546,23.9412],[84.3115,23.9076],[84.45,23.9611],[84.4961,23.8951],[84.5813,23.9867],[84.5774,24.0712],[84.4917,24.2867],[84.4898,24.2903],[84.4434,24.332],[84.4417,24.3319],[84.439,24.3317],[84.3318,24.4349],[84.3317,24.4351],[84.3277,24.4873],[84.2895,24.5629],[84.1084,24.4774],[84.0631,24.5791],[84.007,24.6435],[83.8728,24.5318]]]},"properties":{"district":"PALAMU"}},
{"type":"Feature","geometry":{"type":"Polygon","coordinates":[[[85.444,24.5344],[85.442,24.534],[85.3708,24.5552],[85.2287,24.4677],[85.0889,24.3726],[85.1074,24.3318],[85.1855,24.3305],[85.2064,24.3394],[85.2998,24.3402],[85.2873,24.2076],[85.1608,24.2301],[85.1704,24.1],[85.2308,24.0465],[85.2032,23.9637],[85.0533,23.9867],[85.021,23.8976],[85.0528,23.7131],[85.1137,23.6622],[85.2241,23.7005],[85.242,23.5938],[85.3181,23.5704],[85.4887,23.5612],[85.441,23.6452],[85.3273,23.6907],[85.394,23.859],[85.574,24.023],[85.6424,24.12],[85.7106,24.1016],[85.6814,24.1756],[85.8533,24.2738],[85.7654,24.2913],[85.7026,24.3999],[85.5752,24.3934],[85.4868,24.438],[85.444,24.5344]]]},"properties":{"district":"HAZARIBAGH"}},
{"type":"Feature","geometry":{"type":"Polygon","coordinates":[[[85.0889,24.3726],[85.0307,24.4145],[84.9042,24.3951],[84.7503,24.4965],[84.7484,24.4964],[84.6649,24.3908],[84.5682,24.4095],[84.4917,24.2867],[84.5774,24.0712],[84.5813,23.9867],[84.7581,24.0403],[84.934,23.9351],[84.966,23.7156],[85.0528,23.7131],[85.021,23.8976],[85.0533,23.9867],[85.2032,23.9637],[85.2308,24.0465],[85.1704,24.1],[85.1608,24.2301],[85.2873,24.2076],[85.2998,24.3402],[85.2064,24.3394],[85.1855,24.3305],[85.1074,24.3318],[85.0889,24.3726]]]},"properties":{"district":"CHATRA"}},
{"type":"Feature","geometry":{"type":"Polygon","coordinates":[[[83.8728,24.5318],[83.7585,24.5108],[83.7576,24.5104],[83.7567,24.5101],[83.5035,24.5255],[83.385,24.4548],[83.4496,24.377],[83.3798,24.3115],[83.4081,24.2623],[83.3298,24.1014],[83.4322,24.0859],[83.516,24.0255],[83.5159,24.0242],[83.5159,24.0237],[83.5699,23.8692],[83.6673,23.8422],[83.7408,23.7308],[83.7412,23.7301],[83.9108,23.8174],[83.9335,23.8642],[83.8928,23.9817],[83.8662,23.9817],[83.8714,24.0696],[83.9672,24.1508],[83.8425,24.2616],[83.8188,24.289],[83.8515,24.4035],[83.8728,24.5318]]]},"properties":{"district":"GARHWA"}},
{"type":"Feature","geometry":{"type":"Polygon","coordinates":[[[85.93,23.98],[85.9113,23.9482],[85.8354,23.8423],[85.7117,23.9354],[85.6842,23.9625],[85.6107,23.9017],[85.6105,23.888],[85.6182,23.8811],[85.6212,23.6314],[85.7692,23.676],[85.8868,23.4848],[85.8871,23.4846],[85.9488,23.4708],[85.9506,23.4708],[85.9518,23.4708],[85.9524,23.4709],[86.0242,23.4866],[86.0466,23.5857],[86.0471,23.5857],[86.0476,23.5856],[86.1439,23.5636],[86.1529,23.4793],[86.1539,23.478],[86.1545,23.4771],[86.229,23.4444],[86.233,23.4623],[86.2336,23.4624],[86.3024,23.413],[86.3574,23.4619],[86.3675,23.5405],[86.447,23.6189],[86.4474,23.6193],[86.3646,23.7025],[86.3076,23.7045],[86.2286,23.7077],[86.1707,23.7277],[86.174,23.7844],[86.1616,23.8247],[86.1161,23.8944],[86.133,23.9318],[86.1127,24.069],[86.1751,24.1447],[86.0822,24.1862],[86.0174,24.0586],[85.93,23.98]]]},"properties":{"district":"BOKARO"}},
{"type":"Feature","geometry":{"type":"Polygon","coordinates":[[[86.4664,24.0194],[86.6701,23.9215],[86.8004,23.8337],[86.8004,23.8339],[86.8912,23.8733],[86.8914,23.8738],[86.9122,23.8819],[86.9125,23.8818],[86.9126,23.8817],[87.055,23.8226],[87.0866,23.8089],[87.2909,23.8943],[87.233,24.024],[87.1357,24.0375],[87.0942,24.0997],[86.9801,24.1245],[86.976,24.1075],[86.9535,24.0418],[86.8468,24.0519],[86.847,24.0337],[86.7225,24.0156],[86.6976,24.1197],[86.7157,24.1549],[86.6807,24.1292],[86.6429,24.1345],[86.5706,24.1431],[86.4664,24.0194]]]},"properties":{"district":"JAMTARA"}},
{"type":"Feature","geometry":{"type":"Polygon","coordinates":[[[85.574,24.023],[85.394,23.859],[85.3273,23.6907],[85.441,23.6452],[85.4887,23.5612],[85.5889,23.5043],[85.6063,23.4901],[85.6657,23.4614],[85.8631,23.4316],[85.8868,23.4848],[85.7692,23.676],[85.6212,23.6314],[85.6182,23.8811],[85.6105,23.888],[85.6107,23.9017],[85.6842,23.9625],[85.7117,23.9354],[85.8354,23.8423],[85.9113,23.9482],[85.93,23.98],[85.8242,24.0734],[85.7106,24.1016],[85.6424,24.12],[85.574,24.023]]]},"properties":{"district":"RAMGARH"}},
{"type":"Feature","geometry":{"type":"Polygon","coordinates":[[[86.4358,24.0328],[86.3397,24.0109],[86.2934,23.9159],[86.133,23.9318],[86.1161,23.8944],[86.1616,23.8247],[86.174,23.7844],[86.1707,23.7277],[86.2286,23.7077],[86.3076,23.7045],[86.3646,23.7025],[86.4474,23.6193],[86.4476,23.6194],[86.4756,23.6335],[86.4762,23.6338],[86.4769,23.6342],[86.5962,23.6729],[86.5965,23.673],[86.5967,23.6731],[86.613,23.6753],[86.6144,23.6751],[86.692,23.6917],[86.6972,23.6937],[86.805,23.6966],[86.8213,23.7829],[86.8003,23.8335],[86.8004,23.8337],[86.6701,23.9215],[86.4664,24.0194],[86.4358,24.0328]]]},"properties":{"district":"DHANBAD"}},
{"type":"Feature","geometry":{"type":"Polygon","coordinates":[[[84.5813,23.9867],[84.4961,23.8951],[84.45,23.9611],[84.3115,23.9076],[84.1546,23.9412],[84.0255,23.8029],[83.9839,23.7241],[84.016,23.6343],[84.0144,23.5034],[83.9671,23.3877],[84.0747,23.3336],[84.1918,23.3254],[84.2443,23.4433],[84.328,23.4935],[84.3836,23.607],[84.5342,23.6704],[84.6414,23.6685],[84.6856,23.6051],[84.8578,23.5331],[84.885,23.5592],[84.9445,23.5962],[84.966,23.7156],[84.934,23.9351],[84.7581,24.0403],[84.5813,23.9867]]]},"properties":{"district":"LATEHAR"}},
{"type":"Feature","geometry":{"type":"Polygon","coordinates":[[[84.966,23.7156],[84.9445,23.5962],[84.885,23.5592],[84.9008,23.3228],[84.8744,23.0673],[84.9467,23.009],[85.0568,23.128],[85.0678,23.2236],[85.1547,23.2849],[85.2248,23.2689],[85.2497,23.201],[85.431,23.1756],[85.5043,23.0205],[85.3603,22.9276],[85.3559,22.8775],[85.4538,22.8021],[85.5163,22.8073],[85.5803,22.9077],[85.7301,22.944],[85.8689,22.9088],[85.811,23.0646],[85.8939,23.1558],[85.8198,23.2682],[85.8677,23.3297],[85.8631,23.4316],[85.6657,23.4614],[85.6063,23.4901],[85.5889,23.5043],[85.4887,23.5612],[85.3181,23.5704],[85.242,23.5938],[85.2241,23.7005],[85.1137,23.6622],[85.0528,23.7131],[84.966,23.7156]]]},"properties":{"district":"RANCHI"}},
{"type":"Feature","geometry":{"type":"Polygon","coordinates":[[[84.5342,23.6704],[84.3836,23.607],[84.4703,23.5799],[84.4316,23.4387],[84.6156,23.3199],[84.7362,23.3318],[84.8126,23.2832],[84.9008,23.3228],[84.885,23.5592],[84.8578,23.5331],[84.6856,23.6051],[84.6414,23.6685],[84.5342,23.6704]]]},"properties":{"district":"LOHARDAGA"}},
{"type":"Feature","geometry":{"type":"Polygon","coordinates":[[[84.1918,23.3254],[84.0747,23.3336],[84.0377,23.1707],[84.1334,23.083],[84.1763,22.9768],[84.3735,22.9794],[84.396,22.9392],[84.2914,22.7822],[84.2918,22.7734],[84.2229,22.6687],[84.0842,22.6382],[84.009,22.5257],[84.1415,22.4737],[84.1571,22.4071],[84.158,22.4065],[84.218,22.4906],[84.3422,22.5873],[84.6283,22.6342],[84.5925,22.7128],[84.7737,22.7931],[84.8584,22.7226],[84.9801,22.7857],[85.0079,22.9456],[84.9467,23.009],[84.8744,23.0673],[84.9008,23.3228],[84.8126,23.2832],[84.7362,23.3318],[84.6156,23.3199],[84.4316,23.4387],[84.4703,23.5799],[84.3836,23.607],[84.328,23.4935],[84.2443,23.4433],[84.1918,23.3254]]]},"properties":{"district":"GUMLA"}},
{"type":"Feature","geometry":{"type":"Polygon","coordinates":[[[85.0568,23.128],[85.1594,23.0587],[85.235,22.9384],[85.1976,22.8143],[85.3559,22.8775],[85.3603,22.9276],[85.5043,23.0205],[85.431,23.1756],[85.2497,23.201],[85.2248,23.2689],[85.1547,23.2849],[85.0678,23.2236],[85.0568,23.128]]]},"properties":{"district":"KHUNTI"}},
{"type":"Feature","geometry":{"type":"Polygon","coordinates":[[[85.811,23.0646],[85.8689,22.9088],[85.7301,22.944],[85.5803,22.9077],[85.5163,22.8073],[85.6463,22.8511],[85.7017,22.8067],[85.7042,22.6948],[85.6776,22.6462],[85.7552,22.5918],[85.8682,22.6235],[85.9107,22.5184],[85.9626,22.485],[86.0634,22.555],[86.1465,22.6261],[86.1645,22.7604],[86.1585,22.831],[86.179,22.829],[86.201,22.8589],[86.2194,22.9743],[86.2474,22.9839],[86.2377,22.9952],[86.2376,22.9948],[86.2242,22.9937],[86.1674,23.029],[86.1174,23.0855],[86.0898,23.0894],[86.0891,23.0945],[86.0755,23.0943],[86.0375,23.1472],[85.8939,23.1558],[85.811,23.0646]]]},"properties":{"district":"SARAIKELA-KHARSAWAN"}},
{"type":"Feature","geometry":{"type":"Polygon","coordinates":[[[84.9467,23.009],[85.0079,22.9456],[84.9801,22.7857],[84.8584,22.7226],[84.7737,22.7931],[84.5925,22.7128],[84.6283,22.6342],[84.3422,22.5873],[84.218,22.4906],[84.158,22.4065],[84.159,22.4058],[84.2944,22.3416],[84.3591,22.3478],[84.4565,22.3812],[84.6288,22.4346],[84.7498,22.4193],[84.7593,22.4468],[84.7955,22.4459],[84.9573,22.4568],[84.9573,22.4567],[84.9574,22.4565],[85.0669,22.4834],[85.0791,22.5724],[85.0919,22.5884],[85.1475,22.8094],[85.1976,22.8143],[85.235,22.9384],[85.1594,23.0587],[85.0568,23.128],[84.9467,23.009]]]},"properties":{"district":"SIMDEGA"}},
{"type":"Feature","geometry":{"type":"Polygon","coordinates":[[[86.201,22.8589],[86.179,22.829],[86.1585,22.831],[86.1645,22.7604],[86.1465,22.6261],[86.0634,22.555],[86.116,22.4871],[86.2687,22.4421],[86.3287,22.3775],[86.4446,22.3124],[86.4872,22.3476],[86.4873,22.3477],[86.4874,22.3477],[86.541,22.3083],[86.5413,22.3082],[86.5427,22.3078],[86.7248,22.2184],[86.7818,22.237],[86.788,22.2317],[86.8241,22.2667],[86.851,22.2657],[86.8578,22.2592],[86.8874,22.2976],[86.7657,22.5755],[86.6527,22.5927],[86.6513,22.5931],[86.6508,22.5933],[86.6331,22.6114],[86.6334,22.6122],[86.5584,22.7109],[86.4472,22.764],[86.4464,22.7647],[86.4165,22.7893],[86.4166,22.7902],[86.4354,22.9252],[86.5012,22.9948],[86.2381,22.9962],[86.2377,22.9952],[86.2474,22.9839],[86.2194,22.9743],[86.201,22.8589]]]},"properties":{"district":"EAST SINGHBHUM"}},
{"type":"Feature","geometry":{"type":"Polygon","coordinates":[[[85.1976,22.8143],[85.1475,22.8094],[85.0919,22.5884],[85.0791,22.5724],[85.0669,22.4834],[85.1031,22.2951],[85.0322,22.1651],[84.9841,22.095],[85.099,22.106],[85.2036,22.0524],[85.2044,22.0518],[85.2047,22.0515],[85.2391,22.0096],[85.2815,22.0908],[85.4211,22.159],[85.6764,22.0569],[85.7577,22.0853],[85.7587,22.0859],[85.7598,22.0867],[85.7601,22.0131],[85.9095,21.9878],[86.0312,22.1914],[85.9739,22.2469],[86.0269,22.3863],[85.9626,22.485],[85.9107,22.5184],[85.8682,22.6235],[85.7552,22.5918],[85.6776,22.6462],[85.7042,22.6948],[85.7017,22.8067],[85.6463,22.8511],[85.5163,22.8073],[85.4538,22.8021],[85.3559,22.8775],[85.1976,22.8143]]]},"properties":{"district":"WEST SINGHBHUM"}}
]}