{"type":"FeatureCollection","features":[{"type":"Feature","geometry":{"type":"Polygon","coordinates":[[[92.1601,24.4546],[92.2565,24.4189],[92.2303,24.5024],[92.1601,24.4546]]]},"properties":{"AC_NO":54,"AC_NAME":"KADAMTALA - KURTI","PC_NO":2,"PC_NAME":"TRIPURA EAST(ST)","district":"NORTH TRIPURA"}},{"type":"Feature","geometry":{"type":"Polygon","coordinates":[[[92.2565,24.4189],[92.1601,24.4546],[92.1638,24.4221],[92.1616,24.3536],[92.1846,24.3262],[92.2387,24.3122],[92.2565,24.4189]]]},"properties":{"AC_NO":55,"AC_NAME":"BAGBASSA","PC_NO":2,"PC_NAME":"TRIPURA EAST(ST)","district":"NORTH TRIPURA"}},{"type":"Feature","geometry":{"type":"Polygon","coordinates":[[[92.0915,24.3751],[92.1616,24.3536],[92.1638,24.4221],[92.0915,24.3751]]]},"properties":{"AC_NO":56,"AC_NAME":"DHARMANAGAR","PC_NO":2,"PC_NAME":"TRIPURA EAST(ST)","district":"NORTH TRIPURA"}},{"type":"Feature","geometry":{"type":"Polygon","coordinates":[[[91.9933,24.3287],[92.0447,24.2232],[92.0672,24.2251],[92.0752,24.268],[92.0873,24.375],[91.9933,24.3287]]]},"properties":{"AC_NO":53,"AC_NAME":"KAILASAHAR","PC_NO":2,"PC_NAME":"TRIPURA EAST(ST)","district":"UNAKOTI"}},{"type":"Feature","geometry":{"type":"Polygon","coordinates":[[[92.0873,24.375],[92.0752,24.268],[92.1009,24.2587],[92.1846,24.3262],[92.1616,24.3536],[92.0915,24.3751],[92.0873,24.375]]]},"properties":{"AC_NO":57,"AC_NAME":"JUBARAJNAGAR","PC_NO":2,"PC_NAME":"TRIPURA EAST(ST)","district":"NORTH TRIPURA"}},{"type":"Feature","geometry":{"type":"Polygon","coordinates":[[[91.9933,24.3287],[91.9401,24.2839],[91.9151,24.1659],[92.0291,24.2104],[92.0447,24.2232],[91.9933,24.3287]]]},"properties":{"AC_NO":52,"AC_NAME":"CHANDIPUR","PC_NO":2,"PC_NAME":"TRIPURA EAST(ST)","district":"UNAKOTI"}},{"type":"Feature","geometry":{"type":"Polygon","coordinates":[[[92.2387,24.3122],[92.1846,24.3262],[92.1009,24.2587],[92.3167,24.0719],[92.3319,24.1827],[92.2996,24.2525],[92.2387,24.3122]]]},"properties":{"AC_NO":58,"AC_NAME":"PANISAGAR","PC_NO":2,"PC_NAME":"TRIPURA EAST(ST)","district":"NORTH TRIPURA"}},{"type":"Feature","geometry":{"type":"Polygon","coordinates":[[[92.1009,24.2587],[92.0752,24.268],[92.0672,24.2251],[92.148,24.1255],[92.1525,24.0054],[92.2384,24.011],[92.2603,23.8131],[92.3311,23.9207],[92.3167,24.0719],[92.1009,24.2587]]]},"properties":{"AC_NO":59,"AC_NAME":"PENCHARTHAL (ST)","PC_NO":2,"PC_NAME":"TRIPURA EAST(ST)","district":"NORTH TRIPURA"}},{"type":"Feature","geometry":{"type":"Polygon","coordinates":[[[92.0291,24.2104],[91.9151,24.1659],[91.9101,24.1411],[91.9185,24.13],[91.9863,24.0788],[92.0291,24.2104]]]},"properties":{"AC_NO":51,"AC_NAME":"FATIKROY (SC)","PC_NO":2,"PC_NAME":"TRIPURA EAST(ST)","district":"UNAKOTI"}},{"type":"Feature","geometry":{"type":"Polygon","coordinates":[[[92.0447,24.2232],[92.0291,24.2104],[91.9863,24.0788],[92.0718,24.0952],[92.0964,24.0014],[92.092,23.991],[92.1525,24.0054],[92.148,24.1255],[92.0672,24.2251],[92.0447,24.2232]]]},"properties":{"AC_NO":50,"AC_NAME":"PABIACHHARA (SC)","PC_NO":2,"PC_NAME":"TRIPURA EAST(ST)","district":"UNAKOTI"}},{"type":"Feature","geometry":{"type":"Polygon","coordinates":[[[91.7584,24.142],[91.7505,24.0778],[91.8286,24.0933],[91.8029,24.1704],[91.8408,24.2224],[91.7467,24.2455],[91.7584,24.142]]]},"properties":{"AC_NO":45,"AC_NAME":"KAMALPUR","PC_NO":2,"PC_NAME":"TRIPURA EAST(ST)","district":"DHALAI"}},{"type":"Feature","geometry":{"type":"Polygon","coordinates":[[[91.8408,24.2224],[91.8029,24.1704],[91.8286,24.0933],[91.7505,24.0778],[91.7581,23.9786],[91.8377,23.9877],[91.9068,24.0541],[91.9185,24.13],[91.9101,24.1411],[91.8408,24.2224]]]},"properties":{"AC_NO":46,"AC_NAME":"SURMA (SC)","PC_NO":2,"PC_NAME":"TRIPURA EAST(ST)","district":"DHALAI"}},{"type":"Feature","geometry":{"type":"Polygon","coordinates":[[[91.6324,24.1016],[91.6465,24.03],[91.7019,23.9218],[91.7656,23.94],[91.7581,23.9786],[91.7505,24.0778],[91.7584,24.142],[91.6465,24.1748],[91.6324,24.1016]]]},"properties":{"AC_NO":26,"AC_NAME":"ASHARAMBARI (ST)","PC_NO":2,"PC_NAME":"TRIPURA EAST(ST)","district":"KHOWAI"}},{"type":"Feature","geometry":{"type":"Polygon","coordinates":[[[92.0964,24.0014],[92.0718,24.0952],[91.9863,24.0788],[91.9185,24.13],[91.9068,24.0541],[91.9374,23.9128],[92.0275,23.9928],[92.0964,24.0014]]]},"properties":{"AC_NO":48,"AC_NAME":"KARAMCHHARA (ST)","PC_NO":2,"PC_NAME":"TRIPURA EAST(ST)","district":"DHALAI"}},{"type":"Feature","geometry":{"type":"Polygon","coordinates":[[[92.2603,23.8131],[92.2384,24.011],[92.1525,24.0054],[92.092,23.991],[92.1569,23.8539],[92.1681,23.7385],[92.2664,23.7241],[92.267,23.7359],[92.2603,23.8131]]]},"properties":{"AC_NO":60,"AC_NAME":"KANCHANPUR (ST)","PC_NO":2,"PC_NAME":"TRIPURA EAST(ST)","district":"NORTH TRIPURA"}},{"type":"Feature","geometry":{"type":"Polygon","coordinates":[[[91.5849,24.0771],[91.6146,24.0193],[91.6465,24.03],[91.6324,24.1016],[91.5849,24.0771]]]},"properties":{"AC_NO":25,"AC_NAME":"KHOWAI","PC_NO":2,"PC_NAME":"TRIPURA EAST(ST)","district":"KHOWAI"}},{"type":"Feature","geometry":{"type":"Polygon","coordinates":[[[91.5264,23.9395],[91.4772,24.0986],[91.3745,24.108],[91.3864,24.0201],[91.4195,23.9082],[91.5264,23.9395]]]},"properties":{"AC_NO":1,"AC_NAME":"SIMNA (ST)","PC_NO":1,"PC_NAME":"TRIPURA WEST","district":"WEST TRIPURA"}},{"type":"Feature","geometry":{"type":"Polygon","coordinates":[[[91.4772,24.0986],[91.5264,23.9395],[91.536,23.9297],[91.6146,24.0193],[91.5849,24.0771],[91.4772,24.0986]]]},"properties":{"AC_NO":24,"AC_NAME":"RAMCHANDRAGHAT(ST)","PC_NO":2,"PC_NAME":"TRIPURA EAST","district":"KHOWAI"}},{"type":"Feature","geometry":{"type":"Polygon","coordinates":[[[91.9068,24.0541],[91.8377,23.9877],[91.7581,23.9786],[91.7656,23.94],[91.7793,23.8239],[91.9653,23.8372],[91.9374,23.9128],[91.9068,24.0541]]]},"properties":{"AC_NO":47,"AC_NAME":"AMBASSA (ST)","PC_NO":2,"PC_NAME":"TRIPURA EAST(ST)","district":"DHALAI"}},{"type":"Feature","geometry":{"type":"Polygon","coordinates":[[[91.6465,24.03],[91.6146,24.0193],[91.536,23.9297],[91.5543,23.881],[91.6602,23.8945],[91.7019,23.9218],[91.6465,24.03]]]},"properties":{"AC_NO":27,"AC_NAME":"KALYANPUR-PRAMODENAGAR","PC_NO":2,"PC_NAME":"TRIPURA EAST(ST)","district":"KHOWAI"}},{"type":"Feature","geometry":{"type":"Polygon","coordinates":[[[92.0964,24.0014],[92.0275,23.9928],[91.9374,23.9128],[91.9653,23.8372],[91.9769,23.7333],[92.0741,23.6462],[92.1681,23.7385],[92.1569,23.8539],[92.092,23.991],[92.0964,24.0014]]]},"properties":{"AC_NO":49,"AC_NAME":"CHHAWMANU (ST)","PC_NO":2,"PC_NAME":"TRIPURA EAST(ST)","district":"DHALAI"}},{"type":"Feature","geometry":{"type":"Polygon","coordinates":[[[91.3864,24.0201],[91.2999,23.976],[91.3339,23.8951],[91.3572,23.8803],[91.4195,23.9082],[91.3864,24.0201]]]},"properties":{"AC_NO":2,"AC_NAME":"MOHANPUR","PC_NO":1,"PC_NAME":"TRIPURA WEST","district":"WEST TRIPURA"}},{"type":"Feature","geometry":{"type":"Polygon","coordinates":[[[91.2999,23.976],[91.245,23.9077],[91.3036,23.881],[91.3339,23.8951],[91.2999,23.976]]]},"properties":{"AC_NO":3,"AC_NAME":"BAMUTIA (SC)","PC_NO":1,"PC_NAME":"TRIPURA WEST","district":"WEST TRIPURA"}},{"type":"Feature","geometry":{"type":"Polygon","coordinates":[[[91.7793,23.8239],[91.7656,23.94],[91.7019,23.9218],[91.6602,23.8945],[91.6005,23.7638],[91.7375,23.7409],[91.7757,23.6915],[91.7793,23.8239]]]},"properties":{"AC_NO":29,"AC_NAME":"KRISHNAPUR (ST)","PC_NO":1,"PC_NAME":"TRIPURA WEST","district":"KHOWAI"}},{"type":"Feature","geometry":{"type":"Polygon","coordinates":[[[91.5264,23.9395],[91.4195,23.9082],[91.3572,23.8803],[91.408,23.8442],[91.4899,23.8465],[91.4709,23.8168],[91.4123,23.8247],[91.4101,23.8081],[91.5648,23.8055],[91.5543,23.881],[91.536,23.9297],[91.5264,23.9395]]]},"properties":{"AC_NO":11,"AC_NAME":"MANDAIBAZAR(ST)","PC_NO":1,"PC_NAME":"TRIPURA WEST","district":"WEST TRIPURA"}},{"type":"Feature","geometry":{"type":"Polygon","coordinates":[[[91.6602,23.8945],[91.5543,23.881],[91.5648,23.8055],[91.5723,23.7625],[91.5847,23.7594],[91.6005,23.7638],[91.6602,23.8945]]]},"properties":{"AC_NO":28,"AC_NAME":"TELIAMURA","PC_NO":2,"PC_NAME":"TRIPURA EAST(ST)","district":"KHOWAI"}},{"type":"Feature","geometry":{"type":"Polygon","coordinates":[[[91.3036,23.881],[91.245,23.9077],[91.2474,23.8487],[91.2797,23.8571],[91.2996,23.869],[91.3036,23.881]]]},"properties":{"AC_NO":4,"AC_NAME":"BARJALA (SC)","PC_NO":1,"PC_NAME":"TRIPURA WEST","district":"WEST TRIPURA"}},{"type":"Feature","geometry":{"type":"Polygon","coordinates":[[[91.3572,23.8803],[91.3339,23.8951],[91.3036,23.881],[91.2996,23.869],[91.2963,23.8524],[91.3045,23.8382],[91.3284,23.8213],[91.3379,23.7822],[91.3853,23.7687],[91.4101,23.8081],[91.4123,23.8247],[91.408,23.8442],[91.3572,23.8803]]]},"properties":{"AC_NO":5,"AC_NAME":"KHAYERPUR","PC_NO":1,"PC_NAME":"TRIPURA WEST","district":"WEST TRIPURA"}},{"type":"Feature","geometry":{"type":"Polygon","coordinates":[[[91.7793,23.8239],[91.7757,23.6915],[91.7979,23.5385],[91.8636,23.4083],[91.9756,23.4829],[91.9359,23.6819],[91.9769,23.7333],[91.9653,23.8372],[91.7793,23.8239]]]},"properties":{"AC_NO":44,"AC_NAME":"RAIMA VALLEY (ST)","PC_NO":2,"PC_NAME":"TRIPURA EAST(ST)","district":"DHALAI"}},{"type":"Feature","geometry":{"type":"Polygon","coordinates":[[[91.2996,23.869],[91.2797,23.8571],[91.2842,23.8474],[91.2877,23.8485],[91.2963,23.8524],[91.2996,23.869]]]},"properties":{"AC_NO":6,"AC_NAME":"AGARTALA","PC_NO":1,"PC_NAME":"TRIPURA WEST","district":"WEST TRIPURA"}},{"type":"Feature","geometry":{"type":"Polygon","coordinates":[[[91.408,23.8442],[91.4123,23.8247],[91.4709,23.8168],[91.4899,23.8465],[91.408,23.8442]]]},"properties":{"AC_NO":10,"AC_NAME":"MAJLISHPUR","PC_NO":1,"PC_NAME":"TRIPURA WEST","district":"WEST TRIPURA"}},{"type":"Feature","geometry":{"type":"Polygon","coordinates":[[[91.2797,23.8571],[91.2474,23.8487],[91.2496,23.8358],[91.2842,23.8474],[91.2797,23.8571]]]},"properties":{"AC_NO":7,"AC_NAME":"RAMNAGAR","PC_NO":1,"PC_NAME":"TRIPURA WEST","district":"WEST TRIPURA"}},{"type":"Feature","geometry":{"type":"Polygon","coordinates":[[[91.2963,23.8524],[91.2877,23.8485],[91.2748,23.8272],[91.3045,23.8382],[91.2963,23.8524]]]},"properties":{"AC_NO":9,"AC_NAME":"BANAMALIPUR","PC_NO":1,"PC_NAME":"TRIPURA WEST","district":"WEST TRIPURA"}},{"type":"Feature","geometry":{"type":"Polygon","coordinates":[[[91.2877,23.8485],[91.2842,23.8474],[91.2496,23.8358],[91.2436,23.824],[91.2677,23.8237],[91.2748,23.8272],[91.2877,23.8485]]]},"properties":{"AC_NO":8,"AC_NAME":"TOWN BORDOWALI","PC_NO":1,"PC_NAME":"TRIPURA WEST","district":"WEST TRIPURA"}},{"type":"Feature","geometry":{"type":"Polygon","coordinates":[[[91.3284,23.8213],[91.3045,23.8382],[91.2748,23.8272],[91.2677,23.8237],[91.2784,23.8108],[91.3284,23.8213]]]},"properties":{"AC_NO":13,"AC_NAME":"PRATAPGARH (SC)","PC_NO":1,"PC_NAME":"TRIPURA WEST","district":"WEST TRIPURA"}},{"type":"Feature","geometry":{"type":"Polygon","coordinates":[[[91.5648,23.8055],[91.4101,23.8081],[91.3853,23.7687],[91.4004,23.646],[91.4434,23.6292],[91.5683,23.736],[91.5723,23.7625],[91.5648,23.8055]]]},"properties":{"AC_NO":12,"AC_NAME":"TAKARJALA (ST)","PC_NO":1,"PC_NAME":"TRIPURA WEST","district":"SEPAHIJALA"}},{"type":"Feature","geometry":{"type":"Polygon","coordinates":[[[91.3379,23.7822],[91.3284,23.8213],[91.2784,23.8108],[91.2316,23.7984],[91.2305,23.7728],[91.2921,23.7559],[91.3379,23.7822]]]},"properties":{"AC_NO":18,"AC_NAME":"SURYAMANINAGAR","PC_NO":1,"PC_NAME":"TRIPURA WEST","district":"WEST TRIPURA"}},{"type":"Feature","geometry":{"type":"Polygon","coordinates":[[[91.2784,23.8108],[91.2677,23.8237],[91.2436,23.824],[91.2316,23.7984],[91.2784,23.8108]]]},"properties":{"AC_NO":14,"AC_NAME":"BADHARGHAT (SC)","PC_NO":1,"PC_NAME":"TRIPURA WEST","district":"WEST TRIPURA"}},{"type":"Feature","geometry":{"type":"Polygon","coordinates":[[[91.6005,23.7638],[91.5847,23.7594],[91.6127,23.5897],[91.6992,23.5797],[91.7474,23.5133],[91.7737,23.3393],[91.8102,23.3417],[91.832,23.3668],[91.7979,23.5385],[91.7757,23.6915],[91.7375,23.7409],[91.6005,23.7638]]]},"properties":{"AC_NO":41,"AC_NAME":"AMPINAGAR (ST)","PC_NO":2,"PC_NAME":"TRIPURA EAST(ST)","district":"GOMTI"}},{"type":"Feature","geometry":{"type":"Polygon","coordinates":[[[91.3853,23.7687],[91.3379,23.7822],[91.2921,23.7559],[91.2812,23.7101],[91.3164,23.6841],[91.3726,23.5913],[91.3942,23.5811],[91.4434,23.6292],[91.4004,23.646],[91.3853,23.7687]]]},"properties":{"AC_NO":17,"AC_NAME":"GOLAGHATI (ST)","PC_NO":1,"PC_NAME":"TRIPURA WEST","district":"SEPAHIJALA"}},{"type":"Feature","geometry":{"type":"Polygon","coordinates":[[[91.5723,23.7625],[91.5683,23.736],[91.5983,23.6174],[91.6256,23.4593],[91.6248,23.3845],[91.7032,23.3508],[91.665,23.457],[91.7474,23.5133],[91.6992,23.5797],[91.6127,23.5897],[91.5847,23.7594],[91.5723,23.7625]]]},"properties":{"AC_NO":42,"AC_NAME":"AMARPUR","PC_NO":2,"PC_NAME":"TRIPURA EAST(ST)","district":"GOMTI"}},{"type":"Feature","geometry":{"type":"Polygon","coordinates":[[[91.2305,23.7728],[91.1666,23.7492],[91.2019,23.6626],[91.2086,23.6653],[91.2812,23.7101],[91.2921,23.7559],[91.2305,23.7728]]]},"properties":{"AC_NO":15,"AC_NAME":"KAMALASAGAR","PC_NO":1,"PC_NAME":"TRIPURA WEST","district":"SEPAHIJALA"}},{"type":"Feature","geometry":{"type":"Polygon","coordinates":[[[91.5683,23.736],[91.4434,23.6292],[91.3942,23.5811],[91.3957,23.5624],[91.4489,23.5694],[91.5141,23.5683],[91.5983,23.6174],[91.5683,23.736]]]},"properties":{"AC_NO":30,"AC_NAME":"BAGMA (ST)","PC_NO":1,"PC_NAME":"TRIPURA WEST","district":"GOMTI"}},{"type":"Feature","geometry":{"type":"Polygon","coordinates":[[[91.2812,23.7101],[91.2086,23.6653],[91.228,23.6299],[91.3164,23.6841],[91.2812,23.7101]]]},"properties":{"AC_NO":16,"AC_NAME":"BISHALGARH","PC_NO":1,"PC_NAME":"TRIPURA WEST","district":"SEPAHIJALA"}},{"type":"Feature","geometry":{"type":"Polygon","coordinates":[[[91.3726,23.5913],[91.3164,23.6841],[91.228,23.6299],[91.2787,23.5725],[91.3726,23.5913]]]},"properties":{"AC_NO":19,"AC_NAME":"CHARILAM (ST)","PC_NO":1,"PC_NAME":"TRIPURA WEST","district":"SEPAHIJALA"}},{"type":"Feature","geometry":{"type":"Polygon","coordinates":[[[91.2086,23.6653],[91.2019,23.6626],[91.1625,23.5953],[91.2467,23.4897],[91.2787,23.5401],[91.2787,23.5725],[91.228,23.6299],[91.2086,23.6653]]]},"properties":{"AC_NO":20,"AC_NAME":"BOXANAGAR","PC_NO":1,"PC_NAME":"TRIPURA WEST","district":"SEPAHIJALA"}},{"type":"Feature","geometry":{"type":"Polygon","coordinates":[[[91.5983,23.6174],[91.5141,23.5683],[91.449,23.5235],[91.4652,23.4254],[91.6256,23.4593],[91.5983,23.6174]]]},"properties":{"AC_NO":32,"AC_NAME":"MATARBARI","PC_NO":1,"PC_NAME":"TRIPURA WEST","district":"GOMTI"}},{"type":"Feature","geometry":{"type":"Polygon","coordinates":[[[91.3942,23.5811],[91.3726,23.5913],[91.2787,23.5725],[91.2787,23.5401],[91.3485,23.4966],[91.3788,23.519],[91.3957,23.5624],[91.3942,23.5811]]]},"properties":{"AC_NO":21,"AC_NAME":"NALCHAR (SC)","PC_NO":1,"PC_NAME":"TRIPURA WEST","district":"SEPAHIJALA"}},{"type":"Feature","geometry":{"type":"Polygon","coordinates":[[[91.5141,23.5683],[91.4489,23.5694],[91.449,23.5235],[91.5141,23.5683]]]},"properties":{"AC_NO":31,"AC_NAME":"RADHAKISHOREPUR","PC_NO":1,"PC_NAME":"TRIPURA WEST","district":"GOMTI"}},{"type":"Feature","geometry":{"type":"Polygon","coordinates":[[[91.4489,23.5694],[91.3957,23.5624],[91.3788,23.519],[91.3835,23.4226],[91.46,23.4135],[91.4652,23.4254],[91.449,23.5235],[91.4489,23.5694]]]},"properties":{"AC_NO":33,"AC_NAME":"KAKRABAN-SALGARAH(SC)","PC_NO":1,"PC_NAME":"TRIPURA WEST","district":"GOMTI"}},{"type":"Feature","geometry":{"type":"MultiPolygon","coordinates":[[[[91.7474,23.5133],[91.665,23.457],[91.7032,23.3508],[91.7237,23.1898],[91.735,23.0956],[91.771,23.0418],[91.8159,23.1039],[91.7855,23.3073],[91.8102,23.3417],[91.7737,23.3393],[91.7474,23.5133]]],[[[91.7979,23.5385],[91.832,23.3668],[91.8636,23.4083],[91.7979,23.5385]]]]},"properties":{"AC_NO":43,"AC_NAME":"KARBOOK (ST)","PC_NO":2,"PC_NAME":"TRIPURA EAST(ST)","district":"GOMTI"}},{"type":"Feature","geometry":{"type":"Polygon","coordinates":[[[91.3485,23.4966],[91.2787,23.5401],[91.2467,23.4897],[91.2711,23.4215],[91.3485,23.4966]]]},"properties":{"AC_NO":22,"AC_NAME":"SONAMURA","PC_NO":1,"PC_NAME":"TRIPURA WEST","district":"SEPAHIJALA"}},{"type":"Feature","geometry":{"type":"Polygon","coordinates":[[[91.3788,23.519],[91.3485,23.4966],[91.2711,23.4215],[91.3122,23.2741],[91.4164,23.386],[91.3835,23.4226],[91.3788,23.519]]]},"properties":{"AC_NO":23,"AC_NAME":"DHANPUR","PC_NO":1,"PC_NAME":"TRIPURA WEST","district":"SEPAHIJALA"}},{"type":"Feature","geometry":{"type":"Polygon","coordinates":[[[91.6256,23.4593],[91.4652,23.4254],[91.46,23.4135],[91.4665,23.3723],[91.5624,23.2896],[91.6574,23.3225],[91.7041,23.1957],[91.7237,23.1898],[91.7032,23.3508],[91.6248,23.3845],[91.6256,23.4593]]]},"properties":{"AC_NO":36,"AC_NAME":"SANTIRBAZAR (ST)","PC_NO":1,"PC_NAME":"TRIPURA WEST","district":"SOUTH TRIPURA"}},{"type":"Feature","geometry":{"type":"Polygon","coordinates":[[[91.46,23.4135],[91.3835,23.4226],[91.4164,23.386],[91.3122,23.2741],[91.3508,23.1012],[91.4086,23.2826],[91.4665,23.3723],[91.46,23.4135]]]},"properties":{"AC_NO":34,"AC_NAME":"RAJNAGAR (SC)","PC_NO":1,"PC_NAME":"TRIPURA WEST","district":"SOUTH TRIPURA"}},{"type":"Feature","geometry":{"type":"Polygon","coordinates":[[[91.4665,23.3723],[91.4086,23.2826],[91.4504,23.2627],[91.5053,23.2763],[91.5624,23.2896],[91.4665,23.3723]]]},"properties":{"AC_NO":35,"AC_NAME":"BELONIA","PC_NO":1,"PC_NAME":"TRIPURA WEST","district":"SOUTH TRIPURA"}},{"type":"Feature","geometry":{"type":"Polygon","coordinates":[[[91.7041,23.1957],[91.6574,23.3225],[91.5624,23.2896],[91.5053,23.2763],[91.5674,23.1708],[91.7041,23.1957]]]},"properties":{"AC_NO":38,"AC_NAME":"JOLAIBARI (ST)","PC_NO":2,"PC_NAME":"TRIPURA EAST(ST)","district":"SOUTH TRIPURA"}},{"type":"Feature","geometry":{"type":"Polygon","coordinates":[[[91.5053,23.2763],[91.4504,23.2627],[91.5356,23.058],[91.5635,23.1517],[91.5674,23.1708],[91.5053,23.2763]]]},"properties":{"AC_NO":37,"AC_NAME":"HRISHYAMUKH","PC_NO":2,"PC_NAME":"TRIPURA EAST(ST)","district":"SOUTH TRIPURA"}},{"type":"Feature","geometry":{"type":"Polygon","coordinates":[[[91.7237,23.1898],[91.7041,23.1957],[91.5674,23.1708],[91.5635,23.1517],[91.6026,23.0347],[91.735,23.0956],[91.7237,23.1898]]]},"properties":{"AC_NO":39,"AC_NAME":"MANU (ST)","PC_NO":2,"PC_NAME":"TRIPURA EAST(ST)","district":"SOUTH TRIPURA"}},{"type":"Feature","geometry":{"type":"Polygon","coordinates":[[[91.735,23.0956],[91.6026,23.0347],[91.5635,23.1517],[91.5356,23.058],[91.5552,22.9825],[91.6185,22.9449],[91.771,23.0418],[91.735,23.0956]]]},"properties":{"AC_NO":40,"AC_NAME":"SABROOM","PC_NO":2,"PC_NAME":"TRIPURA EAST(ST)","district":"SOUTH TRIPURA"}}]}