{"type":"FeatureCollection", "features": [
{"type":"Feature","geometry":{"type":"Polygon","coordinates":[[[92.1601,24.4546],[92.1638,24.4221],[92.0915,24.3751],[92.0873,24.375],[92.0752,24.268],[92.0672,24.2251],[92.148,24.1255],[92.1525,24.0054],[92.092,23.991],[92.1569,23.8539],[92.1681,23.7385],[92.2664,23.7241],[92.267,23.7359],[92.2603,23.8131],[92.3311,23.9207],[92.3167,24.0719],[92.3319,24.1827],[92.2996,24.2525],[92.2387,24.3122],[92.2565,24.4189],[92.2303,24.5024],[92.1601,24.4546]]]},"properties":{"district":"NORTH TRIPURA"}},
{"type":"Feature","geometry":{"type":"Polygon","coordinates":[[[91.9933,24.3287],[91.9401,24.2839],[91.9151,24.1659],[91.9101,24.1411],[91.9185,24.13],[91.9863,24.0788],[92.0718,24.0952],[92.0964,24.0014],[92.092,23.991],[92.1525,24.0054],[92.148,24.1255],[92.0672,24.2251],[92.0752,24.268],[92.0873,24.375],[91.9933,24.3287]]]},"properties":{"district":"UNAKOTI"}},
{"type":"Feature","geometry":{"type":"Polygon","coordinates":[[[91.7584,24.142],[91.7505,24.0778],[91.7581,23.9786],[91.7656,23.94],[91.7793,23.8239],[91.7757,23.6915],[91.7979,23.5385],[91.8636,23.4083],[91.9756,23.4829],[91.9359,23.6819],[91.9769,23.7333],[92.0741,23.6462],[92.1681,23.7385],[92.1569,23.8539],[92.092,23.991],[92.0964,24.0014],[92.0718,24.0952],[91.9863,24.0788],[91.9185,24.13],[91.9101,24.1411],[91.8408,24.2224],[91.7467,24.2455],[91.7584,24.142]]]},"properties":{"district":"DHALAI"}},
{"type":"Feature","geometry":{"type":"Polygon","coordinates":[[[91.7584,24.142],[91.6465,24.1748],[91.6324,24.1016],[91.5849,24.0771],[91.4772,24.0986],[91.5264,23.9395],[91.536,23.9297],[91.5543,23.881],[91.5648,23.8055],[91.5723,23.7625],[91.5847,23.7594],[91.6005,23.7638],[91.7375,23.7409],[91.7757,23.6915],[91.7793,23.8239],[91.7656,23.94],[91.7581,23.9786],[91.7505,24.0778],[91.7584,24.142]]]},"properties":{"district":"KHOWAI"}},
{"type":"Feature","geometry":{"type":"Polygon","coordinates":[[[91.3864,24.0201],[91.2999,23.976],[91.245,23.9077],[91.2474,23.8487],[91.2496,23.8358],[91.2436,23.824],[91.2316,23.7984],[91.2305,23.7728],[91.2921,23.7559],[91.3379,23.7822],[91.3853,23.7687],[91.4101,23.8081],[91.5648,23.8055],[91.5543,23.881],[91.536,23.9297],[91.5264,23.9395],[91.4772,24.0986],[91.3745,24.108],[91.3864,24.0201]]]},"properties":{"district":"WEST TRIPURA"}},
{"type":"Feature","geometry":{"type":"Polygon","coordinates":[[[91.4101,23.8081],[91.3853,23.7687],[91.3379,23.7822],[91.2921,23.7559],[91.2305,23.7728],[91.1666,23.7492],[91.2019,23.6626],[91.1625,23.5953],[91.2467,23.4897],[91.2711,23.4215],[91.3122,23.2741],[91.4164,23.386],[91.3835,23.4226],[91.3788,23.519],[91.3957,23.5624],[91.3942,23.5811],[91.4434,23.6292],[91.5683,23.736],[91.5723,23.7625],[91.5648,23.8055],[91.4101,23.8081]]]},"properties":{"district":"SEPAHIJALA"}},
{"type":"Feature","geometry":{"type":"Polygon","coordinates":[[[91.6005,23.7638],[91.5847,23.7594],[91.5723,23.7625],[91.5683,23.736],[91.4434,23.6292],[91.3942,23.5811],[91.3957,23.5624],[91.3788,23.519],[91.3835,23.4226],[91.46,23.4135],[91.4652,23.4254],[91.6256,23.4593],[91.6248,23.3845],[91.7032,23.3508],[91.7237,23.1898],[91.735,23.0956],[91.771,23.0418],[91.8159,23.1039],[91.7855,23.3073],[91.8102,23.3417],[91.832,23.3668],[91.8636,23.4083],[91.7979,23.5385],[91.7757,23.6915],[91.7375,23.7409],[91.6005,23.7638]]]},"properties":{"district":"GOMTI"}},
{"type":"Feature","geometry":{"type":"Polygon","coordinates":[[[91.6256,23.4593],[91.4652,23.4254],[91.46,23.4135],[91.3835,23.4226],[91.4164,23.386],[91.3122,23.2741],[91.3508,23.1012],[91.4086,23.2826],[91.4504,23.2627],[91.5356,23.058],[91.5552,22.9825],[91.6185,22.9449],[91.771,23.0418],[91.735,23.0956],[91.7237,23.1898],[91.7032,23.3508],[91.6248,23.3845],[91.6256,23.4593]]]},"properties":{"district":"SOUTH TRIPURA"}}
]}