{"type":"FeatureCollection", "features": [
{"type":"Feature","geometry":{"type":"Polygon","coordinates":[[[74.3509,29.9523],[73.8941,29.9743],[73.9035,30.0491],[73.967,30.1186],[73.9727,30.1983],[73.8062,30.0677],[73.6954,30.0423],[73.6903,29.8779],[73.6274,29.8262],[73.7515,29.7865],[73.7858,29.8677],[73.8707,29.8633],[73.9339,29.9548],[73.9829,29.9197],[74.0198,29.8131],[74.0011,29.7333],[73.9111,29.722],[74.0227,29.6561],[74.0419,29.6558],[74.0501,29.7057],[74.1473,29.7165],[74.2646,29.8072],[74.3509,29.9523]]]},"properties":{"AC_NO":1,"AC_NAME":"Sadulshahar","district":"GANGANAGAR","PC_NO":1,"PC_NAME":"GANGANAGAR(SC)"}},
{"type":"Feature","geometry":{"type":"Polygon","coordinates":[[[74.0227,29.6561],[73.9111,29.722],[73.8634,29.7202],[73.7515,29.7865],[73.6274,29.8262],[73.6903,29.8779],[73.6954,30.0423],[73.3971,29.9458],[73.325,29.7074],[73.3887,29.7213],[73.482,29.6242],[73.7018,29.5683],[73.6804,29.4966],[73.7694,29.5208],[73.8666,29.6205],[74.0227,29.6561]]]},"properties":{"AC_NO":3,"AC_NAME":"Karanpur","district":"GANGANAGAR","PC_NO":1,"PC_NAME":"GANGANAGAR(SC)"}},
{"type":"Feature","geometry":{"type":"Polygon","coordinates":[[[73.7515,29.7865],[73.8634,29.7202],[73.9111,29.722],[74.0011,29.7333],[74.0198,29.8131],[73.9829,29.9197],[73.9339,29.9548],[73.8707,29.8633],[73.7858,29.8677],[73.7515,29.7865]]]},"properties":{"AC_NO":2,"AC_NAME":"Ganganagar","district":"GANGANAGAR","PC_NO":1,"PC_NAME":"GANGANAGAR(SC)"}},
{"type":"Feature","geometry":{"type":"MultiPolygon","coordinates":[[[[74.7941,29.3691],[74.6511,29.3328],[74.7115,29.3108],[74.7941,29.3691]]],[[[74.6033,29.3274],[74.5846,29.4585],[74.623,29.531],[74.575,29.5637],[74.6156,29.7515],[74.4773,29.7452],[74.4847,29.8157],[74.5612,29.8706],[74.5267,29.9428],[74.3509,29.9523],[74.2646,29.8072],[74.3375,29.7905],[74.4259,29.5414],[74.4081,29.4723],[74.4452,29.3863],[74.4206,29.3275],[74.5041,29.2906],[74.546,29.2968],[74.6033,29.3274]]]]},"properties":{"AC_NO":7,"AC_NAME":"Sangaria","district":"HANUMANGARH","PC_NO":1,"PC_NAME":"GANGANAGAR(SC)"}},
{"type":"Feature","geometry":{"type":"Polygon","coordinates":[[[74.2646,29.8072],[74.1473,29.7165],[74.0501,29.7057],[74.0419,29.6558],[74.0413,29.6123],[74.1859,29.6147],[74.1909,29.5607],[74.1104,29.4812],[74.2393,29.3395],[74.34,29.2774],[74.4148,29.3085],[74.5041,29.2906],[74.4206,29.3275],[74.4452,29.3863],[74.4081,29.4723],[74.4259,29.5414],[74.3375,29.7905],[74.2646,29.8072]]]},"properties":{"AC_NO":8,"AC_NAME":"Hanumangarh","district":"HANUMANGARH","PC_NO":1,"PC_NAME":"GANGANAGAR(SC)"}},
{"type":"Feature","geometry":{"type":"Polygon","coordinates":[[[73.6804,29.4966],[73.7018,29.5683],[73.482,29.6242],[73.3887,29.7213],[73.325,29.7074],[73.2822,29.572],[73.0904,29.246],[73.1814,29.2149],[73.3099,29.2433],[73.3483,29.2186],[73.3816,29.0909],[73.3657,29.004],[73.5312,28.9976],[73.6176,29.0335],[73.5236,29.0947],[73.6245,29.2427],[73.6148,29.3298],[73.541,29.3824],[73.6789,29.4147],[73.6804,29.4966]]]},"properties":{"AC_NO":5,"AC_NAME":"Raisinghnagar(SC)","district":"ANOOPGARH","PC_NO":1,"PC_NAME":"GANGANAGAR(SC)"}},
{"type":"Feature","geometry":{"type":"Polygon","coordinates":[[[74.0227,29.6561],[73.8666,29.6205],[73.7694,29.5208],[73.8769,29.4501],[73.8186,29.3808],[73.8495,29.3172],[73.9841,29.3058],[74.1257,29.2435],[74.147,29.1554],[74.1163,29.1113],[74.1766,29.0602],[74.2655,29.0653],[74.3492,29.1203],[74.3817,29.055],[74.4894,29.0474],[74.5292,29.1046],[74.6315,29.1698],[74.6251,29.2216],[74.536,29.228],[74.546,29.2968],[74.5041,29.2906],[74.4148,29.3085],[74.34,29.2774],[74.2393,29.3395],[74.1104,29.4812],[74.1909,29.5607],[74.1859,29.6147],[74.0413,29.6123],[74.0419,29.6558],[74.0227,29.6561]]]},"properties":{"AC_NO":9,"AC_NAME":"Pilibanga (SC)","district":"HANUMANGARH","PC_NO":1,"PC_NAME":"GANGANAGAR(SC)"}},
{"type":"Feature","geometry":{"type":"Polygon","coordinates":[[[73.7694,29.5208],[73.6804,29.4966],[73.6789,29.4147],[73.541,29.3824],[73.6148,29.3298],[73.6245,29.2427],[73.5236,29.0947],[73.6176,29.0335],[73.6654,29.0152],[73.7707,29.0496],[73.8524,28.9495],[74.0152,28.9314],[74.0278,29.004],[74.1163,29.1113],[74.147,29.1554],[74.1257,29.2435],[73.9841,29.3058],[73.8495,29.3172],[73.8186,29.3808],[73.8769,29.4501],[73.7694,29.5208]]]},"properties":{"AC_NO":4,"AC_NAME":"Suratgarh","district":"GANGANAGAR","PC_NO":1,"PC_NAME":"GANGANAGAR(SC)"}},
{"type":"Feature","geometry":{"type":"Polygon","coordinates":[[[74.9606,29.281],[74.9383,29.362],[74.8505,29.4036],[74.7941,29.3691],[74.7115,29.3108],[74.6511,29.3328],[74.6033,29.3274],[74.546,29.2968],[74.536,29.228],[74.6251,29.2216],[74.6315,29.1698],[74.5292,29.1046],[74.4894,29.0474],[74.3817,29.055],[74.3492,29.1203],[74.2655,29.0653],[74.1766,29.0602],[74.1163,29.1113],[74.0278,29.004],[74.1321,28.8755],[74.0955,28.7828],[74.1598,28.7764],[74.2678,28.7952],[74.4189,28.8844],[74.4704,28.8168],[74.7497,28.8539],[74.7848,28.9172],[74.8613,28.9438],[74.9056,29.0263],[74.9882,29.065],[74.8841,29.1858],[74.9606,29.281]]]},"properties":{"AC_NO":10,"AC_NAME":"Nohar","district":"HANUMANGARH","PC_NO":3,"PC_NAME":"CHURU"}},
{"type":"Feature","geometry":{"type":"Polygon","coordinates":[[[73.3657,29.004],[73.3816,29.0909],[73.3483,29.2186],[73.3099,29.2433],[73.1814,29.2149],[73.0904,29.246],[73.0046,29.1529],[72.9458,29.0279],[72.6624,28.9103],[72.7462,28.7826],[72.8218,28.7771],[73.0065,28.7111],[73.1478,28.7842],[73.2088,28.9215],[73.3657,29.004]]]},"properties":{"AC_NO":6,"AC_NAME":"Anupgarh (SC)","district":"ANOOPGARH","PC_NO":2,"PC_NAME":"BIKANER (SC)"}},
{"type":"Feature","geometry":{"type":"Polygon","coordinates":[[[75.4767,28.932],[75.521,29.0046],[75.3914,29.063],[75.3882,29.2608],[75.3224,29.2892],[75.2123,29.2331],[75.0755,29.2295],[75.0495,29.2856],[74.9606,29.281],[74.8841,29.1858],[74.9882,29.065],[74.9056,29.0263],[74.8613,28.9438],[74.9163,28.8969],[74.9964,28.9099],[75.0983,28.8735],[75.2369,28.8737],[75.2446,28.931],[75.3628,28.9123],[75.4326,28.999],[75.4767,28.932]]]},"properties":{"AC_NO":11,"AC_NAME":"Bhadra","district":"HANUMANGARH","PC_NO":3,"PC_NAME":"CHURU"}},
{"type":"Feature","geometry":{"type":"Polygon","coordinates":[[[73.6176,29.0335],[73.5312,28.9976],[73.5089,28.9137],[73.3988,28.8318],[73.3899,28.7507],[73.2989,28.6156],[73.3284,28.5391],[73.4239,28.509],[73.3138,28.396],[73.3591,28.3612],[73.3379,28.2452],[73.4022,28.2391],[73.4531,28.1695],[73.4497,28.0754],[73.3867,28.0228],[73.4926,27.9485],[73.5445,27.8997],[73.5011,27.8276],[73.5994,27.8297],[73.7149,27.9331],[73.6941,28.0548],[73.6384,28.1124],[73.7082,28.1471],[73.7395,28.2604],[73.8442,28.3148],[73.9077,28.289],[74.0617,28.3311],[74.0549,28.5261],[74.1093,28.5851],[74.0805,28.6698],[74.1775,28.7078],[74.1598,28.7764],[74.0955,28.7828],[74.1321,28.8755],[74.0278,29.004],[74.0152,28.9314],[73.8524,28.9495],[73.7707,29.0496],[73.6654,29.0152],[73.6176,29.0335]]]},"properties":{"AC_NO":16,"AC_NAME":"Lunkaransar","district":"BIKANER","PC_NO":2,"PC_NAME":"BIKANER (SC)"}},
{"type":"Feature","geometry":{"type":"Polygon","coordinates":[[[73.5312,28.9976],[73.3657,29.004],[73.2088,28.9215],[73.1478,28.7842],[73.0065,28.7111],[72.8218,28.7771],[72.7462,28.7826],[72.6624,28.9103],[72.4037,28.7832],[72.2993,28.6695],[72.2033,28.3908],[72.3684,28.3554],[72.4984,28.3505],[72.566,28.2969],[72.6336,28.1865],[72.8276,28.126],[72.9832,28.159],[72.9942,28.0958],[73.1262,28.039],[73.2573,28.0658],[73.2898,28.0431],[73.3867,28.0228],[73.4497,28.0754],[73.4531,28.1695],[73.4022,28.2391],[73.3379,28.2452],[73.3591,28.3612],[73.3138,28.396],[73.4239,28.509],[73.3284,28.5391],[73.2989,28.6156],[73.3899,28.7507],[73.3988,28.8318],[73.5089,28.9137],[73.5312,28.9976]]]},"properties":{"AC_NO":12,"AC_NAME":"Khajuwala(SC)","district":"BIKANER","PC_NO":2,"PC_NAME":"BIKANER (SC)"}},
{"type":"Feature","geometry":{"type":"Polygon","coordinates":[[[75.6708,28.5181],[75.6222,28.6017],[75.5615,28.6132],[75.5369,28.7448],[75.5032,28.7825],[75.4767,28.932],[75.4326,28.999],[75.3628,28.9123],[75.2446,28.931],[75.2369,28.8737],[75.3147,28.8383],[75.3278,28.7539],[75.2859,28.6137],[75.3249,28.5161],[75.2445,28.461],[75.3718,28.3456],[75.5089,28.3407],[75.5675,28.3804],[75.6106,28.4862],[75.6708,28.5181]]]},"properties":{"AC_NO":19,"AC_NAME":"Sadulpur","district":"CHURU","PC_NO":3,"PC_NAME":"CHURU"}},
{"type":"Feature","geometry":{"type":"Polygon","coordinates":[[[74.8613,28.9438],[74.7848,28.9172],[74.7497,28.8539],[74.4704,28.8168],[74.5251,28.6893],[74.5883,28.6347],[74.7104,28.6489],[74.7667,28.4741],[74.8346,28.496],[74.9067,28.5755],[75.0374,28.5133],[75.1049,28.5227],[75.1614,28.4657],[75.241,28.4595],[75.2445,28.461],[75.3249,28.5161],[75.2859,28.6137],[75.3278,28.7539],[75.3147,28.8383],[75.2369,28.8737],[75.0983,28.8735],[74.9964,28.9099],[74.9163,28.8969],[74.8613,28.9438]]]},"properties":{"AC_NO":20,"AC_NAME":"Taranagar","district":"CHURU","PC_NO":3,"PC_NAME":"CHURU"}},
{"type":"Feature","geometry":{"type":"Polygon","coordinates":[[[74.4704,28.8168],[74.4189,28.8844],[74.2678,28.7952],[74.1598,28.7764],[74.1775,28.7078],[74.0805,28.6698],[74.1093,28.5851],[74.0549,28.5261],[74.0617,28.3311],[74.1996,28.312],[74.2379,28.231],[74.3077,28.2315],[74.3473,28.1639],[74.4172,28.1046],[74.5287,28.0898],[74.6772,28.2115],[74.6895,28.3145],[74.7533,28.3662],[74.7667,28.4741],[74.7104,28.6489],[74.5883,28.6347],[74.5251,28.6893],[74.4704,28.8168]]]},"properties":{"AC_NO":21,"AC_NAME":"Sardarshahar","district":"CHURU","PC_NO":3,"PC_NAME":"CHURU"}},
{"type":"Feature","geometry":{"type":"Polygon","coordinates":[[[75.241,28.4595],[75.1614,28.4657],[75.1049,28.5227],[75.0374,28.5133],[74.9067,28.5755],[74.8346,28.496],[74.7667,28.4741],[74.7533,28.3662],[74.6895,28.3145],[74.6772,28.2115],[74.7589,28.2227],[74.8574,28.1404],[74.8886,28.1895],[75.0244,28.2051],[75.0456,28.2546],[75.1453,28.2931],[75.1638,28.3803],[75.241,28.4595]]]},"properties":{"AC_NO":22,"AC_NAME":"Churu","district":"CHURU","PC_NO":3,"PC_NAME":"CHURU"}},
{"type":"Feature","geometry":{"type":"Polygon","coordinates":[[[73.4926,27.9485],[73.3683,27.9196],[73.3058,27.8713],[73.2491,27.9193],[73.1466,27.9866],[73.1262,28.039],[72.9942,28.0958],[72.9832,28.159],[72.8276,28.126],[72.6336,28.1865],[72.566,28.2969],[72.4984,28.3505],[72.3684,28.3554],[72.2033,28.3908],[72.1322,28.3129],[72.0043,28.2185],[71.9282,28.1223],[71.8918,27.9599],[71.8826,27.8825],[72.0244,27.9508],[72.1428,27.8749],[72.1501,27.7805],[72.0908,27.7218],[72.2458,27.6752],[72.3378,27.6933],[72.2805,27.5531],[72.3239,27.5168],[72.5004,27.5871],[72.5988,27.6079],[72.6472,27.5432],[72.8268,27.5847],[72.8247,27.4688],[72.9793,27.3818],[73.0801,27.4285],[73.0235,27.5064],[73.0296,27.5855],[73.1401,27.724],[73.331,27.7505],[73.4261,27.7892],[73.5011,27.8276],[73.5445,27.8997],[73.4926,27.9485]]]},"properties":{"AC_NO":15,"AC_NAME":"Kolayat","district":"BIKANER","PC_NO":2,"PC_NAME":"BIKANER (SC)"}},
{"type":"Feature","geometry":{"type":"Polygon","coordinates":[[[75.7885,28.4007],[75.7881,28.4538],[75.6708,28.5181],[75.6106,28.4862],[75.5675,28.3804],[75.5089,28.3407],[75.3718,28.3456],[75.3926,28.2513],[75.5919,28.157],[75.6501,28.1897],[75.7345,28.2535],[75.7885,28.4007]]]},"properties":{"AC_NO":25,"AC_NAME":"Pilani (SC)","district":"JHUNJHUNUN","PC_NO":4,"PC_NAME":"JHUNJHUNU"}},
{"type":"Feature","geometry":{"type":"Polygon","coordinates":[[[75.3718,28.3456],[75.2445,28.461],[75.241,28.4595],[75.1638,28.3803],[75.1453,28.2931],[75.0456,28.2546],[75.0244,28.2051],[75.127,28.1395],[75.0977,28.0728],[75.193,27.9583],[75.3188,28.0555],[75.315,28.1509],[75.4009,28.1841],[75.3926,28.2513],[75.3718,28.3456]]]},"properties":{"AC_NO":28,"AC_NAME":"Mandawa","district":"JHUNJHUNUN","PC_NO":4,"PC_NAME":"JHUNJHUNU"}},
{"type":"Feature","geometry":{"type":"Polygon","coordinates":[[[74.0617,28.3311],[73.9077,28.289],[73.8442,28.3148],[73.7395,28.2604],[73.7082,28.1471],[73.6384,28.1124],[73.6941,28.0548],[73.7149,27.9331],[73.5994,27.8297],[73.5011,27.8276],[73.4261,27.7892],[73.4734,27.7397],[73.6105,27.6752],[73.6671,27.7466],[73.8679,27.7734],[73.9864,27.7928],[74.0484,27.7206],[74.1143,27.7854],[74.216,27.8119],[74.2315,27.9318],[74.2879,28.0407],[74.2971,28.1349],[74.3473,28.1639],[74.3077,28.2315],[74.2379,28.231],[74.1996,28.312],[74.0617,28.3311]]]},"properties":{"AC_NO":17,"AC_NAME":"Dungargarh","district":"BIKANER","PC_NO":2,"PC_NAME":"BIKANER (SC)"}},
{"type":"Feature","geometry":{"type":"Polygon","coordinates":[[[75.9432,28.1003],[76.0765,28.1676],[75.9295,28.3589],[75.7885,28.4007],[75.7345,28.2535],[75.6501,28.1897],[75.6359,28.0683],[75.9432,28.1003]]]},"properties":{"AC_NO":26,"AC_NAME":"Surajgarh","district":"JHUNJHUNUN","PC_NO":4,"PC_NAME":"JHUNJHUNU"}},
{"type":"Feature","geometry":{"type":"Polygon","coordinates":[[[71.3326,27.8615],[71.2055,27.8352],[70.9063,27.7093],[70.7595,27.721],[70.6847,27.8281],[70.6777,27.9217],[70.5895,28.0103],[70.5057,28.0369],[70.3722,28.0117],[70.227,27.9012],[70.1325,27.8059],[70.0259,27.5627],[69.9337,27.4978],[69.863,27.402],[69.5867,27.1832],[69.5132,27.0097],[69.4848,26.8051],[69.5103,26.7434],[69.7225,26.6532],[69.7916,26.5984],[69.8861,26.5786],[70.0563,26.6004],[70.1743,26.5512],[70.1854,26.3741],[70.1752,26.2513],[70.1412,26.1558],[70.3624,26.1427],[70.4311,26.175],[70.6561,26.197],[70.7495,26.1465],[70.9601,26.0946],[71.0502,26.1388],[71.0136,26.2797],[71.1403,26.3078],[71.2373,26.4557],[71.3275,26.4206],[71.4472,26.513],[71.4131,26.5841],[71.4739,26.6998],[71.413,26.8009],[71.539,26.9377],[71.4691,27.0058],[71.5121,27.1703],[71.5758,27.1791],[71.6463,27.2648],[71.6318,27.347],[71.5749,27.3922],[71.4388,27.3724],[71.3912,27.4622],[71.4301,27.4893],[71.3697,27.6084],[71.4352,27.7389],[71.3326,27.8615]]]},"properties":{"AC_NO":132,"AC_NAME":"Jaisalmer","district":"JAISALMER","PC_NO":17,"PC_NAME":"BARMER"}},
{"type":"Feature","geometry":{"type":"Polygon","coordinates":[[[74.3473,28.1639],[74.2971,28.1349],[74.2879,28.0407],[74.2315,27.9318],[74.3801,27.8727],[74.4401,27.7528],[74.5058,27.7265],[74.6144,27.767],[74.6514,27.8287],[74.7695,27.7694],[74.8002,27.834],[74.737,27.8914],[74.7839,27.9542],[74.8083,28.0578],[74.8574,28.1404],[74.7589,28.2227],[74.6772,28.2115],[74.5287,28.0898],[74.4172,28.1046],[74.3473,28.1639]]]},"properties":{"AC_NO":23,"AC_NAME":"Ratangarh","district":"CHURU","PC_NO":3,"PC_NAME":"CHURU"}},
{"type":"Feature","geometry":{"type":"Polygon","coordinates":[[[75.3926,28.2513],[75.4009,28.1841],[75.315,28.1509],[75.3188,28.0555],[75.4246,27.9524],[75.4642,28.0315],[75.5934,28.0093],[75.6359,28.0683],[75.6501,28.1897],[75.5919,28.157],[75.3926,28.2513]]]},"properties":{"AC_NO":27,"AC_NAME":"Jhunjhunu","district":"JHUNJHUNUN","PC_NO":4,"PC_NAME":"JHUNJHUNU"}},
{"type":"Feature","geometry":{"type":"Polygon","coordinates":[[[75.0244,28.2051],[74.8886,28.1895],[74.8574,28.1404],[74.8083,28.0578],[74.7839,27.9542],[74.737,27.8914],[74.8002,27.834],[74.8267,27.8681],[74.9542,27.868],[75.0857,27.9475],[75.194,27.9559],[75.193,27.9583],[75.0977,28.0728],[75.127,28.1395],[75.0244,28.2051]]]},"properties":{"AC_NO":32,"AC_NAME":"Fatehpur","district":"SIKAR","PC_NO":4,"PC_NAME":"JHUNJHUNU"}},
{"type":"Feature","geometry":{"type":"Polygon","coordinates":[[[73.1262,28.039],[73.1466,27.9866],[73.2491,27.9193],[73.2898,28.0431],[73.2573,28.0658],[73.1262,28.039]]]},"properties":{"AC_NO":13,"AC_NAME":"Bikaner West","district":"BIKANER","PC_NO":2,"PC_NAME":"BIKANER (SC)"}},
{"type":"Feature","geometry":{"type":"Polygon","coordinates":[[[76.9117,27.7956],[76.9414,27.8417],[76.9301,27.9572],[76.9479,28.1419],[76.8741,28.218],[76.8084,28.2106],[76.7395,28.1223],[76.8243,28.073],[76.7345,27.9073],[76.8155,27.8766],[76.8373,27.7941],[76.9117,27.7956]]]},"properties":{"AC_NO":59,"AC_NAME":"Tijara","district":"KHAIRTHAL-TIJARA","PC_NO":8,"PC_NAME":"ALWAR"}},
{"type":"Feature","geometry":{"type":"Polygon","coordinates":[[[73.3867,28.0228],[73.2898,28.0431],[73.2491,27.9193],[73.3058,27.8713],[73.3683,27.9196],[73.4926,27.9485],[73.3867,28.0228]]]},"properties":{"AC_NO":14,"AC_NAME":"Bikaner East","district":"BIKANER","PC_NO":2,"PC_NAME":"BIKANER (SC)"}},
{"type":"Feature","geometry":{"type":"Polygon","coordinates":[[[76.4527,28.0932],[76.4012,28.1448],[76.3203,28.0159],[76.2586,28.0673],[76.1804,28.0441],[76.1692,27.9034],[76.2255,27.8331],[76.2856,27.8018],[76.3304,27.8424],[76.4034,27.8695],[76.3249,27.9727],[76.3865,28.0739],[76.4527,28.0932]]]},"properties":{"AC_NO":62,"AC_NAME":"Behror","district":"KOTPUTLI-BEHROR","PC_NO":8,"PC_NAME":"ALWAR"}},
{"type":"Feature","geometry":{"type":"Polygon","coordinates":[[[72.2805,27.5531],[72.3378,27.6933],[72.2458,27.6752],[72.0908,27.7218],[72.1501,27.7805],[72.1428,27.8749],[72.0244,27.9508],[71.8826,27.8825],[71.8918,27.9599],[71.6668,27.878],[71.3326,27.8615],[71.4352,27.7389],[71.3697,27.6084],[71.4301,27.4893],[71.3912,27.4622],[71.4388,27.3724],[71.5749,27.3922],[71.6318,27.347],[71.6463,27.2648],[71.5758,27.1791],[71.5121,27.1703],[71.4691,27.0058],[71.539,26.9377],[71.413,26.8009],[71.4739,26.6998],[71.4131,26.5841],[71.4472,26.513],[71.4883,26.4574],[71.5741,26.5056],[71.6232,26.4165],[71.7595,26.3479],[71.883,26.3391],[71.893,26.2979],[72.0715,26.3504],[72.0773,26.4525],[72.0281,26.5],[72.0849,26.6234],[72.0386,26.6817],[72.0834,26.7369],[72.0549,26.8038],[72.0993,26.8906],[72.0377,26.9359],[72.0429,27.1047],[71.9135,27.1799],[71.9045,27.2544],[71.8247,27.3224],[71.8072,27.4477],[72.0465,27.6179],[72.128,27.5811],[72.1572,27.4766],[72.2805,27.5531]]]},"properties":{"AC_NO":133,"AC_NAME":"Pokaran","district":"JAISALMER","PC_NO":16,"PC_NAME":"JODHPUR"}},
{"type":"Feature","geometry":{"type":"Polygon","coordinates":[[[75.9314,27.9304],[75.9831,28.0812],[75.9432,28.1003],[75.6359,28.0683],[75.5934,28.0093],[75.6829,27.9116],[75.6445,27.818],[75.7347,27.7915],[75.7691,27.8316],[75.9314,27.9304]]]},"properties":{"AC_NO":31,"AC_NAME":"Khetri","district":"NEEM-KA-THANA","PC_NO":4,"PC_NAME":"JHUNJHUNU"}},
{"type":"Feature","geometry":{"type":"Polygon","coordinates":[[[76.7395,28.1223],[76.657,28.0884],[76.6587,28.0085],[76.5909,27.943],[76.6028,27.7596],[76.7506,27.7086],[76.7733,27.6764],[76.8147,27.7615],[76.9011,27.7664],[76.9117,27.7956],[76.8373,27.7941],[76.8155,27.8766],[76.7345,27.9073],[76.8243,28.073],[76.7395,28.1223]]]},"properties":{"AC_NO":60,"AC_NAME":"Kishangarh bas","district":"KHAIRTHAL-TIJARA","PC_NO":8,"PC_NAME":"ALWAR"}},
{"type":"Feature","geometry":{"type":"Polygon","coordinates":[[[75.3188,28.0555],[75.193,27.9583],[75.194,27.9559],[75.2403,27.8146],[75.2864,27.7185],[75.4079,27.6528],[75.4489,27.7873],[75.3773,27.8238],[75.4246,27.9524],[75.3188,28.0555]]]},"properties":{"AC_NO":29,"AC_NAME":"Nawalgarh","district":"JHUNJHUNUN","PC_NO":4,"PC_NAME":"JHUNJHUNU"}},
{"type":"Feature","geometry":{"type":"Polygon","coordinates":[[[76.6587,28.0085],[76.5893,27.9973],[76.4527,28.0932],[76.3865,28.0739],[76.3249,27.9727],[76.4034,27.8695],[76.3304,27.8424],[76.4804,27.7964],[76.4996,27.7242],[76.6028,27.7596],[76.5909,27.943],[76.6587,28.0085]]]},"properties":{"AC_NO":61,"AC_NAME":"Mundawar","district":"KHAIRTHAL-TIJARA","PC_NO":8,"PC_NAME":"ALWAR"}},
{"type":"Feature","geometry":{"type":"Polygon","coordinates":[[[75.4246,27.9524],[75.3773,27.8238],[75.4489,27.7873],[75.4079,27.6528],[75.4531,27.6572],[75.5394,27.712],[75.6185,27.7027],[75.6909,27.679],[75.7347,27.7915],[75.6445,27.818],[75.6829,27.9116],[75.5934,28.0093],[75.4642,28.0315],[75.4246,27.9524]]]},"properties":{"AC_NO":30,"AC_NAME":"Udaipurwati","district":"JHUNJHUNUN","PC_NO":4,"PC_NAME":"JHUNJHUNU"}},
{"type":"Feature","geometry":{"type":"Polygon","coordinates":[[[74.2315,27.9318],[74.216,27.8119],[74.1143,27.7854],[74.0484,27.7206],[73.9864,27.7928],[73.8679,27.7734],[73.8883,27.6069],[73.8773,27.5389],[73.9077,27.4894],[74.0297,27.5351],[74.0803,27.4795],[74.2097,27.4688],[74.2544,27.6011],[74.3536,27.6857],[74.4944,27.6667],[74.6812,27.6684],[74.7362,27.6775],[74.7695,27.7694],[74.6514,27.8287],[74.6144,27.767],[74.5058,27.7265],[74.4401,27.7528],[74.3801,27.8727],[74.2315,27.9318]]]},"properties":{"AC_NO":24,"AC_NAME":"Sujangarh(SC)","district":"CHURU","PC_NO":3,"PC_NAME":"CHURU"}},
{"type":"Feature","geometry":{"type":"Polygon","coordinates":[[[74.8002,27.834],[74.7695,27.7694],[74.7362,27.6775],[74.6812,27.6684],[74.7614,27.5653],[74.7492,27.4986],[74.8674,27.5544],[74.9751,27.7105],[75.1774,27.7915],[75.2403,27.8146],[75.194,27.9559],[75.0857,27.9475],[74.9542,27.868],[74.8267,27.8681],[74.8002,27.834]]]},"properties":{"AC_NO":33,"AC_NAME":"Lachhmangarh","district":"SIKAR","PC_NO":5,"PC_NAME":"SIKAR"}},
{"type":"Feature","geometry":{"type":"Polygon","coordinates":[[[76.0749,27.8439],[75.9709,27.8522],[75.9314,27.9304],[75.7691,27.8316],[75.7347,27.7915],[75.6909,27.679],[75.6185,27.7027],[75.7077,27.6598],[75.7625,27.5966],[75.8476,27.6352],[75.9804,27.6566],[76.0687,27.7679],[76.0749,27.8439]]]},"properties":{"AC_NO":38,"AC_NAME":"Neema Ka Thana","district":"NEEM-KA-THANA","PC_NO":5,"PC_NAME":"SIKAR"}},
{"type":"Feature","geometry":{"type":"Polygon","coordinates":[[[73.4261,27.7892],[73.331,27.7505],[73.1401,27.724],[73.0296,27.5855],[73.0235,27.5064],[73.0801,27.4285],[73.1341,27.3096],[73.2195,27.3351],[73.2582,27.26],[73.3386,27.2398],[73.4021,27.287],[73.4953,27.328],[73.5282,27.4838],[73.6115,27.4888],[73.6585,27.5654],[73.7191,27.5199],[73.7909,27.5002],[73.8773,27.5389],[73.8883,27.6069],[73.8679,27.7734],[73.6671,27.7466],[73.6105,27.6752],[73.4734,27.7397],[73.4261,27.7892]]]},"properties":{"AC_NO":18,"AC_NAME":"Nokha","district":"BIKANER","PC_NO":2,"PC_NAME":"BIKANER (SC)"}},
{"type":"Feature","geometry":{"type":"Polygon","coordinates":[[[75.4079,27.6528],[75.2864,27.7185],[75.2403,27.8146],[75.1774,27.7915],[75.2182,27.7711],[75.1048,27.5948],[75.2329,27.5426],[75.2931,27.6088],[75.4033,27.5385],[75.4531,27.583],[75.4531,27.6572],[75.4079,27.6528]]]},"properties":{"AC_NO":35,"AC_NAME":"Sikar","district":"SIKAR","PC_NO":5,"PC_NAME":"SIKAR"}},
{"type":"Feature","geometry":{"type":"Polygon","coordinates":[[[76.2255,27.8331],[76.183,27.7977],[76.0749,27.8439],[76.0687,27.7679],[75.9804,27.6566],[75.9768,27.499],[76.0493,27.5821],[76.1319,27.6241],[76.2031,27.5909],[76.2547,27.691],[76.2389,27.7501],[76.2856,27.8018],[76.2255,27.8331]]]},"properties":{"AC_NO":40,"AC_NAME":"Kotputli","district":"KOTPUTLI-BEHROR","PC_NO":6,"PC_NAME":"JAIPUR RURAL"}},
{"type":"Feature","geometry":{"type":"Polygon","coordinates":[[[76.2856,27.8018],[76.2389,27.7501],[76.2547,27.691],[76.2031,27.5909],[76.2381,27.5064],[76.3962,27.4388],[76.4399,27.6221],[76.4996,27.7242],[76.4804,27.7964],[76.3304,27.8424],[76.2856,27.8018]]]},"properties":{"AC_NO":63,"AC_NAME":"Bansur","district":"KOTPUTLI-BEHROR","PC_NO":6,"PC_NAME":"JAIPUR RURAL"}},
{"type":"Feature","geometry":{"type":"Polygon","coordinates":[[[75.1774,27.7915],[74.9751,27.7105],[74.8674,27.5544],[74.7492,27.4986],[74.8599,27.4495],[74.8709,27.3288],[74.8771,27.3206],[75.0994,27.3813],[75.1622,27.3904],[75.2329,27.5426],[75.1048,27.5948],[75.2182,27.7711],[75.1774,27.7915]]]},"properties":{"AC_NO":34,"AC_NAME":"Dhod (SC)","district":"SIKAR","PC_NO":5,"PC_NAME":"SIKAR"}},
{"type":"Feature","geometry":{"type":"Polygon","coordinates":[[[73.0801,27.4285],[72.9793,27.3818],[72.8247,27.4688],[72.8268,27.5847],[72.6472,27.5432],[72.5988,27.6079],[72.5004,27.5871],[72.3239,27.5168],[72.2805,27.5531],[72.1572,27.4766],[72.128,27.5811],[72.0465,27.6179],[71.8072,27.4477],[71.8247,27.3224],[71.9045,27.2544],[71.9135,27.1799],[72.0429,27.1047],[72.0377,26.9359],[72.0993,26.8906],[72.324,26.8896],[72.5253,26.9621],[72.5812,27.0465],[72.5669,27.156],[72.6699,27.2843],[72.7735,27.3206],[72.8425,27.2356],[72.8044,27.1442],[72.8554,27.077],[72.9369,27.1373],[72.9623,27.1974],[73.0894,27.2426],[73.1341,27.3096],[73.0801,27.4285]]]},"properties":{"AC_NO":122,"AC_NAME":"Phalodi","district":"PHALODI","PC_NO":16,"PC_NAME":"JODHPUR"}},
{"type":"Feature","geometry":{"type":"Polygon","coordinates":[[[77.3178,27.6059],[77.3528,27.6507],[77.3118,27.7739],[77.2681,27.8157],[77.1081,27.786],[76.9999,27.7373],[76.9795,27.6537],[76.9782,27.6503],[77.1847,27.5382],[77.3178,27.6059]]]},"properties":{"AC_NO":70,"AC_NAME":"Kaman","district":"DEEG","PC_NO":9,"PC_NAME":"BHARATPUR (SC)"}},
{"type":"Feature","geometry":{"type":"Polygon","coordinates":[[[74.6812,27.6684],[74.4944,27.6667],[74.3536,27.6857],[74.2544,27.6011],[74.2097,27.4688],[74.2149,27.3355],[74.3332,27.274],[74.3896,27.4389],[74.4878,27.4816],[74.6068,27.4501],[74.6485,27.3997],[74.8709,27.3288],[74.8599,27.4495],[74.7492,27.4986],[74.7614,27.5653],[74.6812,27.6684]]]},"properties":{"AC_NO":106,"AC_NAME":"Ladnun","district":"DIDWANA-KUCHAMAN","PC_NO":14,"PC_NAME":"NAGAUR"}},
{"type":"Feature","geometry":{"type":"Polygon","coordinates":[[[76.7733,27.6764],[76.7506,27.7086],[76.6028,27.7596],[76.4996,27.7242],[76.4399,27.6221],[76.3962,27.4388],[76.4134,27.321],[76.5047,27.3363],[76.5987,27.3067],[76.7459,27.4288],[76.6653,27.5118],[76.6976,27.6211],[76.7733,27.6764]],[[76.5595,27.613],[76.6296,27.608],[76.5785,27.5498],[76.5595,27.613]]]},"properties":{"AC_NO":65,"AC_NAME":"Alwar Rural (SC)","district":"ALWAR","PC_NO":9,"PC_NAME":"BHARATPUR (SC)"}},
{"type":"Feature","geometry":{"type":"Polygon","coordinates":[[[76.9795,27.6537],[76.8985,27.6778],[76.9011,27.7664],[76.8147,27.7615],[76.7733,27.6764],[76.6976,27.6211],[76.6653,27.5118],[76.7459,27.4288],[76.8863,27.4214],[76.9004,27.4618],[77.0185,27.4509],[77.0484,27.55],[76.946,27.586],[76.9782,27.6503],[76.9795,27.6537]]]},"properties":{"AC_NO":67,"AC_NAME":"Ramgarh","district":"ALWAR","PC_NO":9,"PC_NAME":"BHARATPUR (SC)"}},
{"type":"Feature","geometry":{"type":"Polygon","coordinates":[[[75.6185,27.7027],[75.5394,27.712],[75.4531,27.6572],[75.4531,27.583],[75.4649,27.4309],[75.4482,27.2901],[75.4974,27.3001],[75.5276,27.3359],[75.6231,27.3215],[75.597,27.4926],[75.7482,27.5547],[75.7625,27.5966],[75.7077,27.6598],[75.6185,27.7027]]]},"properties":{"AC_NO":37,"AC_NAME":"Khandela","district":"SIKAR","PC_NO":5,"PC_NAME":"SIKAR"}},
{"type":"Feature","geometry":{"type":"Polygon","coordinates":[[[73.7191,27.5199],[73.6585,27.5654],[73.6115,27.4888],[73.5282,27.4838],[73.4953,27.328],[73.4021,27.287],[73.4733,27.2769],[73.5405,27.1025],[73.4947,27.0256],[73.6089,27.0187],[73.64,27.1316],[73.8099,26.9746],[73.9366,27.0215],[73.7909,27.309],[73.6837,27.4028],[73.7616,27.4171],[73.7191,27.5199]]]},"properties":{"AC_NO":109,"AC_NAME":"Nagaur","district":"NAGAUR","PC_NO":14,"PC_NAME":"NAGAUR"}},
{"type":"Feature","geometry":{"type":"Polygon","coordinates":[[[75.9804,27.6566],[75.8476,27.6352],[75.7625,27.5966],[75.7482,27.5547],[75.597,27.4926],[75.6231,27.3215],[75.6663,27.3482],[75.8715,27.4129],[75.9768,27.499],[75.9804,27.6566]]]},"properties":{"AC_NO":39,"AC_NAME":"Srimadhopur","district":"NEEM-KA-THANA","PC_NO":5,"PC_NAME":"SIKAR"}},
{"type":"Feature","geometry":{"type":"Polygon","coordinates":[[[75.2329,27.5426],[75.1622,27.3904],[75.0994,27.3813],[75.1649,27.3049],[75.1118,27.2171],[75.197,27.1261],[75.316,27.1438],[75.3215,27.2069],[75.4482,27.2901],[75.4649,27.4309],[75.4531,27.583],[75.4033,27.5385],[75.2931,27.6088],[75.2329,27.5426]]]},"properties":{"AC_NO":36,"AC_NAME":"Danta Ramgarh","district":"SIKAR","PC_NO":5,"PC_NAME":"SIKAR"}},
{"type":"Feature","geometry":{"type":"Polygon","coordinates":[[[74.2097,27.4688],[74.0803,27.4795],[74.0297,27.5351],[73.9077,27.4894],[73.8773,27.5389],[73.7909,27.5002],[73.7191,27.5199],[73.7616,27.4171],[73.6837,27.4028],[73.7909,27.309],[73.9366,27.0215],[74.0132,27.0111],[74.041,26.9525],[74.0853,26.9551],[74.2902,27.0846],[74.3559,27.0819],[74.3332,27.274],[74.2149,27.3355],[74.2097,27.4688]]]},"properties":{"AC_NO":108,"AC_NAME":"Jayal (SC)","district":"NAGAUR","PC_NO":14,"PC_NAME":"NAGAUR"}},
{"type":"Feature","geometry":{"type":"Polygon","coordinates":[[[76.2031,27.5909],[76.1319,27.6241],[76.0493,27.5821],[75.9768,27.499],[75.8715,27.4129],[76.0079,27.4165],[76.0791,27.2913],[76.1248,27.2554],[76.198,27.3609],[76.2381,27.5064],[76.2031,27.5909]]]},"properties":{"AC_NO":41,"AC_NAME":"Viratnagar","district":"KOTPUTLI-BEHROR","PC_NO":6,"PC_NAME":"JAIPUR RURAL"}},
{"type":"Feature","geometry":{"type":"Polygon","coordinates":[[[76.9782,27.6503],[76.946,27.586],[77.0484,27.55],[77.0185,27.4509],[76.9004,27.4618],[77.153,27.3492],[77.2085,27.3544],[77.314,27.4575],[77.3389,27.5499],[77.3178,27.6059],[77.1847,27.5382],[76.9782,27.6503]]]},"properties":{"AC_NO":71,"AC_NAME":"Nagar","district":"DEEG","PC_NO":9,"PC_NAME":"BHARATPUR (SC)"}},
{"type":"Feature","geometry":{"type":"Polygon","coordinates":[[[76.5595,27.613],[76.5785,27.5498],[76.6296,27.608],[76.5595,27.613]]]},"properties":{"AC_NO":66,"AC_NAME":"Alwar Urban","district":"ALWAR","PC_NO":9,"PC_NAME":"BHARATPUR (SC)"}},
{"type":"Feature","geometry":{"type":"Polygon","coordinates":[[[74.8709,27.3288],[74.6485,27.3997],[74.6068,27.4501],[74.4878,27.4816],[74.3896,27.4389],[74.3332,27.274],[74.3559,27.0819],[74.3703,27.0665],[74.4049,27.1286],[74.5723,27.1671],[74.7134,27.2457],[74.7615,27.1815],[74.8294,27.2461],[74.8771,27.3206],[74.8709,27.3288]]]},"properties":{"AC_NO":107,"AC_NAME":"Deedwana","district":"DIDWANA-KUCHAMAN","PC_NO":14,"PC_NAME":"NAGAUR"}},
{"type":"Feature","geometry":{"type":"Polygon","coordinates":[[[77.3389,27.5499],[77.314,27.4575],[77.2085,27.3544],[77.2009,27.3308],[77.3251,27.1874],[77.4048,27.2115],[77.453,27.2732],[77.5157,27.2608],[77.6028,27.2922],[77.5073,27.3767],[77.4395,27.3909],[77.4381,27.456],[77.3389,27.5499]]]},"properties":{"AC_NO":72,"AC_NAME":"Deeg-Kumher","district":"DEEG","PC_NO":9,"PC_NAME":"BHARATPUR (SC)"}},
{"type":"Feature","geometry":{"type":"Polygon","coordinates":[[[76.3962,27.4388],[76.2381,27.5064],[76.198,27.3609],[76.1248,27.2554],[76.1803,27.1421],[76.2832,27.1493],[76.282,27.0635],[76.3749,27.0754],[76.4555,27.0756],[76.6471,27.1636],[76.5987,27.3067],[76.5047,27.3363],[76.4134,27.321],[76.3962,27.4388]]]},"properties":{"AC_NO":64,"AC_NAME":"Thanagazi","district":"ALWAR","PC_NO":11,"PC_NAME":"DAUSA (ST)"}},
{"type":"Feature","geometry":{"type":"Polygon","coordinates":[[[72.0993,26.8906],[72.0549,26.8038],[72.0834,26.7369],[72.0386,26.6817],[72.0849,26.6234],[72.1338,26.6308],[72.2306,26.5558],[72.329,26.5656],[72.375,26.6069],[72.3469,26.6893],[72.406,26.8035],[72.5325,26.8306],[72.5899,26.9073],[72.6725,26.9017],[72.7671,26.7842],[72.8539,26.7118],[72.941,26.8441],[72.9777,26.8288],[73.0921,26.8984],[73.1206,26.9454],[73.1382,27.0502],[73.0894,27.2426],[72.9623,27.1974],[72.9369,27.1373],[72.8554,27.077],[72.8044,27.1442],[72.8425,27.2356],[72.7735,27.3206],[72.6699,27.2843],[72.5669,27.156],[72.5812,27.0465],[72.5253,26.9621],[72.324,26.8896],[72.0993,26.8906]]]},"properties":{"AC_NO":123,"AC_NAME":"Lohawat","district":"PHALODI","PC_NO":16,"PC_NAME":"JODHPUR"}},
{"type":"Feature","geometry":{"type":"Polygon","coordinates":[[[73.4021,27.287],[73.3386,27.2398],[73.2582,27.26],[73.2195,27.3351],[73.1341,27.3096],[73.0894,27.2426],[73.1382,27.0502],[73.1206,26.9454],[73.1837,26.8831],[73.2866,26.8727],[73.4984,26.8876],[73.6571,26.8068],[73.6729,26.6761],[73.7008,26.6511],[73.878,26.6719],[73.9195,26.832],[73.8861,26.889],[73.9432,26.9382],[74.041,26.9525],[74.0132,27.0111],[73.9366,27.0215],[73.8099,26.9746],[73.64,27.1316],[73.6089,27.0187],[73.4947,27.0256],[73.5405,27.1025],[73.4733,27.2769],[73.4021,27.287]]]},"properties":{"AC_NO":110,"AC_NAME":"Khinwsar","district":"NAGAUR","PC_NO":14,"PC_NAME":"NAGAUR"}},
{"type":"Feature","geometry":{"type":"Polygon","coordinates":[[[76.8863,27.4214],[76.8682,27.2297],[76.8956,27.1608],[76.9604,27.1441],[76.9672,27.1827],[77.0972,27.1677],[77.0762,27.2332],[77.1467,27.3203],[77.2009,27.3308],[77.2085,27.3544],[77.153,27.3492],[76.9004,27.4618],[76.8863,27.4214]]]},"properties":{"AC_NO":69,"AC_NAME":"Kathumar (SC)","district":"ALWAR","PC_NO":9,"PC_NAME":"BHARATPUR (SC)"}},
{"type":"Feature","geometry":{"type":"Polygon","coordinates":[[[75.8715,27.4129],[75.6663,27.3482],[75.6937,27.2827],[75.783,27.2317],[75.8723,27.2746],[75.9985,27.2951],[76.0791,27.2913],[76.0079,27.4165],[75.8715,27.4129]]]},"properties":{"AC_NO":42,"AC_NAME":"Shahpura","district":"JAIPUR(GRAMIN)","PC_NO":6,"PC_NAME":"JAIPUR RURAL"}},
{"type":"Feature","geometry":{"type":"Polygon","coordinates":[[[75.0994,27.3813],[74.8771,27.3206],[74.8294,27.2461],[74.8949,27.1415],[74.959,27.1452],[75.0284,27.0563],[74.9137,27.0411],[74.898,26.9769],[74.9808,26.9436],[74.9758,26.8908],[75.0107,26.9461],[75.1621,26.9328],[75.2011,26.9749],[75.2189,27.0803],[75.3312,27.0919],[75.316,27.1438],[75.197,27.1261],[75.1118,27.2171],[75.1649,27.3049],[75.0994,27.3813]]]},"properties":{"AC_NO":115,"AC_NAME":"Nawan","district":"DIDWANA-KUCHAMAN","PC_NO":14,"PC_NAME":"NAGAUR"}},
{"type":"Feature","geometry":{"type":"Polygon","coordinates":[[[76.5987,27.3067],[76.6471,27.1636],[76.6221,27.1076],[76.7492,27.107],[76.8019,27.1042],[76.8682,27.2297],[76.8863,27.4214],[76.7459,27.4288],[76.5987,27.3067]]]},"properties":{"AC_NO":68,"AC_NAME":"Rajgarh-Laxmangarh (ST)","district":"ALWAR","PC_NO":9,"PC_NAME":"BHARATPUR (SC)"}},
{"type":"Feature","geometry":{"type":"Polygon","coordinates":[[[75.6231,27.3215],[75.5276,27.3359],[75.4974,27.3001],[75.5213,27.152],[75.5821,27.1879],[75.8228,27.1522],[75.8768,27.1915],[75.8723,27.2746],[75.783,27.2317],[75.6937,27.2827],[75.6663,27.3482],[75.6231,27.3215]]]},"properties":{"AC_NO":43,"AC_NAME":"Chomu","district":"JAIPUR(GRAMIN)","PC_NO":5,"PC_NAME":"SIKAR"}},
{"type":"Feature","geometry":{"type":"Polygon","coordinates":[[[75.4974,27.3001],[75.4482,27.2901],[75.3215,27.2069],[75.316,27.1438],[75.3312,27.0919],[75.2189,27.0803],[75.2011,26.9749],[75.1621,26.9328],[75.0107,26.9461],[74.9758,26.8908],[74.9348,26.8425],[75.1306,26.8078],[75.174,26.7388],[75.3111,26.7797],[75.3685,26.8783],[75.3259,26.914],[75.3399,27.0142],[75.5147,27.1279],[75.5213,27.152],[75.4974,27.3001]]]},"properties":{"AC_NO":44,"AC_NAME":"Phulera","district":"JAIPUR(GRAMIN)","PC_NO":6,"PC_NAME":"JAIPUR RURAL"}},
{"type":"Feature","geometry":{"type":"Polygon","coordinates":[[[74.3703,27.0665],[74.3677,26.9714],[74.422,26.8411],[74.5078,26.8864],[74.6239,26.9005],[74.6954,26.9439],[74.7002,27.0052],[74.7757,27.0262],[74.8264,27.0834],[74.7615,27.1815],[74.7134,27.2457],[74.5723,27.1671],[74.4049,27.1286],[74.3703,27.0665]]]},"properties":{"AC_NO":113,"AC_NAME":"Makrana","district":"DIDWANA-KUCHAMAN","PC_NO":14,"PC_NAME":"NAGAUR"}},
{"type":"Feature","geometry":{"type":"Polygon","coordinates":[[[75.8723,27.2746],[75.8768,27.1915],[75.8228,27.1522],[75.5821,27.1879],[75.5213,27.152],[75.5147,27.1279],[75.5529,27.015],[75.7098,27.0362],[75.7606,27.001],[75.8172,26.9796],[75.8433,26.9766],[75.9256,26.9635],[75.9729,27.0494],[75.9985,27.2951],[75.8723,27.2746]]]},"properties":{"AC_NO":47,"AC_NAME":"Amber","district":"JAIPUR(GRAMIN)","PC_NO":6,"PC_NAME":"JAIPUR RURAL"}},
{"type":"Feature","geometry":{"type":"Polygon","coordinates":[[[76.1248,27.2554],[76.0791,27.2913],[75.9985,27.2951],[75.9729,27.0494],[75.9256,26.9635],[75.9427,26.9513],[76.0334,26.9343],[76.141,26.8774],[76.175,26.9756],[76.2291,27.0007],[76.282,27.0635],[76.2832,27.1493],[76.1803,27.1421],[76.1248,27.2554]]]},"properties":{"AC_NO":48,"AC_NAME":"Jamwa Ramgarh (ST)","district":"JAIPUR(GRAMIN)","PC_NO":6,"PC_NAME":"JAIPUR RURAL"}},
{"type":"Feature","geometry":{"type":"Polygon","coordinates":[[[74.7615,27.1815],[74.8264,27.0834],[74.7757,27.0262],[74.7002,27.0052],[74.6954,26.9439],[74.6239,26.9005],[74.5078,26.8864],[74.422,26.8411],[74.461,26.7548],[74.5242,26.7348],[74.5291,26.5502],[74.5887,26.6286],[74.6712,26.5953],[74.722,26.7001],[74.7118,26.7758],[74.7759,26.79],[74.8537,26.9786],[74.898,26.9769],[74.9137,27.0411],[75.0284,27.0563],[74.959,27.1452],[74.8949,27.1415],[74.8294,27.2461],[74.7615,27.1815]]]},"properties":{"AC_NO":114,"AC_NAME":"Parbatsar","district":"DIDWANA-KUCHAMAN","PC_NO":14,"PC_NAME":"NAGAUR"}},
{"type":"Feature","geometry":{"type":"Polygon","coordinates":[[[77.5157,27.2608],[77.453,27.2732],[77.4048,27.2115],[77.3251,27.1874],[77.2009,27.3308],[77.1467,27.3203],[77.0762,27.2332],[77.0972,27.1677],[77.2523,27.1167],[77.3426,27.0321],[77.4449,27.0116],[77.5644,27.0333],[77.5502,27.1105],[77.6186,27.1725],[77.4602,27.1998],[77.5157,27.2608]]]},"properties":{"AC_NO":74,"AC_NAME":"Nadbai","district":"BHARATPUR","PC_NO":9,"PC_NAME":"BHARATPUR (SC)"}},
{"type":"Feature","geometry":{"type":"Polygon","coordinates":[[[77.6028,27.2922],[77.5157,27.2608],[77.4602,27.1998],[77.6186,27.1725],[77.681,27.1941],[77.6028,27.2922]]]},"properties":{"AC_NO":73,"AC_NAME":"Bharatpur","district":"BHARATPUR","PC_NO":9,"PC_NAME":"BHARATPUR (SC)"}},
{"type":"Feature","geometry":{"type":"MultiPolygon","coordinates":[[[[75.8433,26.9766],[75.8663,26.9409],[75.878,26.9299],[75.9473,26.894],[75.9427,26.9513],[75.9256,26.9635],[75.8433,26.9766]]],[[[75.3685,26.8783],[75.391,26.9208],[75.5103,26.881],[75.7479,26.89],[75.7718,26.9368],[75.7721,26.9574],[75.7606,27.001],[75.7098,27.0362],[75.5529,27.015],[75.5147,27.1279],[75.3399,27.0142],[75.3259,26.914],[75.3685,26.8783]]]]},"properties":{"AC_NO":46,"AC_NAME":"Jhotwara","district":"JAIPUR(GRAMIN)","PC_NO":6,"PC_NAME":"JAIPUR RURAL"}},
{"type":"Feature","geometry":{"type":"Polygon","coordinates":[[[76.9604,27.1441],[76.8956,27.1608],[76.8682,27.2297],[76.8019,27.1042],[76.7492,27.107],[76.7445,26.9783],[76.7958,26.9728],[76.8998,26.9433],[76.946,26.8603],[76.9637,26.8149],[77.0749,26.8603],[77.029,26.924],[76.9604,27.1441]]]},"properties":{"AC_NO":86,"AC_NAME":"Mahuwa","district":"DAUSA","PC_NO":11,"PC_NAME":"DAUSA (ST)"}},
{"type":"Feature","geometry":{"type":"Polygon","coordinates":[[[74.3559,27.0819],[74.2902,27.0846],[74.0853,26.9551],[74.041,26.9525],[73.9432,26.9382],[73.8861,26.889],[73.9195,26.832],[73.9973,26.8042],[74.0793,26.8284],[74.1466,26.7754],[74.1662,26.7115],[74.2741,26.6023],[74.3159,26.4564],[74.3987,26.4868],[74.4648,26.4875],[74.5291,26.5502],[74.5242,26.7348],[74.461,26.7548],[74.422,26.8411],[74.3677,26.9714],[74.3703,27.0665],[74.3559,27.0819]]]},"properties":{"AC_NO":112,"AC_NAME":"Degana","district":"NAGAUR","PC_NO":22,"PC_NAME":"RAJSAMAND"}},
{"type":"Feature","geometry":{"type":"Polygon","coordinates":[[[76.6471,27.1636],[76.4555,27.0756],[76.3749,27.0754],[76.439,27.0417],[76.4776,26.9597],[76.5566,26.944],[76.7445,26.9783],[76.7492,27.107],[76.6221,27.1076],[76.6471,27.1636]]]},"properties":{"AC_NO":85,"AC_NAME":"Bandikui","district":"DAUSA","PC_NO":11,"PC_NAME":"DAUSA (ST)"}},
{"type":"Feature","geometry":{"type":"Polygon","coordinates":[[[77.0972,27.1677],[76.9672,27.1827],[76.9604,27.1441],[77.029,26.924],[77.0749,26.8603],[77.1723,26.8235],[77.2301,26.8843],[77.2393,27.0013],[77.3426,27.0321],[77.2523,27.1167],[77.0972,27.1677]]]},"properties":{"AC_NO":75,"AC_NAME":"Weir (SC)","district":"BHARATPUR","PC_NO":9,"PC_NAME":"BHARATPUR (SC)"}},
{"type":"Feature","geometry":{"type":"Polygon","coordinates":[[[73.1206,26.9454],[73.0921,26.8984],[72.9777,26.8288],[72.941,26.8441],[72.8539,26.7118],[72.7671,26.7842],[72.6725,26.9017],[72.5899,26.9073],[72.5325,26.8306],[72.6276,26.7913],[72.6178,26.7111],[72.7054,26.5633],[72.7666,26.3973],[72.9058,26.4648],[73.0219,26.4443],[73.1391,26.4593],[73.1613,26.5194],[73.1263,26.5857],[73.1845,26.6678],[73.2426,26.6947],[73.2867,26.7972],[73.2866,26.8727],[73.1837,26.8831],[73.1206,26.9454]]]},"properties":{"AC_NO":125,"AC_NAME":"Osian","district":"JODHPUR GRAMIN","PC_NO":15,"PC_NAME":"PALI"}},
{"type":"Feature","geometry":{"type":"Polygon","coordinates":[[[76.3749,27.0754],[76.282,27.0635],[76.2291,27.0007],[76.2189,26.9073],[76.2552,26.803],[76.1805,26.7561],[76.3264,26.7706],[76.4191,26.6993],[76.4659,26.7009],[76.4774,26.716],[76.3778,26.8197],[76.3946,26.9151],[76.4776,26.9597],[76.439,27.0417],[76.3749,27.0754]]]},"properties":{"AC_NO":88,"AC_NAME":"Dausa","district":"DAUSA","PC_NO":11,"PC_NAME":"DAUSA (ST)"}},
{"type":"Feature","geometry":{"type":"Polygon","coordinates":[[[74.9758,26.8908],[74.9808,26.9436],[74.898,26.9769],[74.8537,26.9786],[74.7759,26.79],[74.7118,26.7758],[74.722,26.7001],[74.6712,26.5953],[74.5887,26.6286],[74.5291,26.5502],[74.4648,26.4875],[74.3987,26.4868],[74.5221,26.3948],[74.5537,26.3228],[74.67,26.3047],[74.738,26.3452],[74.7282,26.4467],[74.8144,26.4902],[74.7969,26.634],[74.9192,26.8283],[74.9348,26.8425],[74.9758,26.8908]],[[74.6948,26.4517],[74.6888,26.3897],[74.6474,26.341],[74.5939,26.36],[74.6174,26.4178],[74.5825,26.4729],[74.637,26.5042],[74.6948,26.4517]]]},"properties":{"AC_NO":99,"AC_NAME":"Pushkar","district":"AJMER","PC_NO":13,"PC_NAME":"AJMER"}},
{"type":"Feature","geometry":{"type":"Polygon","coordinates":[[[75.8172,26.9796],[75.7606,27.001],[75.7721,26.9574],[75.8116,26.9676],[75.8172,26.9796]]]},"properties":{"AC_NO":50,"AC_NAME":"Vidhyadhar Nagar","district":"JAIPUR","PC_NO":7,"PC_NAME":"JAIPUR"}},
{"type":"Feature","geometry":{"type":"Polygon","coordinates":[[[73.6729,26.6761],[73.6571,26.8068],[73.4984,26.8876],[73.2866,26.8727],[73.2867,26.7972],[73.2426,26.6947],[73.1845,26.6678],[73.1263,26.5857],[73.1613,26.5194],[73.1391,26.4593],[73.0923,26.3977],[73.1573,26.3605],[73.2019,26.2991],[73.2518,26.3514],[73.3693,26.3061],[73.4923,26.4397],[73.6033,26.4323],[73.6677,26.4736],[73.7961,26.5035],[73.7209,26.539],[73.6729,26.6761]]]},"properties":{"AC_NO":126,"AC_NAME":"Bhopalgarh(SC)","district":"JODHPUR GRAMIN","PC_NO":15,"PC_NAME":"PALI"}},
{"type":"Feature","geometry":{"type":"Polygon","coordinates":[[[72.0849,26.6234],[72.0281,26.5],[72.0773,26.4525],[72.0715,26.3504],[72.2684,26.1984],[72.3413,26.2446],[72.406,26.2364],[72.4713,26.3032],[72.5951,26.2791],[72.6844,26.1877],[72.7666,26.3973],[72.7054,26.5633],[72.6178,26.7111],[72.6276,26.7913],[72.5325,26.8306],[72.406,26.8035],[72.3469,26.6893],[72.375,26.6069],[72.329,26.5656],[72.2306,26.5558],[72.1338,26.6308],[72.0849,26.6234]]]},"properties":{"AC_NO":124,"AC_NAME":"Shergarh","district":"JODHPUR GRAMIN","PC_NO":16,"PC_NAME":"JODHPUR"}},
{"type":"Feature","geometry":{"type":"Polygon","coordinates":[[[75.9427,26.9513],[75.9473,26.894],[75.9376,26.7703],[75.9585,26.7335],[76.1629,26.6481],[76.1805,26.7561],[76.2552,26.803],[76.2189,26.9073],[76.2291,27.0007],[76.175,26.9756],[76.141,26.8774],[76.0334,26.9343],[75.9427,26.9513]]]},"properties":{"AC_NO":57,"AC_NAME":"Bassi (ST)","district":"JAIPUR(GRAMIN)","PC_NO":11,"PC_NAME":"DAUSA (ST)"}},
{"type":"Feature","geometry":{"type":"Polygon","coordinates":[[[77.5644,27.0333],[77.4449,27.0116],[77.3426,27.0321],[77.2393,27.0013],[77.2301,26.8843],[77.1723,26.8235],[77.217,26.7868],[77.293,26.7803],[77.346,26.7125],[77.4549,26.742],[77.4224,26.8403],[77.4603,26.8855],[77.5832,26.9242],[77.712,26.9971],[77.5644,27.0333]]]},"properties":{"AC_NO":76,"AC_NAME":"Bayana (SC)","district":"BHARATPUR","PC_NO":9,"PC_NAME":"BHARATPUR (SC)"}},
{"type":"Feature","geometry":{"type":"Polygon","coordinates":[[[76.7445,26.9783],[76.5566,26.944],[76.4776,26.9597],[76.3946,26.9151],[76.3778,26.8197],[76.4774,26.716],[76.5367,26.782],[76.6053,26.778],[76.7751,26.8941],[76.7958,26.9728],[76.7445,26.9783]]]},"properties":{"AC_NO":87,"AC_NAME":"Sikrai (SC)","district":"DAUSA","PC_NO":11,"PC_NAME":"DAUSA (ST)"}},
{"type":"Feature","geometry":{"type":"Polygon","coordinates":[[[75.3685,26.8783],[75.3111,26.7797],[75.174,26.7388],[75.1306,26.8078],[74.9348,26.8425],[74.9192,26.8283],[74.9779,26.6751],[75.0654,26.6542],[75.0648,26.577],[75.1225,26.546],[75.1688,26.4627],[75.2031,26.5169],[75.3292,26.5607],[75.3491,26.4971],[75.455,26.4958],[75.5694,26.4486],[75.6495,26.4498],[75.6517,26.4594],[75.6157,26.5213],[75.6328,26.5842],[75.582,26.761],[75.4904,26.7703],[75.5103,26.881],[75.391,26.9208],[75.3685,26.8783]]]},"properties":{"AC_NO":45,"AC_NAME":"Dudu (SC)","district":"DUDU","PC_NO":13,"PC_NAME":"AJMER"}},
{"type":"Feature","geometry":{"type":"Polygon","coordinates":[[[76.946,26.8603],[76.8998,26.9433],[76.7958,26.9728],[76.7751,26.8941],[76.6053,26.778],[76.5367,26.782],[76.4774,26.716],[76.4659,26.7009],[76.4632,26.67],[76.5637,26.6104],[76.6192,26.6143],[76.6978,26.5447],[76.7369,26.5325],[76.8604,26.6014],[76.9404,26.7309],[76.946,26.8603]]]},"properties":{"AC_NO":81,"AC_NAME":"Todabhim(ST)","district":"GANGAPURCITY","PC_NO":10,"PC_NAME":"KARAULI ?DHOLPUR(SC)"}},
{"type":"Feature","geometry":{"type":"Polygon","coordinates":[[[73.6729,26.6761],[73.7209,26.539],[73.7961,26.5035],[73.8711,26.4289],[74.1023,26.416],[74.2915,26.4467],[74.3159,26.4564],[74.2741,26.6023],[74.1662,26.7115],[74.1466,26.7754],[74.0793,26.8284],[73.9973,26.8042],[73.9195,26.832],[73.878,26.6719],[73.7008,26.6511],[73.6729,26.6761]]]},"properties":{"AC_NO":111,"AC_NAME":"Merta (SC)","district":"NAGAUR","PC_NO":22,"PC_NAME":"RAJSAMAND"}},
{"type":"Feature","geometry":{"type":"Polygon","coordinates":[[[75.9473,26.894],[75.878,26.9299],[75.8309,26.9296],[75.7986,26.9114],[75.7479,26.89],[75.5103,26.881],[75.4904,26.7703],[75.582,26.761],[75.8032,26.6743],[75.9376,26.7703],[75.9473,26.894]]]},"properties":{"AC_NO":56,"AC_NAME":"Bagru (SC)","district":"JAIPUR","PC_NO":7,"PC_NAME":"JAIPUR"}},
{"type":"Feature","geometry":{"type":"Polygon","coordinates":[[[78.002,26.6947],[78.0957,26.6803],[78.1064,26.7903],[78.223,26.8307],[78.2717,26.9214],[78.1251,26.9493],[78.0479,26.9092],[77.8923,26.8877],[77.8528,26.8026],[78.002,26.6947]]]},"properties":{"AC_NO":80,"AC_NAME":"Rajakhera","district":"DHAULPUR","PC_NO":10,"PC_NAME":"KARAULI ?DHOLPUR(SC)"}},
{"type":"Feature","geometry":{"type":"Polygon","coordinates":[[[77.5363,26.4112],[77.8328,26.5997],[77.7455,26.6493],[77.7652,26.7739],[77.8788,26.9007],[77.7595,26.9327],[77.675,26.8577],[77.6854,26.7808],[77.5151,26.7024],[77.5721,26.5705],[77.5363,26.4112]]]},"properties":{"AC_NO":78,"AC_NAME":"Bari","district":"DHAULPUR","PC_NO":10,"PC_NAME":"KARAULI ?DHOLPUR(SC)"}},
{"type":"Feature","geometry":{"type":"Polygon","coordinates":[[[74.9192,26.8283],[74.7969,26.634],[74.8144,26.4902],[74.9389,26.3915],[74.9065,26.3315],[74.9574,26.2503],[74.8715,26.2297],[75.0613,26.1595],[75.1575,26.1816],[75.1125,26.2881],[75.1319,26.4092],[75.1688,26.4627],[75.1225,26.546],[75.0648,26.577],[75.0654,26.6542],[74.9779,26.6751],[74.9192,26.8283]]]},"properties":{"AC_NO":98,"AC_NAME":"Kishangarh","district":"AJMER","PC_NO":13,"PC_NAME":"AJMER"}},
{"type":"Feature","geometry":{"type":"Polygon","coordinates":[[[77.8328,26.5997],[77.9011,26.6572],[78.002,26.6947],[77.8528,26.8026],[77.8923,26.8877],[77.8788,26.9007],[77.7652,26.7739],[77.7455,26.6493],[77.8328,26.5997]]]},"properties":{"AC_NO":79,"AC_NAME":"Dholpur","district":"DHAULPUR","PC_NO":10,"PC_NAME":"KARAULI ?DHOLPUR(SC)"}},
{"type":"Feature","geometry":{"type":"Polygon","coordinates":[[[77.0749,26.8603],[76.9637,26.8149],[76.946,26.8603],[76.9404,26.7309],[76.8604,26.6014],[76.8861,26.5792],[77.0113,26.7249],[77.114,26.7365],[77.1015,26.8009],[77.217,26.7868],[77.1723,26.8235],[77.0749,26.8603]]]},"properties":{"AC_NO":82,"AC_NAME":"Hindaun (SC)","district":"KARAULI","PC_NO":10,"PC_NAME":"KARAULI ?DHOLPUR(SC)"}},
{"type":"Feature","geometry":{"type":"Polygon","coordinates":[[[77.376,26.3653],[77.5363,26.4112],[77.5721,26.5705],[77.5151,26.7024],[77.6854,26.7808],[77.675,26.8577],[77.5006,26.8163],[77.4549,26.742],[77.346,26.7125],[77.394,26.6339],[77.2556,26.5549],[77.2392,26.4978],[77.2615,26.4281],[77.3315,26.432],[77.376,26.3653]]]},"properties":{"AC_NO":77,"AC_NAME":"Baseri (SC)","district":"DHAULPUR","PC_NO":10,"PC_NAME":"KARAULI ?DHOLPUR(SC)"}},
{"type":"Feature","geometry":{"type":"Polygon","coordinates":[[[77.346,26.7125],[77.293,26.7803],[77.217,26.7868],[77.1015,26.8009],[77.114,26.7365],[77.0113,26.7249],[76.8861,26.5792],[76.9425,26.4928],[76.9824,26.3474],[77.1142,26.4188],[77.1518,26.4895],[77.2392,26.4978],[77.2556,26.5549],[77.394,26.6339],[77.346,26.7125]]]},"properties":{"AC_NO":83,"AC_NAME":"Karauli","district":"KARAULI","PC_NO":10,"PC_NAME":"KARAULI ?DHOLPUR(SC)"}},
{"type":"Feature","geometry":{"type":"Polygon","coordinates":[[[76.1629,26.6481],[75.9585,26.7335],[75.9376,26.7703],[75.8032,26.6743],[75.582,26.761],[75.6328,26.5842],[75.6157,26.5213],[75.6517,26.4594],[75.7686,26.4665],[75.76,26.5176],[76.009,26.5003],[76.1001,26.5387],[76.1495,26.5187],[76.1629,26.6481]]]},"properties":{"AC_NO":58,"AC_NAME":"Chaksu (SC)","district":"JAIPUR(GRAMIN)","PC_NO":11,"PC_NAME":"DAUSA (ST)"}},
{"type":"Feature","geometry":{"type":"Polygon","coordinates":[[[76.4659,26.7009],[76.4191,26.6993],[76.3264,26.7706],[76.1805,26.7561],[76.1629,26.6481],[76.1495,26.5187],[76.1714,26.4861],[76.2458,26.4412],[76.3232,26.4561],[76.4119,26.4156],[76.4792,26.5002],[76.4015,26.5561],[76.4632,26.67],[76.4659,26.7009]]]},"properties":{"AC_NO":89,"AC_NAME":"Lalsot (ST)","district":"DAUSA","PC_NO":11,"PC_NAME":"DAUSA (ST)"}},
{"type":"Feature","geometry":{"type":"Polygon","coordinates":[[[71.4472,26.513],[71.3275,26.4206],[71.2373,26.4557],[71.1403,26.3078],[71.0136,26.2797],[71.0502,26.1388],[70.9601,26.0946],[70.7495,26.1465],[70.6561,26.197],[70.4311,26.175],[70.3624,26.1427],[70.1412,26.1558],[70.0834,26.0832],[70.0995,25.9383],[70.2684,25.7135],[70.3868,25.674],[70.5299,25.683],[70.6088,25.7148],[70.6743,25.6756],[70.6647,25.3966],[70.7369,25.332],[70.7846,25.2456],[70.8593,25.3178],[71.044,25.4388],[71.0775,25.56],[71.1978,25.6179],[71.2226,25.8144],[71.1481,25.8155],[71.0092,25.9482],[71.1011,26.0307],[71.2794,25.9933],[71.4756,26.0791],[71.6677,26.2736],[71.7595,26.3479],[71.6232,26.4165],[71.5741,26.5056],[71.4883,26.4574],[71.4472,26.513]]]},"properties":{"AC_NO":134,"AC_NAME":"Sheo","district":"BARMER","PC_NO":17,"PC_NAME":"BARMER"}},
{"type":"Feature","geometry":{"type":"Polygon","coordinates":[[[76.4632,26.67],[76.4015,26.5561],[76.4792,26.5002],[76.4119,26.4156],[76.3232,26.4561],[76.2458,26.4412],[76.1714,26.4861],[76.1008,26.2405],[76.158,26.185],[76.2767,26.191],[76.3629,26.2664],[76.4148,26.3709],[76.5257,26.3069],[76.5613,26.2328],[76.6235,26.251],[76.6368,26.2726],[76.6132,26.3122],[76.6527,26.4619],[76.6978,26.5447],[76.6192,26.6143],[76.5637,26.6104],[76.4632,26.67]]]},"properties":{"AC_NO":91,"AC_NAME":"Bamanwas(ST)","district":"SAWAI MADHOPUR","PC_NO":12,"PC_NAME":"TONK ? SAWAI MADHOPUR"}},
{"type":"Feature","geometry":{"type":"Polygon","coordinates":[[[72.7666,26.3973],[72.6844,26.1877],[72.6939,26.0375],[72.632,25.9586],[72.8347,25.8633],[72.9586,25.9004],[73.0492,26.011],[73.1626,26.0315],[73.2438,26.0741],[73.151,26.2292],[73.2019,26.2991],[73.1573,26.3605],[73.0923,26.3977],[73.1391,26.4593],[73.0219,26.4443],[72.9058,26.4648],[72.7666,26.3973]],[[73.0563,26.3723],[73.0877,26.3489],[73.0886,26.2373],[73.032,26.2068],[72.9567,26.264],[73.0563,26.3723]]]},"properties":{"AC_NO":130,"AC_NAME":"Luni","district":"JODHPUR GRAMIN","PC_NO":16,"PC_NAME":"JODHPUR"}},
{"type":"Feature","geometry":{"type":"Polygon","coordinates":[[[73.2019,26.2991],[73.151,26.2292],[73.2438,26.0741],[73.3203,26.0106],[73.3411,26.1154],[73.4021,26.1603],[73.4638,26.0837],[73.5585,26.103],[73.6478,26.0796],[73.8068,26.1033],[73.7839,26.1481],[73.8113,26.3558],[73.8711,26.4289],[73.7961,26.5035],[73.6677,26.4736],[73.6033,26.4323],[73.4923,26.4397],[73.3693,26.3061],[73.2518,26.3514],[73.2019,26.2991]]]},"properties":{"AC_NO":131,"AC_NAME":"Bilara (SC)","district":"JODHPUR GRAMIN","PC_NO":15,"PC_NAME":"PALI"}},
{"type":"Feature","geometry":{"type":"Polygon","coordinates":[[[75.6495,26.4498],[75.5694,26.4486],[75.455,26.4958],[75.3491,26.4971],[75.3292,26.5607],[75.2031,26.5169],[75.1688,26.4627],[75.1319,26.4092],[75.1125,26.2881],[75.1575,26.1816],[75.1813,26.117],[75.3069,26.0838],[75.3453,26.0244],[75.4266,25.9922],[75.5304,26.0602],[75.5671,26.1626],[75.6259,26.2148],[75.6088,26.3182],[75.6495,26.4498]]]},"properties":{"AC_NO":94,"AC_NAME":"Malpura","district":"TONK","PC_NO":12,"PC_NAME":"TONK ? SAWAI MADHOPUR"}},
{"type":"Feature","geometry":{"type":"Polygon","coordinates":[[[72.0715,26.3504],[71.893,26.2979],[71.883,26.3391],[71.7595,26.3479],[71.6677,26.2736],[71.4756,26.0791],[71.4221,25.9247],[71.4909,25.9181],[71.562,25.8424],[71.7082,25.7604],[71.6845,25.6904],[71.7759,25.6376],[71.8479,25.6605],[71.8334,25.7404],[71.9484,25.8265],[71.8583,25.8897],[71.8547,25.9439],[72.0579,25.9929],[72.158,25.9102],[72.2674,25.9756],[72.3093,26.0396],[72.4091,26.0069],[72.4901,26.0418],[72.4775,26.1327],[72.406,26.2364],[72.3413,26.2446],[72.2684,26.1984],[72.0715,26.3504]]]},"properties":{"AC_NO":136,"AC_NAME":"Baytoo","district":"BALOTRA","PC_NO":17,"PC_NAME":"BARMER"}},
{"type":"Feature","geometry":{"type":"Polygon","coordinates":[[[74.6174,26.4178],[74.6948,26.4517],[74.637,26.5042],[74.5825,26.4729],[74.6174,26.4178]]]},"properties":{"AC_NO":100,"AC_NAME":"Ajmer North","district":"AJMER","PC_NO":13,"PC_NAME":"AJMER"}},
{"type":"Feature","geometry":{"type":"Polygon","coordinates":[[[74.3987,26.4868],[74.3159,26.4564],[74.2915,26.4467],[74.3032,26.2503],[74.3738,26.2064],[74.4356,26.2307],[74.5053,26.183],[74.5887,26.2335],[74.6658,26.1524],[74.7756,26.1957],[74.8715,26.2297],[74.9574,26.2503],[74.9065,26.3315],[74.9389,26.3915],[74.8144,26.4902],[74.7282,26.4467],[74.738,26.3452],[74.67,26.3047],[74.5537,26.3228],[74.5221,26.3948],[74.3987,26.4868]]]},"properties":{"AC_NO":102,"AC_NAME":"Nasirabad","district":"AJMER","PC_NO":13,"PC_NAME":"AJMER"}},
{"type":"Feature","geometry":{"type":"Polygon","coordinates":[[[75.6495,26.4498],[75.6088,26.3182],[75.6259,26.2148],[75.7152,26.1773],[75.8211,26.2315],[75.9032,26.306],[75.9812,26.1958],[76.0255,26.2501],[76.1008,26.2405],[76.1714,26.4861],[76.1495,26.5187],[76.1001,26.5387],[76.009,26.5003],[75.76,26.5176],[75.7686,26.4665],[75.6517,26.4594],[75.6495,26.4498]]]},"properties":{"AC_NO":95,"AC_NAME":"Niwai (SC)","district":"TONK","PC_NO":12,"PC_NAME":"TONK ? SAWAI MADHOPUR"}},
{"type":"Feature","geometry":{"type":"Polygon","coordinates":[[[74.2915,26.4467],[74.1023,26.416],[73.8711,26.4289],[73.8113,26.3558],[73.7839,26.1481],[73.8068,26.1033],[73.9883,26.1345],[74.1066,26.0975],[73.9756,25.9707],[74.0529,25.9252],[74.0012,25.8647],[74.055,25.8285],[74.1169,25.8652],[74.1265,25.9604],[74.3694,26.1948],[74.3738,26.2064],[74.3032,26.2503],[74.2915,26.4467]]]},"properties":{"AC_NO":116,"AC_NAME":"Jaitaran","district":"BEAWAR","PC_NO":22,"PC_NAME":"RAJSAMAND"}},
{"type":"Feature","geometry":{"type":"Polygon","coordinates":[[[73.0563,26.3723],[72.9567,26.264],[73.032,26.2068],[73.0396,26.286],[73.0563,26.3723]]]},"properties":{"AC_NO":129,"AC_NAME":"Soorsagar","district":"JODHPUR","PC_NO":16,"PC_NAME":"JODHPUR"}},
{"type":"Feature","geometry":{"type":"Polygon","coordinates":[[[73.0886,26.2373],[73.0877,26.3489],[73.0563,26.3723],[73.0396,26.286],[73.0886,26.2373]]]},"properties":{"AC_NO":127,"AC_NAME":"Sardarpura","district":"JODHPUR","PC_NO":16,"PC_NAME":"JODHPUR"}},
{"type":"Feature","geometry":{"type":"Polygon","coordinates":[[[74.6948,26.4517],[74.6174,26.4178],[74.5939,26.36],[74.6474,26.341],[74.6888,26.3897],[74.6948,26.4517]]]},"properties":{"AC_NO":101,"AC_NAME":"Ajmer South (SC)","district":"AJMER","PC_NO":13,"PC_NAME":"AJMER"}},
{"type":"Feature","geometry":{"type":"Polygon","coordinates":[[[76.6978,26.5447],[76.6527,26.4619],[76.6132,26.3122],[76.6368,26.2726],[76.7435,26.3202],[76.9425,26.4928],[76.8861,26.5792],[76.8604,26.6014],[76.7369,26.5325],[76.6978,26.5447]]]},"properties":{"AC_NO":90,"AC_NAME":"Gangapur","district":"KARAULI","PC_NO":12,"PC_NAME":"TONK ? SAWAI MADHOPUR"}},
{"type":"Feature","geometry":{"type":"Polygon","coordinates":[[[72.6844,26.1877],[72.5951,26.2791],[72.4713,26.3032],[72.406,26.2364],[72.4775,26.1327],[72.4901,26.0418],[72.4091,26.0069],[72.3093,26.0396],[72.2674,25.9756],[72.158,25.9102],[72.0579,25.9929],[71.8547,25.9439],[71.8583,25.8897],[71.9484,25.8265],[72.0121,25.7268],[72.1169,25.6827],[72.1575,25.6185],[72.2288,25.6505],[72.2222,25.7068],[72.3107,25.7228],[72.443,25.8515],[72.632,25.9586],[72.6939,26.0375],[72.6844,26.1877]]]},"properties":{"AC_NO":137,"AC_NAME":"Pachpadra","district":"BALOTRA","PC_NO":17,"PC_NAME":"BARMER"}},
{"type":"Feature","geometry":{"type":"Polygon","coordinates":[[[76.8525,26.0439],[76.9108,26.1073],[77.0971,26.1832],[77.1397,26.234],[77.2708,26.2672],[77.376,26.3653],[77.3315,26.432],[77.2615,26.4281],[77.2392,26.4978],[77.1518,26.4895],[77.1142,26.4188],[76.9824,26.3474],[76.9425,26.4928],[76.7435,26.3202],[76.6368,26.2726],[76.6235,26.251],[76.6248,26.187],[76.739,26.1559],[76.8525,26.0439]]]},"properties":{"AC_NO":84,"AC_NAME":"Sapotra (ST)","district":"KARAULI","PC_NO":10,"PC_NAME":"KARAULI ?DHOLPUR(SC)"}},
{"type":"Feature","geometry":{"type":"Polygon","coordinates":[[[73.032,26.2068],[73.0886,26.2373],[73.0396,26.286],[73.032,26.2068]]]},"properties":{"AC_NO":128,"AC_NAME":"Jodhpur","district":"JODHPUR GRAMIN","PC_NO":16,"PC_NAME":"JODHPUR"}},
{"type":"Feature","geometry":{"type":"Polygon","coordinates":[[[76.6235,26.251],[76.5613,26.2328],[76.5257,26.3069],[76.4148,26.3709],[76.3629,26.2664],[76.2767,26.191],[76.3022,26.0825],[76.3604,26.047],[76.3866,25.9109],[76.465,25.9415],[76.5372,26.0132],[76.513,26.0492],[76.6248,26.187],[76.6235,26.251]]]},"properties":{"AC_NO":92,"AC_NAME":"Sawai Madhopur","district":"SAWAI MADHOPUR","PC_NO":12,"PC_NAME":"TONK ? SAWAI MADHOPUR"}},
{"type":"Feature","geometry":{"type":"Polygon","coordinates":[[[71.1978,25.6179],[71.2641,25.6063],[71.3469,25.4991],[71.365,25.4148],[71.5066,25.4536],[71.586,25.5541],[71.6642,25.5509],[71.7282,25.6235],[71.7759,25.6376],[71.6845,25.6904],[71.7082,25.7604],[71.562,25.8424],[71.4909,25.9181],[71.4221,25.9247],[71.4756,26.0791],[71.2794,25.9933],[71.1011,26.0307],[71.0092,25.9482],[71.1481,25.8155],[71.2226,25.8144],[71.1978,25.6179]]]},"properties":{"AC_NO":135,"AC_NAME":"Barmer","district":"BARMER","PC_NO":17,"PC_NAME":"BARMER"}},
{"type":"Feature","geometry":{"type":"Polygon","coordinates":[[[75.6259,26.2148],[75.5671,26.1626],[75.5304,26.0602],[75.4266,25.9922],[75.486,25.9111],[75.5539,25.9888],[75.6562,26.0099],[75.7008,25.9622],[75.7849,25.9631],[75.908,26.0291],[75.995,26.1289],[75.9812,26.1958],[75.9032,26.306],[75.8211,26.2315],[75.7152,26.1773],[75.6259,26.2148]]]},"properties":{"AC_NO":96,"AC_NAME":"Tonk","district":"TONK","PC_NO":12,"PC_NAME":"TONK ? SAWAI MADHOPUR"}},
{"type":"Feature","geometry":{"type":"Polygon","coordinates":[[[74.7756,26.1957],[74.6658,26.1524],[74.5887,26.2335],[74.5053,26.183],[74.4356,26.2307],[74.3738,26.2064],[74.3694,26.1948],[74.4101,26.1298],[74.3505,26.0234],[74.3892,25.9637],[74.5431,25.8772],[74.7152,25.9211],[74.7797,25.8825],[74.9253,25.8774],[74.9865,25.8506],[74.9426,26.0251],[74.8571,26.106],[74.7851,26.1152],[74.7756,26.1957]]]},"properties":{"AC_NO":104,"AC_NAME":"Masuda","district":"BEAWAR","PC_NO":13,"PC_NAME":"AJMER"}},
{"type":"Feature","geometry":{"type":"Polygon","coordinates":[[[73.8068,26.1033],[73.6478,26.0796],[73.5585,26.103],[73.4638,26.0837],[73.4021,26.1603],[73.3411,26.1154],[73.3203,26.0106],[73.389,25.9301],[73.4787,25.8455],[73.5168,25.8791],[73.6886,25.8094],[73.7667,25.8824],[73.8144,25.8163],[73.9249,25.7898],[74.0012,25.8647],[74.0529,25.9252],[73.9756,25.9707],[74.1066,26.0975],[73.9883,26.1345],[73.8068,26.1033]]]},"properties":{"AC_NO":117,"AC_NAME":"Sojat (SC)","district":"PALI","PC_NO":15,"PC_NAME":"PALI"}},
{"type":"Feature","geometry":{"type":"Polygon","coordinates":[[[74.8715,26.2297],[74.7756,26.1957],[74.7851,26.1152],[74.8571,26.106],[74.9426,26.0251],[74.9865,25.8506],[75.1301,25.7047],[75.2508,25.6851],[75.3154,25.7663],[75.2645,25.8545],[75.2507,25.9407],[75.3453,26.0244],[75.3069,26.0838],[75.1813,26.117],[75.1575,26.1816],[75.0613,26.1595],[74.8715,26.2297]]]},"properties":{"AC_NO":105,"AC_NAME":"Kekri","district":"KEKRI","PC_NO":13,"PC_NAME":"AJMER"}},
{"type":"Feature","geometry":{"type":"MultiPolygon","coordinates":[[[[74.055,25.8285],[74.0012,25.8647],[73.9249,25.7898],[73.9093,25.6845],[73.951,25.6475],[74.055,25.8285]]],[[[74.1169,25.8652],[74.1838,25.8492],[74.1945,25.8539],[74.2557,25.8697],[74.2663,25.8735],[74.2921,25.9798],[74.3505,26.0234],[74.4101,26.1298],[74.3694,26.1948],[74.1265,25.9604],[74.1169,25.8652]]]]},"properties":{"AC_NO":103,"AC_NAME":"Beawar","district":"BEAWAR","PC_NO":22,"PC_NAME":"RAJSAMAND"}},
{"type":"Feature","geometry":{"type":"Polygon","coordinates":[[[76.5665,25.8489],[76.6414,25.908],[76.7117,25.8998],[76.7907,25.9431],[76.8525,26.0439],[76.739,26.1559],[76.6248,26.187],[76.513,26.0492],[76.5372,26.0132],[76.465,25.9415],[76.3866,25.9109],[76.3604,26.047],[76.3022,26.0825],[76.2767,26.191],[76.158,26.185],[76.1008,26.2405],[76.0255,26.2501],[75.9812,26.1958],[75.995,26.1289],[76.0881,26.1035],[76.0803,26.0284],[76.1312,25.9731],[76.2409,26.0217],[76.2103,25.861],[76.3118,25.8115],[76.3561,25.741],[76.4416,25.7742],[76.4734,25.8337],[76.5665,25.8489]]]},"properties":{"AC_NO":93,"AC_NAME":"Khandar (SC)","district":"SAWAI MADHOPUR","PC_NO":12,"PC_NAME":"TONK ? SAWAI MADHOPUR"}},
{"type":"Feature","geometry":{"type":"Polygon","coordinates":[[[73.2438,26.0741],[73.1626,26.0315],[73.0492,26.011],[72.9586,25.9004],[72.8347,25.8633],[72.7779,25.802],[72.8905,25.7364],[72.9356,25.636],[73.0343,25.5747],[73.0233,25.6605],[73.1248,25.7175],[73.1599,25.8141],[73.272,25.8129],[73.3347,25.766],[73.4159,25.7963],[73.389,25.9301],[73.3203,26.0106],[73.2438,26.0741]]]},"properties":{"AC_NO":118,"AC_NAME":"Pali","district":"PALI","PC_NO":15,"PC_NAME":"PALI"}},
{"type":"Feature","geometry":{"type":"Polygon","coordinates":[[[75.3453,26.0244],[75.2507,25.9407],[75.2645,25.8545],[75.3154,25.7663],[75.4152,25.7669],[75.4608,25.7207],[75.5077,25.7395],[75.616,25.6803],[75.6588,25.7493],[75.7419,25.7541],[75.7663,25.8204],[75.8501,25.8693],[75.9298,25.8355],[76.0078,25.8809],[76.0444,25.8129],[76.1492,25.7626],[76.3118,25.8115],[76.2103,25.861],[76.2409,26.0217],[76.1312,25.9731],[76.0803,26.0284],[76.0881,26.1035],[75.995,26.1289],[75.908,26.0291],[75.7849,25.9631],[75.7008,25.9622],[75.6562,26.0099],[75.5539,25.9888],[75.486,25.9111],[75.4266,25.9922],[75.3453,26.0244]]]},"properties":{"AC_NO":97,"AC_NAME":"Deoli-Uniara","district":"TONK","PC_NO":12,"PC_NAME":"TONK ? SAWAI MADHOPUR"}},
{"type":"Feature","geometry":{"type":"Polygon","coordinates":[[[72.8347,25.8633],[72.632,25.9586],[72.443,25.8515],[72.3107,25.7228],[72.2222,25.7068],[72.2288,25.6505],[72.1575,25.6185],[72.1169,25.6827],[72.0121,25.7268],[71.9484,25.8265],[71.8334,25.7404],[71.8479,25.6605],[71.7759,25.6376],[71.7282,25.6235],[71.8349,25.5079],[71.9167,25.5163],[72.0041,25.4463],[72.0559,25.4819],[72.1071,25.4199],[72.1617,25.4356],[72.3075,25.3833],[72.342,25.4464],[72.4215,25.439],[72.5591,25.5304],[72.5496,25.5645],[72.7168,25.6356],[72.7779,25.802],[72.8347,25.8633]]]},"properties":{"AC_NO":138,"AC_NAME":"Siwana","district":"BALOTRA","PC_NO":17,"PC_NAME":"BARMER"}},
{"type":"Feature","geometry":{"type":"Polygon","coordinates":[[[73.389,25.9301],[73.4159,25.7963],[73.3347,25.766],[73.272,25.8129],[73.1599,25.8141],[73.1248,25.7175],[73.0233,25.6605],[73.0343,25.5747],[73.0912,25.4671],[73.008,25.357],[72.9977,25.2778],[72.9362,25.2432],[72.9958,25.1461],[73.0534,25.1597],[73.1312,25.0765],[73.251,25.2769],[73.2658,25.3453],[73.3248,25.3969],[73.3777,25.5069],[73.4877,25.5598],[73.4886,25.6589],[73.5343,25.7262],[73.4787,25.8455],[73.389,25.9301]]]},"properties":{"AC_NO":121,"AC_NAME":"Sumerpur","district":"PALI","PC_NO":15,"PC_NAME":"PALI"}},
{"type":"Feature","geometry":{"type":"Polygon","coordinates":[[[74.7797,25.8825],[74.7152,25.9211],[74.5431,25.8772],[74.3892,25.9637],[74.3439,25.9009],[74.2663,25.8735],[74.2557,25.8697],[74.1945,25.8539],[74.1838,25.8492],[74.2064,25.774],[74.1706,25.7322],[74.2313,25.6223],[74.2997,25.5489],[74.4654,25.6138],[74.5578,25.5279],[74.6869,25.7537],[74.7979,25.7928],[74.7797,25.8825]]]},"properties":{"AC_NO":177,"AC_NAME":"Asind","district":"BHILWARA","PC_NO":23,"PC_NAME":"BHILWARA"}},
{"type":"Feature","geometry":{"type":"Polygon","coordinates":[[[73.9249,25.7898],[73.8144,25.8163],[73.7667,25.8824],[73.6886,25.8094],[73.5168,25.8791],[73.4787,25.8455],[73.5343,25.7262],[73.4886,25.6589],[73.4877,25.5598],[73.3777,25.5069],[73.3248,25.3969],[73.2658,25.3453],[73.3537,25.3288],[73.4484,25.4228],[73.4914,25.3721],[73.6668,25.3434],[73.7342,25.3822],[73.864,25.6495],[73.9093,25.6845],[73.9249,25.7898]]]},"properties":{"AC_NO":119,"AC_NAME":"Marwar Junction","district":"PALI","PC_NO":15,"PC_NAME":"PALI"}},
{"type":"Feature","geometry":{"type":"Polygon","coordinates":[[[73.0343,25.5747],[72.9356,25.636],[72.8905,25.7364],[72.7779,25.802],[72.7168,25.6356],[72.5496,25.5645],[72.5591,25.5304],[72.6583,25.4058],[72.7129,25.2425],[72.5917,25.2317],[72.5135,25.1359],[72.6381,25.0157],[72.8287,25.2846],[72.9362,25.2432],[72.9977,25.2778],[73.008,25.357],[73.0912,25.4671],[73.0343,25.5747]]]},"properties":{"AC_NO":141,"AC_NAME":"Ahore","district":"JALOR","PC_NO":18,"PC_NAME":"JALORE"}},
{"type":"Feature","geometry":{"type":"MultiPolygon","coordinates":[[[[74.1169,25.8652],[74.055,25.8285],[73.951,25.6475],[73.9093,25.6845],[73.864,25.6495],[73.7342,25.3822],[73.9806,25.3375],[74.0247,25.3917],[74.0651,25.4322],[74.0169,25.4368],[74.1706,25.7322],[74.2064,25.774],[74.1838,25.8492],[74.1169,25.8652]]],[[[74.3505,26.0234],[74.2921,25.9798],[74.2663,25.8735],[74.3439,25.9009],[74.3892,25.9637],[74.3505,26.0234]]]]},"properties":{"AC_NO":173,"AC_NAME":"Bhim","district":"RAJSAMAND","PC_NO":22,"PC_NAME":"RAJSAMAND"}},
{"type":"Feature","geometry":{"type":"Polygon","coordinates":[[[74.9865,25.8506],[74.9253,25.8774],[74.7797,25.8825],[74.7979,25.7928],[74.6869,25.7537],[74.5578,25.5279],[74.6409,25.4281],[74.7261,25.4321],[74.7983,25.5017],[74.8378,25.4453],[74.9416,25.4738],[74.9944,25.5827],[75.0543,25.5956],[75.1301,25.7047],[74.9865,25.8506]]]},"properties":{"AC_NO":181,"AC_NAME":"Shahpura(SC)","district":"SHAHPURA","PC_NO":23,"PC_NAME":"BHILWARA"}},
{"type":"Feature","geometry":{"type":"Polygon","coordinates":[[[71.189,24.6473],[71.2655,24.7459],[71.2438,24.8012],[71.3277,24.8455],[71.3484,24.942],[71.5033,25.0088],[71.4199,25.1023],[71.2743,25.1547],[71.2799,25.2451],[71.3438,25.3057],[71.365,25.4148],[71.3469,25.4991],[71.2641,25.6063],[71.1978,25.6179],[71.0775,25.56],[71.044,25.4388],[70.8593,25.3178],[70.7846,25.2456],[70.8884,25.148],[70.9377,24.9383],[71.0266,24.8087],[71.0667,24.7153],[71.189,24.6473]]]},"properties":{"AC_NO":140,"AC_NAME":"Chohtan (SC)","district":"BARMER","PC_NO":17,"PC_NAME":"BARMER"}},
{"type":"Feature","geometry":{"type":"Polygon","coordinates":[[[75.9298,25.8355],[75.8501,25.8693],[75.7663,25.8204],[75.7419,25.7541],[75.6588,25.7493],[75.616,25.6803],[75.5077,25.7395],[75.4608,25.7207],[75.4307,25.6223],[75.3583,25.5382],[75.2968,25.3821],[75.4024,25.2896],[75.4996,25.4109],[75.6784,25.4364],[75.8562,25.5345],[75.9394,25.6093],[75.9797,25.7604],[75.9298,25.8355]]]},"properties":{"AC_NO":184,"AC_NAME":"Hindoli","district":"BUNDI","PC_NO":23,"PC_NAME":"BHILWARA"}},
{"type":"Feature","geometry":{"type":"Polygon","coordinates":[[[76.1492,25.7626],[76.0444,25.8129],[76.0078,25.8809],[75.9298,25.8355],[75.9797,25.7604],[75.9394,25.6093],[75.8562,25.5345],[75.9449,25.4311],[75.8764,25.3904],[75.9064,25.2688],[76.0038,25.2613],[76.0202,25.3076],[76.1304,25.348],[76.1384,25.4107],[76.267,25.5111],[76.3135,25.6595],[76.1987,25.6982],[76.1492,25.7626]]]},"properties":{"AC_NO":185,"AC_NAME":"Keshoraipatan(SC)","district":"BUNDI","PC_NO":24,"PC_NAME":"KOTA"}},
{"type":"Feature","geometry":{"type":"Polygon","coordinates":[[[71.7282,25.6235],[71.6642,25.5509],[71.586,25.5541],[71.5066,25.4536],[71.365,25.4148],[71.3438,25.3057],[71.2799,25.2451],[71.2743,25.1547],[71.4199,25.1023],[71.5033,25.0088],[71.557,24.9835],[71.6342,25.0341],[71.6828,24.987],[71.7381,25.0677],[71.8176,25.1204],[71.8469,25.2009],[71.9332,25.2797],[71.9169,25.3458],[71.976,25.416],[72.0041,25.4463],[71.9167,25.5163],[71.8349,25.5079],[71.7282,25.6235]]]},"properties":{"AC_NO":139,"AC_NAME":"Gudha Malani","district":"BARMER","PC_NO":17,"PC_NAME":"BARMER"}},
{"type":"Feature","geometry":{"type":"Polygon","coordinates":[[[76.5697,25.4393],[76.517,25.5268],[76.5153,25.7737],[76.5665,25.8489],[76.4734,25.8337],[76.4416,25.7742],[76.3561,25.741],[76.3118,25.8115],[76.1492,25.7626],[76.1987,25.6982],[76.3135,25.6595],[76.267,25.5111],[76.1384,25.4107],[76.1304,25.348],[76.1221,25.2755],[76.2481,25.2398],[76.2852,25.2495],[76.3227,25.3817],[76.4378,25.3847],[76.5697,25.4393]]]},"properties":{"AC_NO":187,"AC_NAME":"Pipalda","district":"KOTA","PC_NO":24,"PC_NAME":"KOTA"}},
{"type":"Feature","geometry":{"type":"Polygon","coordinates":[[[74.5578,25.5279],[74.4654,25.6138],[74.2997,25.5489],[74.2313,25.6223],[74.1706,25.7322],[74.0169,25.4368],[74.0651,25.4322],[74.1944,25.4937],[74.2576,25.4399],[74.3158,25.4503],[74.3675,25.3076],[74.4971,25.3389],[74.591,25.3358],[74.6099,25.3723],[74.6897,25.3767],[74.6583,25.3018],[74.5692,25.2771],[74.6558,25.1812],[74.754,25.2153],[74.7981,25.2613],[74.7943,25.4048],[74.8378,25.4453],[74.7983,25.5017],[74.7261,25.4321],[74.6409,25.4281],[74.5578,25.5279]]]},"properties":{"AC_NO":178,"AC_NAME":"Mandal","district":"BHILWARA","PC_NO":23,"PC_NAME":"BHILWARA"}},
{"type":"Feature","geometry":{"type":"Polygon","coordinates":[[[75.3154,25.7663],[75.2508,25.6851],[75.1301,25.7047],[75.0543,25.5956],[74.9944,25.5827],[74.9416,25.4738],[74.8378,25.4453],[74.7943,25.4048],[74.7981,25.2613],[74.9009,25.273],[74.9279,25.3984],[75.0404,25.4442],[75.2968,25.3821],[75.3583,25.5382],[75.4307,25.6223],[75.4608,25.7207],[75.4152,25.7669],[75.3154,25.7663]]]},"properties":{"AC_NO":182,"AC_NAME":"Jahazpur","district":"SHAHPURA","PC_NO":23,"PC_NAME":"BHILWARA"}},
{"type":"Feature","geometry":{"type":"Polygon","coordinates":[[[72.5591,25.5304],[72.4215,25.439],[72.342,25.4464],[72.3075,25.3833],[72.1617,25.4356],[72.1071,25.4199],[72.0559,25.4819],[72.0041,25.4463],[71.976,25.416],[72.0463,25.3491],[72.0124,25.1737],[72.2909,25.1667],[72.4126,25.2736],[72.4727,25.1416],[72.5135,25.1359],[72.5917,25.2317],[72.7129,25.2425],[72.6583,25.4058],[72.5591,25.5304]]]},"properties":{"AC_NO":142,"AC_NAME":"Jalore (SC)","district":"JALOR","PC_NO":18,"PC_NAME":"JALORE"}},
{"type":"Feature","geometry":{"type":"Polygon","coordinates":[[[72.6381,25.0157],[72.5135,25.1359],[72.4727,25.1416],[72.4126,25.2736],[72.2909,25.1667],[72.0124,25.1737],[72.0463,25.3491],[71.976,25.416],[71.9169,25.3458],[71.9332,25.2797],[71.8469,25.2009],[71.8176,25.1204],[71.8921,25.076],[71.9649,24.9452],[72.0913,24.9394],[72.1653,24.9669],[72.3002,24.9003],[72.3625,25.0029],[72.497,24.9072],[72.5674,24.9349],[72.6381,25.0157]]]},"properties":{"AC_NO":143,"AC_NAME":"Bhinmal","district":"SANCHORE","PC_NO":18,"PC_NAME":"JALORE"}},
{"type":"Feature","geometry":{"type":"Polygon","coordinates":[[[74.0651,25.4322],[74.0247,25.3917],[74.0579,25.1468],[74.1661,25.1266],[74.1881,25.0595],[74.26,25.0636],[74.3892,25.1924],[74.4914,25.2017],[74.5374,25.1467],[74.6558,25.1812],[74.5692,25.2771],[74.591,25.3358],[74.4971,25.3389],[74.3675,25.3076],[74.3158,25.4503],[74.2576,25.4399],[74.1944,25.4937],[74.0651,25.4322]]]},"properties":{"AC_NO":179,"AC_NAME":"Sahara","district":"BHILWARA","PC_NO":23,"PC_NAME":"BHILWARA"}},
{"type":"Feature","geometry":{"type":"Polygon","coordinates":[[[73.1312,25.0765],[72.9963,24.9617],[72.9922,24.9235],[73.1483,24.8459],[73.1462,24.7482],[73.2098,24.7848],[73.3313,24.9058],[73.3443,25.0107],[73.4101,25.088],[73.4877,25.1047],[73.6015,25.2058],[73.61,25.2866],[73.6668,25.3434],[73.4914,25.3721],[73.4484,25.4228],[73.3537,25.3288],[73.2658,25.3453],[73.251,25.2769],[73.1312,25.0765]]]},"properties":{"AC_NO":120,"AC_NAME":"Bali","district":"PALI","PC_NO":15,"PC_NAME":"PALI"}},
{"type":"Feature","geometry":{"type":"Polygon","coordinates":[[[75.4024,25.2896],[75.4515,25.241],[75.4415,25.1409],[75.4025,25.1024],[75.4462,25.0231],[75.6165,24.9945],[75.7439,25.1182],[75.7333,25.1486],[75.7544,25.194],[75.7784,25.2283],[75.9064,25.2688],[75.8764,25.3904],[75.9449,25.4311],[75.8562,25.5345],[75.6784,25.4364],[75.4996,25.4109],[75.4024,25.2896]]]},"properties":{"AC_NO":186,"AC_NAME":"Bundi","district":"BUNDI","PC_NO":24,"PC_NAME":"KOTA"}},
{"type":"Feature","geometry":{"type":"Polygon","coordinates":[[[75.1924,25.0335],[75.3513,25.019],[75.4462,25.0231],[75.4025,25.1024],[75.4415,25.1409],[75.4515,25.241],[75.4024,25.2896],[75.2968,25.3821],[75.0404,25.4442],[74.9279,25.3984],[74.9009,25.273],[74.7981,25.2613],[74.754,25.2153],[74.7955,25.1526],[74.9096,25.1756],[75.0629,25.1145],[75.204,25.09],[75.1924,25.0335]]]},"properties":{"AC_NO":183,"AC_NAME":"Mandalgarh","district":"BHILWARA","PC_NO":23,"PC_NAME":"BHILWARA"}},
{"type":"Feature","geometry":{"type":"Polygon","coordinates":[[[73.7342,25.3822],[73.6668,25.3434],[73.61,25.2866],[73.6015,25.2058],[73.4877,25.1047],[73.5318,25.0118],[73.536,24.9228],[73.6351,25.0327],[73.735,25.0304],[73.7331,25.1344],[73.796,25.2069],[73.8727,25.2054],[74.0579,25.1468],[74.0247,25.3917],[73.9806,25.3375],[73.7342,25.3822]]]},"properties":{"AC_NO":174,"AC_NAME":"Kumbhalgarh","district":"RAJSAMAND","PC_NO":22,"PC_NAME":"RAJSAMAND"}},
{"type":"Feature","geometry":{"type":"Polygon","coordinates":[[[74.591,25.3358],[74.5692,25.2771],[74.6583,25.3018],[74.6897,25.3767],[74.6099,25.3723],[74.591,25.3358]]]},"properties":{"AC_NO":180,"AC_NAME":"Bhilwara","district":"BHILWARA","PC_NO":23,"PC_NAME":"BHILWARA"}},
{"type":"Feature","geometry":{"type":"Polygon","coordinates":[[[73.1312,25.0765],[73.0534,25.1597],[72.9958,25.1461],[72.9362,25.2432],[72.8287,25.2846],[72.6381,25.0157],[72.5674,24.9349],[72.497,24.9072],[72.4775,24.7529],[72.609,24.7211],[72.7032,24.7263],[72.7548,24.6868],[72.8963,24.7723],[72.9361,24.9134],[72.9922,24.9235],[72.9963,24.9617],[73.1312,25.0765]]]},"properties":{"AC_NO":146,"AC_NAME":"Sirohi","district":"SIROHI","PC_NO":18,"PC_NAME":"JALORE"}},
{"type":"Feature","geometry":{"type":"Polygon","coordinates":[[[76.6143,25.3836],[76.5697,25.4393],[76.4378,25.3847],[76.3227,25.3817],[76.2852,25.2495],[76.2481,25.2398],[76.1974,25.1262],[76.2954,24.9647],[76.4096,24.9797],[76.4686,24.9327],[76.5631,25.0559],[76.3918,25.0769],[76.5056,25.1684],[76.6215,25.1389],[76.5743,25.2506],[76.6143,25.3836]]]},"properties":{"AC_NO":193,"AC_NAME":"Anta","district":"BARAN","PC_NO":25,"PC_NAME":"JHALAWAR-BARAN"}},
{"type":"Feature","geometry":{"type":"Polygon","coordinates":[[[76.8166,24.829],[76.9275,24.8472],[76.922,24.9147],[76.8624,24.9608],[76.8762,25.0411],[76.9999,25.0747],[77.0845,25.0542],[77.1742,25.1117],[77.2702,25.116],[77.3108,25.0799],[77.3941,25.1198],[77.4115,25.2236],[77.3149,25.4315],[77.234,25.3783],[77.2091,25.3062],[77.0827,25.3358],[76.9576,25.2841],[76.8532,25.3324],[76.7768,25.3156],[76.6143,25.3836],[76.5743,25.2506],[76.6215,25.1389],[76.6308,25.0227],[76.7054,24.8935],[76.8166,24.829]]]},"properties":{"AC_NO":194,"AC_NAME":"Kishanganj","district":"BARAN","PC_NO":25,"PC_NAME":"JHALAWAR-BARAN"}},
{"type":"Feature","geometry":{"type":"Polygon","coordinates":[[[76.1304,25.348],[76.0202,25.3076],[76.0038,25.2613],[76.0134,25.176],[76.073,25.1016],[76.0941,24.9973],[76.0343,24.9426],[76.0213,24.8524],[76.1271,24.7462],[76.1033,24.6903],[76.1816,24.6321],[76.2269,24.8116],[76.3594,24.8705],[76.4428,24.8308],[76.4406,24.7824],[76.5744,24.8586],[76.4686,24.9327],[76.4096,24.9797],[76.2954,24.9647],[76.1974,25.1262],[76.2481,25.2398],[76.1221,25.2755],[76.1304,25.348]]]},"properties":{"AC_NO":188,"AC_NAME":"Sangod","district":"KOTA","PC_NO":24,"PC_NAME":"KOTA"}},
{"type":"Feature","geometry":{"type":"Polygon","coordinates":[[[71.189,24.6473],[71.2875,24.616],[71.3774,24.6256],[71.4778,24.6796],[71.7064,24.6612],[71.8665,24.6758],[71.8795,24.7928],[71.976,24.9153],[71.9649,24.9452],[71.8921,25.076],[71.8176,25.1204],[71.7381,25.0677],[71.6828,24.987],[71.6342,25.0341],[71.557,24.9835],[71.5033,25.0088],[71.3484,24.942],[71.3277,24.8455],[71.2438,24.8012],[71.2655,24.7459],[71.189,24.6473]]]},"properties":{"AC_NO":144,"AC_NAME":"Sanchore","district":"SANCHORE","PC_NO":18,"PC_NAME":"JALORE"}},
{"type":"Feature","geometry":{"type":"Polygon","coordinates":[[[74.26,25.0636],[74.1881,25.0595],[74.1661,25.1266],[74.0579,25.1468],[73.8727,25.2054],[73.796,25.2069],[73.7331,25.1344],[73.735,25.0304],[73.7859,24.9682],[73.8663,24.9349],[73.9589,24.9454],[74.0317,25.0034],[74.1386,25.0176],[74.1432,24.8811],[74.26,25.0636]]]},"properties":{"AC_NO":175,"AC_NAME":"Rajsamand","district":"RAJSAMAND","PC_NO":22,"PC_NAME":"RAJSAMAND"}},
{"type":"Feature","geometry":{"type":"Polygon","coordinates":[[[76.0038,25.2613],[75.9064,25.2688],[75.8688,25.1891],[75.8678,25.1509],[75.82,25.1018],[75.8197,24.9895],[75.926,24.9351],[76.0343,24.9426],[76.0941,24.9973],[76.073,25.1016],[76.0134,25.176],[76.0038,25.2613]]]},"properties":{"AC_NO":191,"AC_NAME":"Ladpura","district":"KOTA","PC_NO":24,"PC_NAME":"KOTA"}},
{"type":"Feature","geometry":{"type":"Polygon","coordinates":[[[75.9064,25.2688],[75.7784,25.2283],[75.7544,25.194],[75.7333,25.1486],[75.7439,25.1182],[75.8187,25.1547],[75.8688,25.1891],[75.9064,25.2688]]]},"properties":{"AC_NO":189,"AC_NAME":"Kota North","district":"KOTA","PC_NO":24,"PC_NAME":"KOTA"}},
{"type":"Feature","geometry":{"type":"Polygon","coordinates":[[[74.5374,25.1467],[74.4914,25.2017],[74.3892,25.1924],[74.26,25.0636],[74.1432,24.8811],[74.1165,24.8508],[74.1153,24.7345],[74.153,24.6677],[74.2031,24.6547],[74.4046,24.6632],[74.4586,24.7398],[74.5094,24.8046],[74.4585,24.9106],[74.496,24.9627],[74.4801,25.0701],[74.5374,25.1467]]]},"properties":{"AC_NO":167,"AC_NAME":"Kapasan(SC)","district":"CHITTAURGARH","PC_NO":21,"PC_NAME":"CHITTORGARH"}},
{"type":"Feature","geometry":{"type":"Polygon","coordinates":[[[71.8665,24.6758],[71.9255,24.6359],[72.0581,24.7123],[72.1648,24.621],[72.3351,24.6329],[72.3119,24.6743],[72.3732,24.7652],[72.4775,24.7529],[72.497,24.9072],[72.3625,25.0029],[72.3002,24.9003],[72.1653,24.9669],[72.0913,24.9394],[71.9649,24.9452],[71.976,24.9153],[71.8795,24.7928],[71.8665,24.6758]]]},"properties":{"AC_NO":145,"AC_NAME":"Raniwara","district":"SANCHORE","PC_NO":18,"PC_NAME":"JALORE"}},
{"type":"Feature","geometry":{"type":"Polygon","coordinates":[[[73.4877,25.1047],[73.4101,25.088],[73.3443,25.0107],[73.3313,24.9058],[73.2098,24.7848],[73.1462,24.7482],[73.1492,24.7196],[73.3937,24.5743],[73.5477,24.5953],[73.6028,24.7013],[73.698,24.7086],[73.7213,24.7733],[73.5943,24.7916],[73.536,24.9228],[73.5318,25.0118],[73.4877,25.1047]]]},"properties":{"AC_NO":149,"AC_NAME":"Gogunda(ST)","district":"UDAIPUR","PC_NO":19,"PC_NAME":"UDAIPUR (ST)"}},
{"type":"Feature","geometry":{"type":"Polygon","coordinates":[[[75.8688,25.1891],[75.8187,25.1547],[75.8678,25.1509],[75.8688,25.1891]]]},"properties":{"AC_NO":190,"AC_NAME":"Kota South","district":"KOTA","PC_NO":24,"PC_NAME":"KOTA"}},
{"type":"Feature","geometry":{"type":"Polygon","coordinates":[[[75.7848,24.7617],[75.8257,24.6678],[75.9178,24.5396],[76.0574,24.5636],[76.0621,24.6695],[76.1033,24.6903],[76.1271,24.7462],[76.0213,24.8524],[76.0343,24.9426],[75.926,24.9351],[75.8197,24.9895],[75.82,25.1018],[75.8678,25.1509],[75.8187,25.1547],[75.7439,25.1182],[75.6165,24.9945],[75.749,24.8854],[75.8155,24.8634],[75.7848,24.7617]]]},"properties":{"AC_NO":192,"AC_NAME":"Ramganj Mandi (SC)","district":"KOTA","PC_NO":24,"PC_NAME":"KOTA"}},
{"type":"Feature","geometry":{"type":"Polygon","coordinates":[[[73.536,24.9228],[73.5943,24.7916],[73.7213,24.7733],[73.7792,24.7561],[73.7973,24.8646],[73.8394,24.9072],[73.9522,24.8461],[74.1165,24.8508],[74.1432,24.8811],[74.1386,25.0176],[74.0317,25.0034],[73.9589,24.9454],[73.8663,24.9349],[73.7859,24.9682],[73.735,25.0304],[73.6351,25.0327],[73.536,24.9228]]]},"properties":{"AC_NO":176,"AC_NAME":"Nathdwara","district":"RAJSAMAND","PC_NO":22,"PC_NAME":"RAJSAMAND"}},
{"type":"Feature","geometry":{"type":"Polygon","coordinates":[[[76.6215,25.1389],[76.5056,25.1684],[76.3918,25.0769],[76.5631,25.0559],[76.4686,24.9327],[76.5744,24.8586],[76.4406,24.7824],[76.4764,24.659],[76.5209,24.603],[76.5773,24.6841],[76.6429,24.6692],[76.7638,24.705],[76.7658,24.7845],[76.7054,24.8935],[76.6308,25.0227],[76.6215,25.1389]]]},"properties":{"AC_NO":195,"AC_NAME":"Baran?Atru (SC)","district":"BARAN","PC_NO":25,"PC_NAME":"JHALAWAR-BARAN"}},
{"type":"Feature","geometry":{"type":"Polygon","coordinates":[[[74.7804,24.7304],[74.8088,24.7802],[74.838,24.7972],[74.8409,24.967],[74.7711,25.0908],[74.7024,24.9889],[74.496,24.9627],[74.4585,24.9106],[74.5094,24.8046],[74.4586,24.7398],[74.5401,24.7227],[74.6107,24.7161],[74.6346,24.7747],[74.7342,24.7706],[74.7804,24.7304]]]},"properties":{"AC_NO":169,"AC_NAME":"Chittorgarh","district":"CHITTAURGARH","PC_NO":21,"PC_NAME":"CHITTORGARH"}},
{"type":"Feature","geometry":{"type":"Polygon","coordinates":[[[72.973,24.4241],[73.0021,24.4828],[73.048,24.5521],[73.0558,24.5535],[73.1492,24.7196],[73.1462,24.7482],[73.1483,24.8459],[72.9922,24.9235],[72.9361,24.9134],[72.8963,24.7723],[72.7548,24.6868],[72.6242,24.5459],[72.7748,24.5671],[72.8383,24.484],[72.8291,24.4271],[72.973,24.4241]]]},"properties":{"AC_NO":147,"AC_NAME":"Pindwara Abu (ST)","district":"SIROHI","PC_NO":18,"PC_NAME":"JALORE"}},
{"type":"Feature","geometry":{"type":"MultiPolygon","coordinates":[[[[75.3513,25.019],[75.337,24.9551],[75.2677,24.8998],[75.1929,24.7733],[75.2281,24.7173],[75.4575,24.6804],[75.534,24.712],[75.6463,24.6851],[75.7848,24.7617],[75.8155,24.8634],[75.749,24.8854],[75.6165,24.9945],[75.4462,25.0231],[75.3513,25.019]]],[[[74.8409,24.967],[74.9587,24.858],[75.0338,24.8445],[75.1168,24.8778],[75.1137,24.9666],[75.1924,25.0335],[75.204,25.09],[75.0629,25.1145],[74.9096,25.1756],[74.7955,25.1526],[74.754,25.2153],[74.6558,25.1812],[74.5374,25.1467],[74.4801,25.0701],[74.496,24.9627],[74.7024,24.9889],[74.7711,25.0908],[74.8409,24.967]]]]},"properties":{"AC_NO":168,"AC_NAME":"Begun","district":"CHITTAURGARH","PC_NO":21,"PC_NAME":"CHITTORGARH"}},
{"type":"Feature","geometry":{"type":"Polygon","coordinates":[[[74.153,24.6677],[74.1153,24.7345],[74.1165,24.8508],[73.9522,24.8461],[73.8394,24.9072],[73.7973,24.8646],[73.7792,24.7561],[73.7213,24.7733],[73.698,24.7086],[73.7635,24.6411],[73.7657,24.6404],[73.7958,24.6201],[73.7787,24.6075],[73.8163,24.5412],[73.8973,24.5145],[73.8764,24.5798],[73.9309,24.6517],[73.9576,24.7447],[74.062,24.7245],[74.153,24.6677]]]},"properties":{"AC_NO":154,"AC_NAME":"Mavli","district":"UDAIPUR","PC_NO":21,"PC_NAME":"CHITTORGARH"}},
{"type":"Feature","geometry":{"type":"Polygon","coordinates":[[[72.3351,24.6329],[72.3537,24.5635],[72.4575,24.4155],[72.539,24.5194],[72.6554,24.4622],[72.7243,24.3673],[72.8498,24.3722],[72.911,24.3372],[72.973,24.4241],[72.8291,24.4271],[72.8383,24.484],[72.7748,24.5671],[72.6242,24.5459],[72.7548,24.6868],[72.7032,24.7263],[72.609,24.7211],[72.4775,24.7529],[72.3732,24.7652],[72.3119,24.6743],[72.3351,24.6329]]]},"properties":{"AC_NO":148,"AC_NAME":"Reodar(SC)","district":"SIROHI","PC_NO":18,"PC_NAME":"JALORE"}},
{"type":"Feature","geometry":{"type":"Polygon","coordinates":[[[76.8449,24.4363],[76.8178,24.5347],[76.921,24.5318],[76.9774,24.4615],[77.0709,24.568],[77.0268,24.7142],[76.9619,24.7571],[76.8665,24.7456],[76.8166,24.829],[76.7054,24.8935],[76.7658,24.7845],[76.7638,24.705],[76.6429,24.6692],[76.5773,24.6841],[76.5209,24.603],[76.5353,24.5101],[76.5768,24.4717],[76.6743,24.4389],[76.8449,24.4363]]]},"properties":{"AC_NO":196,"AC_NAME":"Chhabra","district":"BARAN","PC_NO":25,"PC_NAME":"JHALAWAR-BARAN"}},
{"type":"Feature","geometry":{"type":"Polygon","coordinates":[[[76.2028,24.3048],[76.212,24.2113],[76.3634,24.2327],[76.4208,24.3848],[76.3317,24.4462],[76.3599,24.5586],[76.4515,24.5469],[76.5768,24.4717],[76.5353,24.5101],[76.5209,24.603],[76.4764,24.659],[76.4406,24.7824],[76.4428,24.8308],[76.3594,24.8705],[76.2269,24.8116],[76.1816,24.6321],[76.2,24.5375],[76.2873,24.4505],[76.2028,24.3048]]]},"properties":{"AC_NO":199,"AC_NAME":"Khanpur","district":"JHALAWAR","PC_NO":25,"PC_NAME":"JHALAWAR-BARAN"}},
{"type":"Feature","geometry":{"type":"Polygon","coordinates":[[[73.0021,24.4828],[73.087,24.4976],[73.0743,24.3973],[73.152,24.354],[73.0657,24.1935],[73.2429,24.0021],[73.361,24.1043],[73.4131,24.1813],[73.5149,24.1874],[73.608,24.252],[73.6485,24.3889],[73.5715,24.4484],[73.5477,24.5953],[73.3937,24.5743],[73.1492,24.7196],[73.0558,24.5535],[73.048,24.5521],[73.0021,24.4828]]]},"properties":{"AC_NO":150,"AC_NAME":"Jhadol(ST)","district":"UDAIPUR","PC_NO":19,"PC_NAME":"UDAIPUR (ST)"}},
{"type":"Feature","geometry":{"type":"Polygon","coordinates":[[[74.2031,24.6547],[74.153,24.6677],[74.062,24.7245],[73.9576,24.7447],[73.9309,24.6517],[73.8764,24.5798],[73.8973,24.5145],[73.8547,24.4459],[73.8922,24.3902],[74.0819,24.4016],[74.2163,24.4245],[74.3436,24.3531],[74.3614,24.4017],[74.2561,24.481],[74.2712,24.5763],[74.2031,24.6547]]]},"properties":{"AC_NO":155,"AC_NAME":"Vallabhnagar","district":"UDAIPUR","PC_NO":21,"PC_NAME":"CHITTORGARH"}},
{"type":"Feature","geometry":{"type":"MultiPolygon","coordinates":[[[[74.7568,24.2642],[74.7811,24.3383],[74.8551,24.4243],[74.7443,24.4685],[74.8038,24.6337],[74.7804,24.7304],[74.7342,24.7706],[74.6346,24.7747],[74.6107,24.7161],[74.5401,24.7227],[74.5636,24.5754],[74.5474,24.4775],[74.498,24.4154],[74.5194,24.3322],[74.5932,24.2554],[74.7568,24.2642]]],[[[74.8088,24.7802],[74.8768,24.6427],[74.93,24.6352],[74.9929,24.6926],[74.9729,24.7634],[74.838,24.7972],[74.8088,24.7802]]]]},"properties":{"AC_NO":170,"AC_NAME":"Nimbahera","district":"PRATAPGARH","PC_NO":21,"PC_NAME":"CHITTORGARH"}},
{"type":"Feature","geometry":{"type":"Polygon","coordinates":[[[74.8896,24.2286],[74.7568,24.2642],[74.5932,24.2554],[74.5194,24.3322],[74.498,24.4154],[74.5474,24.4775],[74.5636,24.5754],[74.5401,24.7227],[74.4586,24.7398],[74.4046,24.6632],[74.2031,24.6547],[74.2712,24.5763],[74.2561,24.481],[74.3614,24.4017],[74.3436,24.3531],[74.3799,24.2808],[74.4848,24.2261],[74.5564,24.1205],[74.5264,23.9465],[74.7543,24.0749],[74.8236,24.202],[74.8896,24.2286]]]},"properties":{"AC_NO":171,"AC_NAME":"Bari Sadri","district":"CHITTAURGARH","PC_NO":21,"PC_NAME":"CHITTORGARH"}},
{"type":"Feature","geometry":{"type":"MultiPolygon","coordinates":[[[[73.7787,24.6075],[73.7397,24.5113],[73.8547,24.4459],[73.8973,24.5145],[73.8163,24.5412],[73.7787,24.6075]]],[[[73.5477,24.5953],[73.5715,24.4484],[73.6485,24.3889],[73.608,24.252],[73.6882,24.2182],[73.7647,24.291],[73.7238,24.4812],[73.6677,24.6147],[73.7635,24.6411],[73.698,24.7086],[73.6028,24.7013],[73.5477,24.5953]]]]},"properties":{"AC_NO":152,"AC_NAME":"Udaipur Rural(ST)","district":"UDAIPUR","PC_NO":19,"PC_NAME":"UDAIPUR (ST)"}},
{"type":"Feature","geometry":{"type":"Polygon","coordinates":[[[73.7958,24.6201],[73.7657,24.6404],[73.7635,24.6411],[73.6677,24.6147],[73.7238,24.4812],[73.7397,24.5113],[73.7787,24.6075],[73.7958,24.6201]]]},"properties":{"AC_NO":153,"AC_NAME":"Udaipur","district":"UDAIPUR","PC_NO":19,"PC_NAME":"UDAIPUR (ST)"}},
{"type":"Feature","geometry":{"type":"Polygon","coordinates":[[[75.9715,24.0201],[76.1267,24.0886],[76.1178,24.1945],[76.1429,24.2827],[76.2028,24.3048],[76.2873,24.4505],[76.2,24.5375],[76.1816,24.6321],[76.1033,24.6903],[76.0621,24.6695],[76.0574,24.5636],[75.9918,24.4233],[75.9304,24.3769],[75.8571,24.1758],[75.9387,24.1153],[75.9715,24.0201]]]},"properties":{"AC_NO":198,"AC_NAME":"Jhalrapatan","district":"JHALAWAR","PC_NO":25,"PC_NAME":"JHALAWAR-BARAN"}},
{"type":"Feature","geometry":{"type":"Polygon","coordinates":[[[74.0819,24.4016],[73.8922,24.3902],[73.8547,24.4459],[73.7397,24.5113],[73.7238,24.4812],[73.7647,24.291],[73.6882,24.2182],[73.8416,24.113],[73.8873,24.0618],[73.8708,23.9592],[73.9183,23.9854],[74.0771,23.9684],[74.1015,24.0587],[74.111,24.2447],[74.1483,24.3226],[74.0819,24.4016]]]},"properties":{"AC_NO":156,"AC_NAME":"Salumber(ST)","district":"SALUMBAR","PC_NO":19,"PC_NAME":"UDAIPUR (ST)"}},
{"type":"Feature","geometry":{"type":"Polygon","coordinates":[[[75.9178,24.5396],[75.8999,24.442],[75.7494,24.4245],[75.7399,24.3321],[75.8106,24.2962],[75.83,24.2336],[75.7507,24.1435],[75.7816,24.0426],[75.7411,23.9769],[75.6713,24.0179],[75.5817,23.9912],[75.5213,24.0246],[75.4594,23.9194],[75.5638,23.8568],[75.5839,23.7948],[75.7214,23.8117],[75.7938,23.867],[75.9375,23.8966],[75.9819,23.9296],[75.9715,24.0201],[75.9387,24.1153],[75.8571,24.1758],[75.9304,24.3769],[75.9918,24.4233],[76.0574,24.5636],[75.9178,24.5396]]]},"properties":{"AC_NO":197,"AC_NAME":"Dag (SC)","district":"JHALAWAR","PC_NO":25,"PC_NAME":"JHALAWAR-BARAN"}},
{"type":"Feature","geometry":{"type":"Polygon","coordinates":[[[76.3634,24.2327],[76.5041,24.2036],[76.5229,24.1568],[76.6422,24.2693],[76.6759,24.1908],[76.7901,24.1227],[76.9006,24.1274],[76.9456,24.2058],[76.8631,24.2734],[76.8323,24.3576],[76.8449,24.4363],[76.6743,24.4389],[76.5768,24.4717],[76.4515,24.5469],[76.3599,24.5586],[76.3317,24.4462],[76.4208,24.3848],[76.3634,24.2327]]]},"properties":{"AC_NO":200,"AC_NAME":"Manohar Thana","district":"JHALAWAR","PC_NO":25,"PC_NAME":"JHALAWAR-BARAN"}},
{"type":"Feature","geometry":{"type":"Polygon","coordinates":[[[74.3436,24.3531],[74.2163,24.4245],[74.0819,24.4016],[74.1483,24.3226],[74.111,24.2447],[74.1015,24.0587],[74.0771,23.9684],[74.1609,24.0051],[74.219,23.9072],[74.274,23.9559],[74.3806,23.905],[74.5495,23.8792],[74.5264,23.9465],[74.5564,24.1205],[74.4848,24.2261],[74.3799,24.2808],[74.3436,24.3531]]]},"properties":{"AC_NO":157,"AC_NAME":"Dhariawad(ST)","district":"PRATAPGARH","PC_NO":19,"PC_NAME":"UDAIPUR (ST)"}},
{"type":"Feature","geometry":{"type":"Polygon","coordinates":[[[73.361,24.1043],[73.4151,23.9854],[73.3538,23.8528],[73.3626,23.8126],[73.4637,23.8398],[73.5148,23.9298],[73.5731,23.9622],[73.7814,23.9405],[73.8708,23.9592],[73.8873,24.0618],[73.8416,24.113],[73.6882,24.2182],[73.608,24.252],[73.5149,24.1874],[73.4131,24.1813],[73.361,24.1043]]]},"properties":{"AC_NO":151,"AC_NAME":"Kherwara(ST)","district":"UDAIPUR","PC_NO":19,"PC_NAME":"UDAIPUR (ST)"}},
{"type":"Feature","geometry":{"type":"Polygon","coordinates":[[[74.8896,24.2286],[74.8236,24.202],[74.7543,24.0749],[74.5264,23.9465],[74.5495,23.8792],[74.6873,23.8889],[74.7873,23.8016],[74.6906,23.6546],[74.7679,23.595],[74.7711,23.5425],[74.8472,23.5517],[74.9365,23.6283],[74.94,23.7644],[74.9032,23.853],[74.9392,24.0535],[74.8798,24.1734],[74.8896,24.2286]]]},"properties":{"AC_NO":172,"AC_NAME":"Pratapgarh(ST)","district":"PRATAPGARH","PC_NO":21,"PC_NAME":"CHITTORGARH"}},
{"type":"Feature","geometry":{"type":"Polygon","coordinates":[[[74.0771,23.9684],[73.9183,23.9854],[73.8708,23.9592],[73.7814,23.9405],[73.7957,23.8567],[73.7848,23.8595],[73.6838,23.8575],[73.6894,23.7787],[73.8419,23.7172],[73.884,23.8043],[74.0074,23.7881],[74.1092,23.8039],[74.1358,23.7676],[74.1754,23.7952],[74.3806,23.905],[74.274,23.9559],[74.219,23.9072],[74.1609,24.0051],[74.0771,23.9684]]]},"properties":{"AC_NO":159,"AC_NAME":"Aspur (ST)","district":"DUNGARPUR","PC_NO":19,"PC_NAME":"UDAIPUR (ST)"}},
{"type":"Feature","geometry":{"type":"Polygon","coordinates":[[[73.3626,23.8126],[73.4736,23.7054],[73.5236,23.6069],[73.5911,23.6539],[73.647,23.6852],[73.6894,23.7787],[73.6838,23.8575],[73.7848,23.8595],[73.7957,23.8567],[73.7814,23.9405],[73.5731,23.9622],[73.5148,23.9298],[73.4637,23.8398],[73.3626,23.8126]]]},"properties":{"AC_NO":158,"AC_NAME":"Dungarpur(ST)","district":"DUNGARPUR","PC_NO":20,"PC_NAME":"BANSWARA(ST)"}},
{"type":"Feature","geometry":{"type":"Polygon","coordinates":[[[74.5495,23.8792],[74.3806,23.905],[74.1754,23.7952],[74.3947,23.5878],[74.4629,23.6153],[74.6906,23.6546],[74.7873,23.8016],[74.6873,23.8889],[74.5495,23.8792]]]},"properties":{"AC_NO":162,"AC_NAME":"Ghatol (ST)","district":"BANSWARA","PC_NO":20,"PC_NAME":"BANSWARA(ST)"}},
{"type":"Feature","geometry":{"type":"Polygon","coordinates":[[[73.8419,23.7172],[73.8977,23.5981],[73.8841,23.5357],[73.9674,23.417],[73.9844,23.4232],[73.9953,23.4197],[74.0314,23.5486],[74.1169,23.6112],[74.1358,23.7676],[74.1092,23.8039],[74.0074,23.7881],[73.884,23.8043],[73.8419,23.7172]]]},"properties":{"AC_NO":160,"AC_NAME":"Sagwara(ST)","district":"DUNGARPUR","PC_NO":20,"PC_NAME":"BANSWARA(ST)"}},
{"type":"Feature","geometry":{"type":"Polygon","coordinates":[[[73.5911,23.6539],[73.6554,23.6209],[73.6274,23.4485],[73.7672,23.4529],[73.8302,23.4262],[73.8936,23.333],[73.9575,23.3793],[73.9822,23.4127],[73.9953,23.4197],[73.9844,23.4232],[73.9674,23.417],[73.8841,23.5357],[73.8977,23.5981],[73.8419,23.7172],[73.6894,23.7787],[73.647,23.6852],[73.5911,23.6539]]]},"properties":{"AC_NO":161,"AC_NAME":"Chorasi (ST)","district":"DUNGARPUR","PC_NO":20,"PC_NAME":"BANSWARA(ST)"}},
{"type":"Feature","geometry":{"type":"Polygon","coordinates":[[[74.1754,23.7952],[74.1358,23.7676],[74.1169,23.6112],[74.0314,23.5486],[73.9953,23.4197],[73.9822,23.4127],[74.1289,23.4601],[74.2167,23.4352],[74.3122,23.5096],[74.3947,23.5878],[74.1754,23.7952]]]},"properties":{"AC_NO":163,"AC_NAME":"Garhi (ST)","district":"BANSWARA","PC_NO":20,"PC_NAME":"BANSWARA(ST)"}},
{"type":"Feature","geometry":{"type":"Polygon","coordinates":[[[74.5301,23.3307],[74.613,23.462],[74.7284,23.4962],[74.7711,23.5425],[74.7679,23.595],[74.6906,23.6546],[74.4629,23.6153],[74.3947,23.5878],[74.3122,23.5096],[74.3577,23.4336],[74.4379,23.379],[74.4132,23.337],[74.5301,23.3307]]]},"properties":{"AC_NO":164,"AC_NAME":"Banswara(ST)","district":"BANSWARA","PC_NO":20,"PC_NAME":"BANSWARA(ST)"}},
{"type":"Feature","geometry":{"type":"Polygon","coordinates":[[[73.9575,23.3793],[74.1327,23.2661],[74.1208,23.1771],[74.1787,23.1474],[74.2414,23.1815],[74.2663,23.3223],[74.4132,23.337],[74.4379,23.379],[74.3577,23.4336],[74.3122,23.5096],[74.2167,23.4352],[74.1289,23.4601],[73.9822,23.4127],[73.9575,23.3793]]]},"properties":{"AC_NO":165,"AC_NAME":"Bagidora(ST)","district":"BANSWARA","PC_NO":20,"PC_NAME":"BANSWARA(ST)"}},
{"type":"Feature","geometry":{"type":"Polygon","coordinates":[[[74.2414,23.1815],[74.3416,23.0678],[74.3862,23.1114],[74.5281,23.0977],[74.7021,23.2143],[74.5301,23.3307],[74.4132,23.337],[74.2663,23.3223],[74.2414,23.1815]]]},"properties":{"AC_NO":166,"AC_NAME":"Kushalgarh(ST)","district":"BANSWARA","PC_NO":20,"PC_NAME":"BANSWARA(ST)"}},
{"type":"Feature","geometry":{"type":"Polygon","coordinates":[[[75.7479,26.89],[75.7986,26.9114],[75.7851,26.9328],[75.7718,26.9368],[75.7479,26.89]]]},"properties":{"AC_NO":55,"AC_NAME":"Sanganer","district":"JAIPUR","PC_NO":7,"PC_NAME":"JAIPUR"}},
{"type":"Feature","geometry":{"type":"Polygon","coordinates":[[[75.8309,26.9296],[75.8283,26.9457],[75.8174,26.9475],[75.7851,26.9328],[75.7986,26.9114],[75.8309,26.9296]]]},"properties":{"AC_NO":54,"AC_NAME":"Malviya Nagar","district":"JAIPUR","PC_NO":7,"PC_NAME":"JAIPUR"}},
{"type":"Feature","geometry":{"type":"Polygon","coordinates":[[[75.8283,26.9457],[75.8419,26.9456],[75.8139,26.9587],[75.8174,26.9475],[75.8283,26.9457]]]},"properties":{"AC_NO":52,"AC_NAME":"KIshan Pole","district":"JAIPUR","PC_NO":7,"PC_NAME":"JAIPUR"}},
{"type":"Feature","geometry":{"type":"Polygon","coordinates":[[[75.8663,26.9409],[75.8419,26.9456],[75.8283,26.9457],[75.8309,26.9296],[75.878,26.9299],[75.8663,26.9409]]]},"properties":{"AC_NO":53,"AC_NAME":"Adarsh Nagar","district":"JAIPUR","PC_NO":7,"PC_NAME":"JAIPUR"}},
{"type":"Feature","geometry":{"type":"Polygon","coordinates":[[[75.8172,26.9796],[75.8116,26.9676],[75.8139,26.9587],[75.8419,26.9456],[75.8663,26.9409],[75.8433,26.9766],[75.8172,26.9796]]]},"properties":{"AC_NO":49,"AC_NAME":"Hawa Mahal","district":"JAIPUR","PC_NO":7,"PC_NAME":"JAIPUR"}},
{"type":"Feature","geometry":{"type":"Polygon","coordinates":[[[75.7718,26.9368],[75.7851,26.9328],[75.8174,26.9475],[75.8139,26.9587],[75.8116,26.9676],[75.7721,26.9574],[75.7718,26.9368]]]},"properties":{"AC_NO":51,"AC_NAME":"Civil Lines","district":"JAIPUR","PC_NO":7,"PC_NAME":"JAIPUR"}}
]}