{"type":"FeatureCollection", "features": [
{"type":"Feature","geometry":{"type":"Polygon","coordinates":[[[74.3509,29.9523],[73.8941,29.9743],[73.9035,30.0491],[73.967,30.1186],[73.9727,30.1983],[73.8062,30.0677],[73.6954,30.0423],[73.3971,29.9458],[73.325,29.7074],[73.3887,29.7213],[73.482,29.6242],[73.7018,29.5683],[73.6804,29.4966],[73.6789,29.4147],[73.541,29.3824],[73.6148,29.3298],[73.6245,29.2427],[73.5236,29.0947],[73.6176,29.0335],[73.6654,29.0152],[73.7707,29.0496],[73.8524,28.9495],[74.0152,28.9314],[74.0278,29.004],[74.1163,29.1113],[74.147,29.1554],[74.1257,29.2435],[73.9841,29.3058],[73.8495,29.3172],[73.8186,29.3808],[73.8769,29.4501],[73.7694,29.5208],[73.8666,29.6205],[74.0227,29.6561],[74.0419,29.6558],[74.0501,29.7057],[74.1473,29.7165],[74.2646,29.8072],[74.3509,29.9523]]]},"properties":{"district":"GANGANAGAR"}},
{"type":"Feature","geometry":{"type":"Polygon","coordinates":[[[74.6511,29.3328],[74.6033,29.3274],[74.5846,29.4585],[74.623,29.531],[74.575,29.5637],[74.6156,29.7515],[74.4773,29.7452],[74.4847,29.8157],[74.5612,29.8706],[74.5267,29.9428],[74.3509,29.9523],[74.2646,29.8072],[74.1473,29.7165],[74.0501,29.7057],[74.0419,29.6558],[74.0227,29.6561],[73.8666,29.6205],[73.7694,29.5208],[73.8769,29.4501],[73.8186,29.3808],[73.8495,29.3172],[73.9841,29.3058],[74.1257,29.2435],[74.147,29.1554],[74.1163,29.1113],[74.0278,29.004],[74.1321,28.8755],[74.0955,28.7828],[74.1598,28.7764],[74.2678,28.7952],[74.4189,28.8844],[74.4704,28.8168],[74.7497,28.8539],[74.7848,28.9172],[74.8613,28.9438],[74.9163,28.8969],[74.9964,28.9099],[75.0983,28.8735],[75.2369,28.8737],[75.2446,28.931],[75.3628,28.9123],[75.4326,28.999],[75.4767,28.932],[75.521,29.0046],[75.3914,29.063],[75.3882,29.2608],[75.3224,29.2892],[75.2123,29.2331],[75.0755,29.2295],[75.0495,29.2856],[74.9606,29.281],[74.9383,29.362],[74.8505,29.4036],[74.7941,29.3691],[74.6511,29.3328]]]},"properties":{"district":"HANUMANGARH"}},
{"type":"Feature","geometry":{"type":"Polygon","coordinates":[[[73.325,29.7074],[73.2822,29.572],[73.0904,29.246],[73.0046,29.1529],[72.9458,29.0279],[72.6624,28.9103],[72.7462,28.7826],[72.8218,28.7771],[73.0065,28.7111],[73.1478,28.7842],[73.2088,28.9215],[73.3657,29.004],[73.5312,28.9976],[73.6176,29.0335],[73.5236,29.0947],[73.6245,29.2427],[73.6148,29.3298],[73.541,29.3824],[73.6789,29.4147],[73.6804,29.4966],[73.7018,29.5683],[73.482,29.6242],[73.3887,29.7213],[73.325,29.7074]]]},"properties":{"district":"ANOOPGARH"}},
{"type":"Feature","geometry":{"type":"Polygon","coordinates":[[[73.5312,28.9976],[73.3657,29.004],[73.2088,28.9215],[73.1478,28.7842],[73.0065,28.7111],[72.8218,28.7771],[72.7462,28.7826],[72.6624,28.9103],[72.4037,28.7832],[72.2993,28.6695],[72.2033,28.3908],[72.1322,28.3129],[72.0043,28.2185],[71.9282,28.1223],[71.8918,27.9599],[71.8826,27.8825],[72.0244,27.9508],[72.1428,27.8749],[72.1501,27.7805],[72.0908,27.7218],[72.2458,27.6752],[72.3378,27.6933],[72.2805,27.5531],[72.3239,27.5168],[72.5004,27.5871],[72.5988,27.6079],[72.6472,27.5432],[72.8268,27.5847],[72.8247,27.4688],[72.9793,27.3818],[73.0801,27.4285],[73.1341,27.3096],[73.2195,27.3351],[73.2582,27.26],[73.3386,27.2398],[73.4021,27.287],[73.4953,27.328],[73.5282,27.4838],[73.6115,27.4888],[73.6585,27.5654],[73.7191,27.5199],[73.7909,27.5002],[73.8773,27.5389],[73.8883,27.6069],[73.8679,27.7734],[73.9864,27.7928],[74.0484,27.7206],[74.1143,27.7854],[74.216,27.8119],[74.2315,27.9318],[74.2879,28.0407],[74.2971,28.1349],[74.3473,28.1639],[74.3077,28.2315],[74.2379,28.231],[74.1996,28.312],[74.0617,28.3311],[74.0549,28.5261],[74.1093,28.5851],[74.0805,28.6698],[74.1775,28.7078],[74.1598,28.7764],[74.0955,28.7828],[74.1321,28.8755],[74.0278,29.004],[74.0152,28.9314],[73.8524,28.9495],[73.7707,29.0496],[73.6654,29.0152],[73.6176,29.0335],[73.5312,28.9976]]]},"properties":{"district":"BIKANER"}},
{"type":"Feature","geometry":{"type":"Polygon","coordinates":[[[75.2369,28.8737],[75.0983,28.8735],[74.9964,28.9099],[74.9163,28.8969],[74.8613,28.9438],[74.7848,28.9172],[74.7497,28.8539],[74.4704,28.8168],[74.4189,28.8844],[74.2678,28.7952],[74.1598,28.7764],[74.1775,28.7078],[74.0805,28.6698],[74.1093,28.5851],[74.0549,28.5261],[74.0617,28.3311],[74.1996,28.312],[74.2379,28.231],[74.3077,28.2315],[74.3473,28.1639],[74.2971,28.1349],[74.2879,28.0407],[74.2315,27.9318],[74.216,27.8119],[74.1143,27.7854],[74.0484,27.7206],[73.9864,27.7928],[73.8679,27.7734],[73.8883,27.6069],[73.8773,27.5389],[73.9077,27.4894],[74.0297,27.5351],[74.0803,27.4795],[74.2097,27.4688],[74.2544,27.6011],[74.3536,27.6857],[74.4944,27.6667],[74.6812,27.6684],[74.7362,27.6775],[74.7695,27.7694],[74.8002,27.834],[74.737,27.8914],[74.7839,27.9542],[74.8083,28.0578],[74.8574,28.1404],[74.8886,28.1895],[75.0244,28.2051],[75.0456,28.2546],[75.1453,28.2931],[75.1638,28.3803],[75.241,28.4595],[75.2445,28.461],[75.3718,28.3456],[75.5089,28.3407],[75.5675,28.3804],[75.6106,28.4862],[75.6708,28.5181],[75.6222,28.6017],[75.5615,28.6132],[75.5369,28.7448],[75.5032,28.7825],[75.4767,28.932],[75.4326,28.999],[75.3628,28.9123],[75.2446,28.931],[75.2369,28.8737]]]},"properties":{"district":"CHURU"}},
{"type":"Feature","geometry":{"type":"Polygon","coordinates":[[[75.3718,28.3456],[75.2445,28.461],[75.241,28.4595],[75.1638,28.3803],[75.1453,28.2931],[75.0456,28.2546],[75.0244,28.2051],[75.127,28.1395],[75.0977,28.0728],[75.193,27.9583],[75.194,27.9559],[75.2403,27.8146],[75.2864,27.7185],[75.4079,27.6528],[75.4531,27.6572],[75.5394,27.712],[75.6185,27.7027],[75.6909,27.679],[75.7347,27.7915],[75.6445,27.818],[75.6829,27.9116],[75.5934,28.0093],[75.6359,28.0683],[75.9432,28.1003],[76.0765,28.1676],[75.9295,28.3589],[75.7885,28.4007],[75.7881,28.4538],[75.6708,28.5181],[75.6106,28.4862],[75.5675,28.3804],[75.5089,28.3407],[75.3718,28.3456]]]},"properties":{"district":"JHUNJHUNUN"}},
{"type":"Feature","geometry":{"type":"Polygon","coordinates":[[[71.4472,26.513],[71.4883,26.4574],[71.5741,26.5056],[71.6232,26.4165],[71.7595,26.3479],[71.883,26.3391],[71.893,26.2979],[72.0715,26.3504],[72.0773,26.4525],[72.0281,26.5],[72.0849,26.6234],[72.0386,26.6817],[72.0834,26.7369],[72.0549,26.8038],[72.0993,26.8906],[72.0377,26.9359],[72.0429,27.1047],[71.9135,27.1799],[71.9045,27.2544],[71.8247,27.3224],[71.8072,27.4477],[72.0465,27.6179],[72.128,27.5811],[72.1572,27.4766],[72.2805,27.5531],[72.3378,27.6933],[72.2458,27.6752],[72.0908,27.7218],[72.1501,27.7805],[72.1428,27.8749],[72.0244,27.9508],[71.8826,27.8825],[71.8918,27.9599],[71.6668,27.878],[71.3326,27.8615],[71.2055,27.8352],[70.9063,27.7093],[70.7595,27.721],[70.6847,27.8281],[70.6777,27.9217],[70.5895,28.0103],[70.5057,28.0369],[70.3722,28.0117],[70.227,27.9012],[70.1325,27.8059],[70.0259,27.5627],[69.9337,27.4978],[69.863,27.402],[69.5867,27.1832],[69.5132,27.0097],[69.4848,26.8051],[69.5103,26.7434],[69.7225,26.6532],[69.7916,26.5984],[69.8861,26.5786],[70.0563,26.6004],[70.1743,26.5512],[70.1854,26.3741],[70.1752,26.2513],[70.1412,26.1558],[70.3624,26.1427],[70.4311,26.175],[70.6561,26.197],[70.7495,26.1465],[70.9601,26.0946],[71.0502,26.1388],[71.0136,26.2797],[71.1403,26.3078],[71.2373,26.4557],[71.3275,26.4206],[71.4472,26.513]]]},"properties":{"district":"JAISALMER"}},
{"type":"Feature","geometry":{"type":"Polygon","coordinates":[[[74.8574,28.1404],[74.8083,28.0578],[74.7839,27.9542],[74.737,27.8914],[74.8002,27.834],[74.7695,27.7694],[74.7362,27.6775],[74.6812,27.6684],[74.7614,27.5653],[74.7492,27.4986],[74.8599,27.4495],[74.8709,27.3288],[74.8771,27.3206],[75.0994,27.3813],[75.1649,27.3049],[75.1118,27.2171],[75.197,27.1261],[75.316,27.1438],[75.3215,27.2069],[75.4482,27.2901],[75.4974,27.3001],[75.5276,27.3359],[75.6231,27.3215],[75.597,27.4926],[75.7482,27.5547],[75.7625,27.5966],[75.7077,27.6598],[75.6185,27.7027],[75.5394,27.712],[75.4531,27.6572],[75.4079,27.6528],[75.2864,27.7185],[75.2403,27.8146],[75.194,27.9559],[75.193,27.9583],[75.0977,28.0728],[75.127,28.1395],[75.0244,28.2051],[74.8886,28.1895],[74.8574,28.1404]]]},"properties":{"district":"SIKAR"}},
{"type":"Feature","geometry":{"type":"Polygon","coordinates":[[[76.7395,28.1223],[76.657,28.0884],[76.6587,28.0085],[76.5893,27.9973],[76.4527,28.0932],[76.3865,28.0739],[76.3249,27.9727],[76.4034,27.8695],[76.3304,27.8424],[76.4804,27.7964],[76.4996,27.7242],[76.6028,27.7596],[76.7506,27.7086],[76.7733,27.6764],[76.8147,27.7615],[76.9011,27.7664],[76.9117,27.7956],[76.9414,27.8417],[76.9301,27.9572],[76.9479,28.1419],[76.8741,28.218],[76.8084,28.2106],[76.7395,28.1223]]]},"properties":{"district":"KHAIRTHAL-TIJARA"}},
{"type":"Feature","geometry":{"type":"Polygon","coordinates":[[[76.4527,28.0932],[76.4012,28.1448],[76.3203,28.0159],[76.2586,28.0673],[76.1804,28.0441],[76.1692,27.9034],[76.2255,27.8331],[76.183,27.7977],[76.0749,27.8439],[76.0687,27.7679],[75.9804,27.6566],[75.9768,27.499],[75.8715,27.4129],[76.0079,27.4165],[76.0791,27.2913],[76.1248,27.2554],[76.198,27.3609],[76.2381,27.5064],[76.3962,27.4388],[76.4399,27.6221],[76.4996,27.7242],[76.4804,27.7964],[76.3304,27.8424],[76.4034,27.8695],[76.3249,27.9727],[76.3865,28.0739],[76.4527,28.0932]]]},"properties":{"district":"KOTPUTLI-BEHROR"}},
{"type":"Feature","geometry":{"type":"Polygon","coordinates":[[[75.6359,28.0683],[75.5934,28.0093],[75.6829,27.9116],[75.6445,27.818],[75.7347,27.7915],[75.6909,27.679],[75.6185,27.7027],[75.7077,27.6598],[75.7625,27.5966],[75.7482,27.5547],[75.597,27.4926],[75.6231,27.3215],[75.6663,27.3482],[75.8715,27.4129],[75.9768,27.499],[75.9804,27.6566],[76.0687,27.7679],[76.0749,27.8439],[75.9709,27.8522],[75.9314,27.9304],[75.9831,28.0812],[75.9432,28.1003],[75.6359,28.0683]]]},"properties":{"district":"NEEM-KA-THANA"}},
{"type":"Feature","geometry":{"type":"Polygon","coordinates":[[[72.2805,27.5531],[72.1572,27.4766],[72.128,27.5811],[72.0465,27.6179],[71.8072,27.4477],[71.8247,27.3224],[71.9045,27.2544],[71.9135,27.1799],[72.0429,27.1047],[72.0377,26.9359],[72.0993,26.8906],[72.0549,26.8038],[72.0834,26.7369],[72.0386,26.6817],[72.0849,26.6234],[72.1338,26.6308],[72.2306,26.5558],[72.329,26.5656],[72.375,26.6069],[72.3469,26.6893],[72.406,26.8035],[72.5325,26.8306],[72.5899,26.9073],[72.6725,26.9017],[72.7671,26.7842],[72.8539,26.7118],[72.941,26.8441],[72.9777,26.8288],[73.0921,26.8984],[73.1206,26.9454],[73.1382,27.0502],[73.0894,27.2426],[73.1341,27.3096],[73.0801,27.4285],[72.9793,27.3818],[72.8247,27.4688],[72.8268,27.5847],[72.6472,27.5432],[72.5988,27.6079],[72.5004,27.5871],[72.3239,27.5168],[72.2805,27.5531]]]},"properties":{"district":"PHALODI"}},
{"type":"Feature","geometry":{"type":"Polygon","coordinates":[[[76.9782,27.6503],[76.946,27.586],[77.0484,27.55],[77.0185,27.4509],[76.9004,27.4618],[77.153,27.3492],[77.2085,27.3544],[77.2009,27.3308],[77.3251,27.1874],[77.4048,27.2115],[77.453,27.2732],[77.5157,27.2608],[77.6028,27.2922],[77.5073,27.3767],[77.4395,27.3909],[77.4381,27.456],[77.3389,27.5499],[77.3178,27.6059],[77.3528,27.6507],[77.3118,27.7739],[77.2681,27.8157],[77.1081,27.786],[76.9999,27.7373],[76.9795,27.6537],[76.9782,27.6503]]]},"properties":{"district":"DEEG"}},
{"type":"Feature","geometry":{"type":"Polygon","coordinates":[[[74.2097,27.4688],[74.2149,27.3355],[74.3332,27.274],[74.3559,27.0819],[74.3703,27.0665],[74.3677,26.9714],[74.422,26.8411],[74.461,26.7548],[74.5242,26.7348],[74.5291,26.5502],[74.5887,26.6286],[74.6712,26.5953],[74.722,26.7001],[74.7118,26.7758],[74.7759,26.79],[74.8537,26.9786],[74.898,26.9769],[74.9808,26.9436],[74.9758,26.8908],[75.0107,26.9461],[75.1621,26.9328],[75.2011,26.9749],[75.2189,27.0803],[75.3312,27.0919],[75.316,27.1438],[75.197,27.1261],[75.1118,27.2171],[75.1649,27.3049],[75.0994,27.3813],[74.8771,27.3206],[74.8709,27.3288],[74.8599,27.4495],[74.7492,27.4986],[74.7614,27.5653],[74.6812,27.6684],[74.4944,27.6667],[74.3536,27.6857],[74.2544,27.6011],[74.2097,27.4688]]]},"properties":{"district":"DIDWANA-KUCHAMAN"}},
{"type":"Feature","geometry":{"type":"Polygon","coordinates":[[[76.6028,27.7596],[76.4996,27.7242],[76.4399,27.6221],[76.3962,27.4388],[76.2381,27.5064],[76.198,27.3609],[76.1248,27.2554],[76.1803,27.1421],[76.2832,27.1493],[76.282,27.0635],[76.3749,27.0754],[76.4555,27.0756],[76.6471,27.1636],[76.6221,27.1076],[76.7492,27.107],[76.8019,27.1042],[76.8682,27.2297],[76.8956,27.1608],[76.9604,27.1441],[76.9672,27.1827],[77.0972,27.1677],[77.0762,27.2332],[77.1467,27.3203],[77.2009,27.3308],[77.2085,27.3544],[77.153,27.3492],[76.9004,27.4618],[77.0185,27.4509],[77.0484,27.55],[76.946,27.586],[76.9782,27.6503],[76.9795,27.6537],[76.8985,27.6778],[76.9011,27.7664],[76.8147,27.7615],[76.7733,27.6764],[76.7506,27.7086],[76.6028,27.7596]]]},"properties":{"district":"ALWAR"}},
{"type":"Feature","geometry":{"type":"Polygon","coordinates":[[[73.4021,27.287],[73.3386,27.2398],[73.2582,27.26],[73.2195,27.3351],[73.1341,27.3096],[73.0894,27.2426],[73.1382,27.0502],[73.1206,26.9454],[73.1837,26.8831],[73.2866,26.8727],[73.4984,26.8876],[73.6571,26.8068],[73.6729,26.6761],[73.7209,26.539],[73.7961,26.5035],[73.8711,26.4289],[74.1023,26.416],[74.2915,26.4467],[74.3159,26.4564],[74.3987,26.4868],[74.4648,26.4875],[74.5291,26.5502],[74.5242,26.7348],[74.461,26.7548],[74.422,26.8411],[74.3677,26.9714],[74.3703,27.0665],[74.3559,27.0819],[74.3332,27.274],[74.2149,27.3355],[74.2097,27.4688],[74.0803,27.4795],[74.0297,27.5351],[73.9077,27.4894],[73.8773,27.5389],[73.7909,27.5002],[73.7191,27.5199],[73.6585,27.5654],[73.6115,27.4888],[73.5282,27.4838],[73.4953,27.328],[73.4021,27.287]]]},"properties":{"district":"NAGAUR"}},
{"type":"Feature","geometry":{"type":"Polygon","coordinates":[[[75.6663,27.3482],[75.6231,27.3215],[75.5276,27.3359],[75.4974,27.3001],[75.4482,27.2901],[75.3215,27.2069],[75.316,27.1438],[75.3312,27.0919],[75.2189,27.0803],[75.2011,26.9749],[75.1621,26.9328],[75.0107,26.9461],[74.9758,26.8908],[74.9348,26.8425],[75.1306,26.8078],[75.174,26.7388],[75.3111,26.7797],[75.3685,26.8783],[75.391,26.9208],[75.5103,26.881],[75.7479,26.89],[75.7718,26.9368],[75.7721,26.9574],[75.7606,27.001],[75.8172,26.9796],[75.8433,26.9766],[75.8663,26.9409],[75.878,26.9299],[75.9473,26.894],[75.9376,26.7703],[75.8032,26.6743],[75.582,26.761],[75.6328,26.5842],[75.6157,26.5213],[75.6517,26.4594],[75.7686,26.4665],[75.76,26.5176],[76.009,26.5003],[76.1001,26.5387],[76.1495,26.5187],[76.1629,26.6481],[76.1805,26.7561],[76.2552,26.803],[76.2189,26.9073],[76.2291,27.0007],[76.282,27.0635],[76.2832,27.1493],[76.1803,27.1421],[76.1248,27.2554],[76.0791,27.2913],[76.0079,27.4165],[75.8715,27.4129],[75.6663,27.3482]]]},"properties":{"district":"JAIPUR(GRAMIN)"}},
{"type":"Feature","geometry":{"type":"Polygon","coordinates":[[[77.2009,27.3308],[77.1467,27.3203],[77.0762,27.2332],[77.0972,27.1677],[76.9672,27.1827],[76.9604,27.1441],[77.029,26.924],[77.0749,26.8603],[77.1723,26.8235],[77.217,26.7868],[77.293,26.7803],[77.346,26.7125],[77.4549,26.742],[77.4224,26.8403],[77.4603,26.8855],[77.5832,26.9242],[77.712,26.9971],[77.5644,27.0333],[77.5502,27.1105],[77.6186,27.1725],[77.681,27.1941],[77.6028,27.2922],[77.5157,27.2608],[77.453,27.2732],[77.4048,27.2115],[77.3251,27.1874],[77.2009,27.3308]]]},"properties":{"district":"BHARATPUR"}},
{"type":"Feature","geometry":{"type":"Polygon","coordinates":[[[76.8682,27.2297],[76.8019,27.1042],[76.7492,27.107],[76.6221,27.1076],[76.6471,27.1636],[76.4555,27.0756],[76.3749,27.0754],[76.282,27.0635],[76.2291,27.0007],[76.2189,26.9073],[76.2552,26.803],[76.1805,26.7561],[76.1629,26.6481],[76.1495,26.5187],[76.1714,26.4861],[76.2458,26.4412],[76.3232,26.4561],[76.4119,26.4156],[76.4792,26.5002],[76.4015,26.5561],[76.4632,26.67],[76.4659,26.7009],[76.4774,26.716],[76.5367,26.782],[76.6053,26.778],[76.7751,26.8941],[76.7958,26.9728],[76.8998,26.9433],[76.946,26.8603],[76.9637,26.8149],[77.0749,26.8603],[77.029,26.924],[76.9604,27.1441],[76.8956,27.1608],[76.8682,27.2297]]]},"properties":{"district":"DAUSA"}},
{"type":"Feature","geometry":{"type":"Polygon","coordinates":[[[72.5325,26.8306],[72.406,26.8035],[72.3469,26.6893],[72.375,26.6069],[72.329,26.5656],[72.2306,26.5558],[72.1338,26.6308],[72.0849,26.6234],[72.0281,26.5],[72.0773,26.4525],[72.0715,26.3504],[72.2684,26.1984],[72.3413,26.2446],[72.406,26.2364],[72.4713,26.3032],[72.5951,26.2791],[72.6844,26.1877],[72.6939,26.0375],[72.632,25.9586],[72.8347,25.8633],[72.9586,25.9004],[73.0492,26.011],[73.1626,26.0315],[73.2438,26.0741],[73.3203,26.0106],[73.3411,26.1154],[73.4021,26.1603],[73.4638,26.0837],[73.5585,26.103],[73.6478,26.0796],[73.8068,26.1033],[73.7839,26.1481],[73.8113,26.3558],[73.8711,26.4289],[73.7961,26.5035],[73.7209,26.539],[73.6729,26.6761],[73.6571,26.8068],[73.4984,26.8876],[73.2866,26.8727],[73.1837,26.8831],[73.1206,26.9454],[73.0921,26.8984],[72.9777,26.8288],[72.941,26.8441],[72.8539,26.7118],[72.7671,26.7842],[72.6725,26.9017],[72.5899,26.9073],[72.5325,26.8306]],[[73.032,26.2068],[72.9567,26.264],[73.0563,26.3723],[73.0877,26.3489],[73.0886,26.2373],[73.0396,26.286],[73.032,26.2068]]]},"properties":{"district":"JODHPUR GRAMIN"}},
{"type":"Feature","geometry":{"type":"Polygon","coordinates":[[[74.898,26.9769],[74.8537,26.9786],[74.7759,26.79],[74.7118,26.7758],[74.722,26.7001],[74.6712,26.5953],[74.5887,26.6286],[74.5291,26.5502],[74.4648,26.4875],[74.3987,26.4868],[74.3159,26.4564],[74.2915,26.4467],[74.3032,26.2503],[74.3738,26.2064],[74.4356,26.2307],[74.5053,26.183],[74.5887,26.2335],[74.6658,26.1524],[74.7756,26.1957],[74.8715,26.2297],[75.0613,26.1595],[75.1575,26.1816],[75.1125,26.2881],[75.1319,26.4092],[75.1688,26.4627],[75.1225,26.546],[75.0648,26.577],[75.0654,26.6542],[74.9779,26.6751],[74.9192,26.8283],[74.9348,26.8425],[74.9758,26.8908],[74.9808,26.9436],[74.898,26.9769]]]},"properties":{"district":"AJMER"}},
{"type":"Feature","geometry":{"type":"Polygon","coordinates":[[[75.7606,27.001],[75.7721,26.9574],[75.7718,26.9368],[75.7479,26.89],[75.5103,26.881],[75.4904,26.7703],[75.582,26.761],[75.8032,26.6743],[75.9376,26.7703],[75.9473,26.894],[75.878,26.9299],[75.8663,26.9409],[75.8433,26.9766],[75.8172,26.9796],[75.7606,27.001]]]},"properties":{"district":"JAIPUR"}},
{"type":"Feature","geometry":{"type":"Polygon","coordinates":[[[74.9348,26.8425],[74.9192,26.8283],[74.9779,26.6751],[75.0654,26.6542],[75.0648,26.577],[75.1225,26.546],[75.1688,26.4627],[75.2031,26.5169],[75.3292,26.5607],[75.3491,26.4971],[75.455,26.4958],[75.5694,26.4486],[75.6495,26.4498],[75.6517,26.4594],[75.6157,26.5213],[75.6328,26.5842],[75.582,26.761],[75.4904,26.7703],[75.5103,26.881],[75.391,26.9208],[75.3685,26.8783],[75.3111,26.7797],[75.174,26.7388],[75.1306,26.8078],[74.9348,26.8425]]]},"properties":{"district":"DUDU"}},
{"type":"Feature","geometry":{"type":"Polygon","coordinates":[[[76.7958,26.9728],[76.7751,26.8941],[76.6053,26.778],[76.5367,26.782],[76.4774,26.716],[76.4659,26.7009],[76.4632,26.67],[76.5637,26.6104],[76.6192,26.6143],[76.6978,26.5447],[76.7369,26.5325],[76.8604,26.6014],[76.9404,26.7309],[76.946,26.8603],[76.8998,26.9433],[76.7958,26.9728]]]},"properties":{"district":"GANGAPURCITY"}},
{"type":"Feature","geometry":{"type":"Polygon","coordinates":[[[77.8923,26.8877],[77.8788,26.9007],[77.7595,26.9327],[77.675,26.8577],[77.5006,26.8163],[77.4549,26.742],[77.346,26.7125],[77.394,26.6339],[77.2556,26.5549],[77.2392,26.4978],[77.2615,26.4281],[77.3315,26.432],[77.376,26.3653],[77.5363,26.4112],[77.8328,26.5997],[77.9011,26.6572],[78.002,26.6947],[78.0957,26.6803],[78.1064,26.7903],[78.223,26.8307],[78.2717,26.9214],[78.1251,26.9493],[78.0479,26.9092],[77.8923,26.8877]]]},"properties":{"district":"DHAULPUR"}},
{"type":"Feature","geometry":{"type":"Polygon","coordinates":[[[76.946,26.8603],[76.9404,26.7309],[76.8604,26.6014],[76.7369,26.5325],[76.6978,26.5447],[76.6527,26.4619],[76.6132,26.3122],[76.6368,26.2726],[76.6235,26.251],[76.6248,26.187],[76.739,26.1559],[76.8525,26.0439],[76.9108,26.1073],[77.0971,26.1832],[77.1397,26.234],[77.2708,26.2672],[77.376,26.3653],[77.3315,26.432],[77.2615,26.4281],[77.2392,26.4978],[77.2556,26.5549],[77.394,26.6339],[77.346,26.7125],[77.293,26.7803],[77.217,26.7868],[77.1723,26.8235],[77.0749,26.8603],[76.9637,26.8149],[76.946,26.8603]]]},"properties":{"district":"KARAULI"}},
{"type":"Feature","geometry":{"type":"Polygon","coordinates":[[[70.1412,26.1558],[70.0834,26.0832],[70.0995,25.9383],[70.2684,25.7135],[70.3868,25.674],[70.5299,25.683],[70.6088,25.7148],[70.6743,25.6756],[70.6647,25.3966],[70.7369,25.332],[70.7846,25.2456],[70.8884,25.148],[70.9377,24.9383],[71.0266,24.8087],[71.0667,24.7153],[71.189,24.6473],[71.2655,24.7459],[71.2438,24.8012],[71.3277,24.8455],[71.3484,24.942],[71.5033,25.0088],[71.557,24.9835],[71.6342,25.0341],[71.6828,24.987],[71.7381,25.0677],[71.8176,25.1204],[71.8469,25.2009],[71.9332,25.2797],[71.9169,25.3458],[71.976,25.416],[72.0041,25.4463],[71.9167,25.5163],[71.8349,25.5079],[71.7282,25.6235],[71.7759,25.6376],[71.6845,25.6904],[71.7082,25.7604],[71.562,25.8424],[71.4909,25.9181],[71.4221,25.9247],[71.4756,26.0791],[71.6677,26.2736],[71.7595,26.3479],[71.6232,26.4165],[71.5741,26.5056],[71.4883,26.4574],[71.4472,26.513],[71.3275,26.4206],[71.2373,26.4557],[71.1403,26.3078],[71.0136,26.2797],[71.0502,26.1388],[70.9601,26.0946],[70.7495,26.1465],[70.6561,26.197],[70.4311,26.175],[70.3624,26.1427],[70.1412,26.1558]]]},"properties":{"district":"BARMER"}},
{"type":"Feature","geometry":{"type":"Polygon","coordinates":[[[76.4632,26.67],[76.4015,26.5561],[76.4792,26.5002],[76.4119,26.4156],[76.3232,26.4561],[76.2458,26.4412],[76.1714,26.4861],[76.1008,26.2405],[76.0255,26.2501],[75.9812,26.1958],[75.995,26.1289],[76.0881,26.1035],[76.0803,26.0284],[76.1312,25.9731],[76.2409,26.0217],[76.2103,25.861],[76.3118,25.8115],[76.3561,25.741],[76.4416,25.7742],[76.4734,25.8337],[76.5665,25.8489],[76.6414,25.908],[76.7117,25.8998],[76.7907,25.9431],[76.8525,26.0439],[76.739,26.1559],[76.6248,26.187],[76.6235,26.251],[76.6368,26.2726],[76.6132,26.3122],[76.6527,26.4619],[76.6978,26.5447],[76.6192,26.6143],[76.5637,26.6104],[76.4632,26.67]]]},"properties":{"district":"SAWAI MADHOPUR"}},
{"type":"Feature","geometry":{"type":"Polygon","coordinates":[[[75.1688,26.4627],[75.1319,26.4092],[75.1125,26.2881],[75.1575,26.1816],[75.1813,26.117],[75.3069,26.0838],[75.3453,26.0244],[75.2507,25.9407],[75.2645,25.8545],[75.3154,25.7663],[75.4152,25.7669],[75.4608,25.7207],[75.5077,25.7395],[75.616,25.6803],[75.6588,25.7493],[75.7419,25.7541],[75.7663,25.8204],[75.8501,25.8693],[75.9298,25.8355],[76.0078,25.8809],[76.0444,25.8129],[76.1492,25.7626],[76.3118,25.8115],[76.2103,25.861],[76.2409,26.0217],[76.1312,25.9731],[76.0803,26.0284],[76.0881,26.1035],[75.995,26.1289],[75.9812,26.1958],[76.0255,26.2501],[76.1008,26.2405],[76.1714,26.4861],[76.1495,26.5187],[76.1001,26.5387],[76.009,26.5003],[75.76,26.5176],[75.7686,26.4665],[75.6517,26.4594],[75.6495,26.4498],[75.5694,26.4486],[75.455,26.4958],[75.3491,26.4971],[75.3292,26.5607],[75.2031,26.5169],[75.1688,26.4627]]]},"properties":{"district":"TONK"}},
{"type":"Feature","geometry":{"type":"Polygon","coordinates":[[[71.7595,26.3479],[71.6677,26.2736],[71.4756,26.0791],[71.4221,25.9247],[71.4909,25.9181],[71.562,25.8424],[71.7082,25.7604],[71.6845,25.6904],[71.7759,25.6376],[71.7282,25.6235],[71.8349,25.5079],[71.9167,25.5163],[72.0041,25.4463],[72.0559,25.4819],[72.1071,25.4199],[72.1617,25.4356],[72.3075,25.3833],[72.342,25.4464],[72.4215,25.439],[72.5591,25.5304],[72.5496,25.5645],[72.7168,25.6356],[72.7779,25.802],[72.8347,25.8633],[72.632,25.9586],[72.6939,26.0375],[72.6844,26.1877],[72.5951,26.2791],[72.4713,26.3032],[72.406,26.2364],[72.3413,26.2446],[72.2684,26.1984],[72.0715,26.3504],[71.893,26.2979],[71.883,26.3391],[71.7595,26.3479]]]},"properties":{"district":"BALOTRA"}},
{"type":"Feature","geometry":{"type":"Polygon","coordinates":[[[73.8711,26.4289],[73.8113,26.3558],[73.7839,26.1481],[73.8068,26.1033],[73.9883,26.1345],[74.1066,26.0975],[73.9756,25.9707],[74.0529,25.9252],[74.0012,25.8647],[73.9249,25.7898],[73.9093,25.6845],[73.951,25.6475],[74.055,25.8285],[74.1169,25.8652],[74.1838,25.8492],[74.1945,25.8539],[74.2557,25.8697],[74.2663,25.8735],[74.2921,25.9798],[74.3505,26.0234],[74.3892,25.9637],[74.5431,25.8772],[74.7152,25.9211],[74.7797,25.8825],[74.9253,25.8774],[74.9865,25.8506],[74.9426,26.0251],[74.8571,26.106],[74.7851,26.1152],[74.7756,26.1957],[74.6658,26.1524],[74.5887,26.2335],[74.5053,26.183],[74.4356,26.2307],[74.3738,26.2064],[74.3032,26.2503],[74.2915,26.4467],[74.1023,26.416],[73.8711,26.4289]]]},"properties":{"district":"BEAWAR"}},
{"type":"Feature","geometry":{"type":"Polygon","coordinates":[[[73.032,26.2068],[73.0396,26.286],[73.0886,26.2373],[73.0877,26.3489],[73.0563,26.3723],[72.9567,26.264],[73.032,26.2068]]]},"properties":{"district":"JODHPUR"}},
{"type":"Feature","geometry":{"type":"Polygon","coordinates":[[[73.3203,26.0106],[73.2438,26.0741],[73.1626,26.0315],[73.0492,26.011],[72.9586,25.9004],[72.8347,25.8633],[72.7779,25.802],[72.8905,25.7364],[72.9356,25.636],[73.0343,25.5747],[73.0912,25.4671],[73.008,25.357],[72.9977,25.2778],[72.9362,25.2432],[72.9958,25.1461],[73.0534,25.1597],[73.1312,25.0765],[72.9963,24.9617],[72.9922,24.9235],[73.1483,24.8459],[73.1462,24.7482],[73.2098,24.7848],[73.3313,24.9058],[73.3443,25.0107],[73.4101,25.088],[73.4877,25.1047],[73.6015,25.2058],[73.61,25.2866],[73.6668,25.3434],[73.7342,25.3822],[73.864,25.6495],[73.9093,25.6845],[73.9249,25.7898],[74.0012,25.8647],[74.0529,25.9252],[73.9756,25.9707],[74.1066,26.0975],[73.9883,26.1345],[73.8068,26.1033],[73.6478,26.0796],[73.5585,26.103],[73.4638,26.0837],[73.4021,26.1603],[73.3411,26.1154],[73.3203,26.0106]]]},"properties":{"district":"PALI"}},
{"type":"Feature","geometry":{"type":"Polygon","coordinates":[[[74.8715,26.2297],[74.7756,26.1957],[74.7851,26.1152],[74.8571,26.106],[74.9426,26.0251],[74.9865,25.8506],[75.1301,25.7047],[75.2508,25.6851],[75.3154,25.7663],[75.2645,25.8545],[75.2507,25.9407],[75.3453,26.0244],[75.3069,26.0838],[75.1813,26.117],[75.1575,26.1816],[75.0613,26.1595],[74.8715,26.2297]]]},"properties":{"district":"KEKRI"}},
{"type":"Feature","geometry":{"type":"Polygon","coordinates":[[[74.3892,25.9637],[74.3439,25.9009],[74.2663,25.8735],[74.2557,25.8697],[74.1945,25.8539],[74.1838,25.8492],[74.2064,25.774],[74.1706,25.7322],[74.0169,25.4368],[74.0651,25.4322],[74.0247,25.3917],[74.0579,25.1468],[74.1661,25.1266],[74.1881,25.0595],[74.26,25.0636],[74.3892,25.1924],[74.4914,25.2017],[74.5374,25.1467],[74.6558,25.1812],[74.754,25.2153],[74.7955,25.1526],[74.9096,25.1756],[75.0629,25.1145],[75.204,25.09],[75.1924,25.0335],[75.3513,25.019],[75.4462,25.0231],[75.4025,25.1024],[75.4415,25.1409],[75.4515,25.241],[75.4024,25.2896],[75.2968,25.3821],[75.0404,25.4442],[74.9279,25.3984],[74.9009,25.273],[74.7981,25.2613],[74.7943,25.4048],[74.8378,25.4453],[74.7983,25.5017],[74.7261,25.4321],[74.6409,25.4281],[74.5578,25.5279],[74.6869,25.7537],[74.7979,25.7928],[74.7797,25.8825],[74.7152,25.9211],[74.5431,25.8772],[74.3892,25.9637]]]},"properties":{"district":"BHILWARA"}},
{"type":"Feature","geometry":{"type":"Polygon","coordinates":[[[72.7779,25.802],[72.7168,25.6356],[72.5496,25.5645],[72.5591,25.5304],[72.4215,25.439],[72.342,25.4464],[72.3075,25.3833],[72.1617,25.4356],[72.1071,25.4199],[72.0559,25.4819],[72.0041,25.4463],[71.976,25.416],[72.0463,25.3491],[72.0124,25.1737],[72.2909,25.1667],[72.4126,25.2736],[72.4727,25.1416],[72.5135,25.1359],[72.6381,25.0157],[72.8287,25.2846],[72.9362,25.2432],[72.9977,25.2778],[73.008,25.357],[73.0912,25.4671],[73.0343,25.5747],[72.9356,25.636],[72.8905,25.7364],[72.7779,25.802]]]},"properties":{"district":"JALOR"}},
{"type":"Feature","geometry":{"type":"MultiPolygon","coordinates":[[[[74.055,25.8285],[73.951,25.6475],[73.9093,25.6845],[73.864,25.6495],[73.7342,25.3822],[73.6668,25.3434],[73.61,25.2866],[73.6015,25.2058],[73.4877,25.1047],[73.5318,25.0118],[73.536,24.9228],[73.5943,24.7916],[73.7213,24.7733],[73.7792,24.7561],[73.7973,24.8646],[73.8394,24.9072],[73.9522,24.8461],[74.1165,24.8508],[74.1432,24.8811],[74.26,25.0636],[74.1881,25.0595],[74.1661,25.1266],[74.0579,25.1468],[74.0247,25.3917],[74.0651,25.4322],[74.0169,25.4368],[74.1706,25.7322],[74.2064,25.774],[74.1838,25.8492],[74.1169,25.8652],[74.055,25.8285]]],[[[74.3505,26.0234],[74.2921,25.9798],[74.2663,25.8735],[74.3439,25.9009],[74.3892,25.9637],[74.3505,26.0234]]]]},"properties":{"district":"RAJSAMAND"}},
{"type":"Feature","geometry":{"type":"Polygon","coordinates":[[[74.7797,25.8825],[74.7979,25.7928],[74.6869,25.7537],[74.5578,25.5279],[74.6409,25.4281],[74.7261,25.4321],[74.7983,25.5017],[74.8378,25.4453],[74.7943,25.4048],[74.7981,25.2613],[74.9009,25.273],[74.9279,25.3984],[75.0404,25.4442],[75.2968,25.3821],[75.3583,25.5382],[75.4307,25.6223],[75.4608,25.7207],[75.4152,25.7669],[75.3154,25.7663],[75.2508,25.6851],[75.1301,25.7047],[74.9865,25.8506],[74.9253,25.8774],[74.7797,25.8825]]]},"properties":{"district":"SHAHPURA"}},
{"type":"Feature","geometry":{"type":"Polygon","coordinates":[[[75.4608,25.7207],[75.4307,25.6223],[75.3583,25.5382],[75.2968,25.3821],[75.4024,25.2896],[75.4515,25.241],[75.4415,25.1409],[75.4025,25.1024],[75.4462,25.0231],[75.6165,24.9945],[75.7439,25.1182],[75.7333,25.1486],[75.7544,25.194],[75.7784,25.2283],[75.9064,25.2688],[76.0038,25.2613],[76.0202,25.3076],[76.1304,25.348],[76.1384,25.4107],[76.267,25.5111],[76.3135,25.6595],[76.1987,25.6982],[76.1492,25.7626],[76.0444,25.8129],[76.0078,25.8809],[75.9298,25.8355],[75.8501,25.8693],[75.7663,25.8204],[75.7419,25.7541],[75.6588,25.7493],[75.616,25.6803],[75.5077,25.7395],[75.4608,25.7207]]]},"properties":{"district":"BUNDI"}},
{"type":"Feature","geometry":{"type":"Polygon","coordinates":[[[76.3118,25.8115],[76.1492,25.7626],[76.1987,25.6982],[76.3135,25.6595],[76.267,25.5111],[76.1384,25.4107],[76.1304,25.348],[76.0202,25.3076],[76.0038,25.2613],[75.9064,25.2688],[75.7784,25.2283],[75.7544,25.194],[75.7333,25.1486],[75.7439,25.1182],[75.6165,24.9945],[75.749,24.8854],[75.8155,24.8634],[75.7848,24.7617],[75.8257,24.6678],[75.9178,24.5396],[76.0574,24.5636],[76.0621,24.6695],[76.1033,24.6903],[76.1816,24.6321],[76.2269,24.8116],[76.3594,24.8705],[76.4428,24.8308],[76.4406,24.7824],[76.5744,24.8586],[76.4686,24.9327],[76.4096,24.9797],[76.2954,24.9647],[76.1974,25.1262],[76.2481,25.2398],[76.2852,25.2495],[76.3227,25.3817],[76.4378,25.3847],[76.5697,25.4393],[76.517,25.5268],[76.5153,25.7737],[76.5665,25.8489],[76.4734,25.8337],[76.4416,25.7742],[76.3561,25.741],[76.3118,25.8115]]]},"properties":{"district":"KOTA"}},
{"type":"Feature","geometry":{"type":"Polygon","coordinates":[[[72.5135,25.1359],[72.4727,25.1416],[72.4126,25.2736],[72.2909,25.1667],[72.0124,25.1737],[72.0463,25.3491],[71.976,25.416],[71.9169,25.3458],[71.9332,25.2797],[71.8469,25.2009],[71.8176,25.1204],[71.7381,25.0677],[71.6828,24.987],[71.6342,25.0341],[71.557,24.9835],[71.5033,25.0088],[71.3484,24.942],[71.3277,24.8455],[71.2438,24.8012],[71.2655,24.7459],[71.189,24.6473],[71.2875,24.616],[71.3774,24.6256],[71.4778,24.6796],[71.7064,24.6612],[71.8665,24.6758],[71.9255,24.6359],[72.0581,24.7123],[72.1648,24.621],[72.3351,24.6329],[72.3119,24.6743],[72.3732,24.7652],[72.4775,24.7529],[72.497,24.9072],[72.5674,24.9349],[72.6381,25.0157],[72.5135,25.1359]]]},"properties":{"district":"SANCHORE"}},
{"type":"Feature","geometry":{"type":"Polygon","coordinates":[[[72.9362,25.2432],[72.8287,25.2846],[72.6381,25.0157],[72.5674,24.9349],[72.497,24.9072],[72.4775,24.7529],[72.3732,24.7652],[72.3119,24.6743],[72.3351,24.6329],[72.3537,24.5635],[72.4575,24.4155],[72.539,24.5194],[72.6554,24.4622],[72.7243,24.3673],[72.8498,24.3722],[72.911,24.3372],[72.973,24.4241],[73.0021,24.4828],[73.048,24.5521],[73.0558,24.5535],[73.1492,24.7196],[73.1462,24.7482],[73.1483,24.8459],[72.9922,24.9235],[72.9963,24.9617],[73.1312,25.0765],[73.0534,25.1597],[72.9958,25.1461],[72.9362,25.2432]]]},"properties":{"district":"SIROHI"}},
{"type":"Feature","geometry":{"type":"Polygon","coordinates":[[[76.2481,25.2398],[76.1974,25.1262],[76.2954,24.9647],[76.4096,24.9797],[76.4686,24.9327],[76.5744,24.8586],[76.4406,24.7824],[76.4764,24.659],[76.5209,24.603],[76.5353,24.5101],[76.5768,24.4717],[76.6743,24.4389],[76.8449,24.4363],[76.8178,24.5347],[76.921,24.5318],[76.9774,24.4615],[77.0709,24.568],[77.0268,24.7142],[76.9619,24.7571],[76.8665,24.7456],[76.8166,24.829],[76.9275,24.8472],[76.922,24.9147],[76.8624,24.9608],[76.8762,25.0411],[76.9999,25.0747],[77.0845,25.0542],[77.1742,25.1117],[77.2702,25.116],[77.3108,25.0799],[77.3941,25.1198],[77.4115,25.2236],[77.3149,25.4315],[77.234,25.3783],[77.2091,25.3062],[77.0827,25.3358],[76.9576,25.2841],[76.8532,25.3324],[76.7768,25.3156],[76.6143,25.3836],[76.5697,25.4393],[76.4378,25.3847],[76.3227,25.3817],[76.2852,25.2495],[76.2481,25.2398]]]},"properties":{"district":"BARAN"}},
{"type":"Feature","geometry":{"type":"MultiPolygon","coordinates":[[[[74.26,25.0636],[74.1432,24.8811],[74.1165,24.8508],[74.1153,24.7345],[74.153,24.6677],[74.2031,24.6547],[74.2712,24.5763],[74.2561,24.481],[74.3614,24.4017],[74.3436,24.3531],[74.3799,24.2808],[74.4848,24.2261],[74.5564,24.1205],[74.5264,23.9465],[74.7543,24.0749],[74.8236,24.202],[74.8896,24.2286],[74.7568,24.2642],[74.5932,24.2554],[74.5194,24.3322],[74.498,24.4154],[74.5474,24.4775],[74.5636,24.5754],[74.5401,24.7227],[74.6107,24.7161],[74.6346,24.7747],[74.7342,24.7706],[74.7804,24.7304],[74.8088,24.7802],[74.838,24.7972],[74.8409,24.967],[74.9587,24.858],[75.0338,24.8445],[75.1168,24.8778],[75.1137,24.9666],[75.1924,25.0335],[75.204,25.09],[75.0629,25.1145],[74.9096,25.1756],[74.7955,25.1526],[74.754,25.2153],[74.6558,25.1812],[74.5374,25.1467],[74.4914,25.2017],[74.3892,25.1924],[74.26,25.0636]]],[[[75.4462,25.0231],[75.3513,25.019],[75.337,24.9551],[75.2677,24.8998],[75.1929,24.7733],[75.2281,24.7173],[75.4575,24.6804],[75.534,24.712],[75.6463,24.6851],[75.7848,24.7617],[75.8155,24.8634],[75.749,24.8854],[75.6165,24.9945],[75.4462,25.0231]]]]},"properties":{"district":"CHITTAURGARH"}},
{"type":"Feature","geometry":{"type":"Polygon","coordinates":[[[73.1462,24.7482],[73.1492,24.7196],[73.0558,24.5535],[73.048,24.5521],[73.0021,24.4828],[73.087,24.4976],[73.0743,24.3973],[73.152,24.354],[73.0657,24.1935],[73.2429,24.0021],[73.361,24.1043],[73.4151,23.9854],[73.3538,23.8528],[73.3626,23.8126],[73.4637,23.8398],[73.5148,23.9298],[73.5731,23.9622],[73.7814,23.9405],[73.8708,23.9592],[73.8873,24.0618],[73.8416,24.113],[73.6882,24.2182],[73.7647,24.291],[73.7238,24.4812],[73.7397,24.5113],[73.8547,24.4459],[73.8922,24.3902],[74.0819,24.4016],[74.2163,24.4245],[74.3436,24.3531],[74.3614,24.4017],[74.2561,24.481],[74.2712,24.5763],[74.2031,24.6547],[74.153,24.6677],[74.1153,24.7345],[74.1165,24.8508],[73.9522,24.8461],[73.8394,24.9072],[73.7973,24.8646],[73.7792,24.7561],[73.7213,24.7733],[73.5943,24.7916],[73.536,24.9228],[73.5318,25.0118],[73.4877,25.1047],[73.4101,25.088],[73.3443,25.0107],[73.3313,24.9058],[73.2098,24.7848],[73.1462,24.7482]]]},"properties":{"district":"UDAIPUR"}},
{"type":"Feature","geometry":{"type":"Polygon","coordinates":[[[76.1816,24.6321],[76.1033,24.6903],[76.0621,24.6695],[76.0574,24.5636],[75.9178,24.5396],[75.8999,24.442],[75.7494,24.4245],[75.7399,24.3321],[75.8106,24.2962],[75.83,24.2336],[75.7507,24.1435],[75.7816,24.0426],[75.7411,23.9769],[75.6713,24.0179],[75.5817,23.9912],[75.5213,24.0246],[75.4594,23.9194],[75.5638,23.8568],[75.5839,23.7948],[75.7214,23.8117],[75.7938,23.867],[75.9375,23.8966],[75.9819,23.9296],[75.9715,24.0201],[76.1267,24.0886],[76.1178,24.1945],[76.1429,24.2827],[76.2028,24.3048],[76.212,24.2113],[76.3634,24.2327],[76.5041,24.2036],[76.5229,24.1568],[76.6422,24.2693],[76.6759,24.1908],[76.7901,24.1227],[76.9006,24.1274],[76.9456,24.2058],[76.8631,24.2734],[76.8323,24.3576],[76.8449,24.4363],[76.6743,24.4389],[76.5768,24.4717],[76.5353,24.5101],[76.5209,24.603],[76.4764,24.659],[76.4406,24.7824],[76.4428,24.8308],[76.3594,24.8705],[76.2269,24.8116],[76.1816,24.6321]]]},"properties":{"district":"JHALAWAR"}},
{"type":"Feature","geometry":{"type":"MultiPolygon","coordinates":[[[[74.5401,24.7227],[74.5636,24.5754],[74.5474,24.4775],[74.498,24.4154],[74.5194,24.3322],[74.5932,24.2554],[74.7568,24.2642],[74.7811,24.3383],[74.8551,24.4243],[74.7443,24.4685],[74.8038,24.6337],[74.7804,24.7304],[74.7342,24.7706],[74.6346,24.7747],[74.6107,24.7161],[74.5401,24.7227]]],[[[74.8088,24.7802],[74.8768,24.6427],[74.93,24.6352],[74.9929,24.6926],[74.9729,24.7634],[74.838,24.7972],[74.8088,24.7802]]],[[[74.0819,24.4016],[74.1483,24.3226],[74.111,24.2447],[74.1015,24.0587],[74.0771,23.9684],[74.1609,24.0051],[74.219,23.9072],[74.274,23.9559],[74.3806,23.905],[74.5495,23.8792],[74.6873,23.8889],[74.7873,23.8016],[74.6906,23.6546],[74.7679,23.595],[74.7711,23.5425],[74.8472,23.5517],[74.9365,23.6283],[74.94,23.7644],[74.9032,23.853],[74.9392,24.0535],[74.8798,24.1734],[74.8896,24.2286],[74.8236,24.202],[74.7543,24.0749],[74.5264,23.9465],[74.5564,24.1205],[74.4848,24.2261],[74.3799,24.2808],[74.3436,24.3531],[74.2163,24.4245],[74.0819,24.4016]]]]},"properties":{"district":"PRATAPGARH"}},
{"type":"Feature","geometry":{"type":"Polygon","coordinates":[[[73.8547,24.4459],[73.7397,24.5113],[73.7238,24.4812],[73.7647,24.291],[73.6882,24.2182],[73.8416,24.113],[73.8873,24.0618],[73.8708,23.9592],[73.9183,23.9854],[74.0771,23.9684],[74.1015,24.0587],[74.111,24.2447],[74.1483,24.3226],[74.0819,24.4016],[73.8922,24.3902],[73.8547,24.4459]]]},"properties":{"district":"SALUMBAR"}},
{"type":"Feature","geometry":{"type":"Polygon","coordinates":[[[73.8708,23.9592],[73.7814,23.9405],[73.5731,23.9622],[73.5148,23.9298],[73.4637,23.8398],[73.3626,23.8126],[73.4736,23.7054],[73.5236,23.6069],[73.5911,23.6539],[73.6554,23.6209],[73.6274,23.4485],[73.7672,23.4529],[73.8302,23.4262],[73.8936,23.333],[73.9575,23.3793],[73.9822,23.4127],[73.9953,23.4197],[74.0314,23.5486],[74.1169,23.6112],[74.1358,23.7676],[74.1754,23.7952],[74.3806,23.905],[74.274,23.9559],[74.219,23.9072],[74.1609,24.0051],[74.0771,23.9684],[73.9183,23.9854],[73.8708,23.9592]]]},"properties":{"district":"DUNGARPUR"}},
{"type":"Feature","geometry":{"type":"Polygon","coordinates":[[[74.3806,23.905],[74.1754,23.7952],[74.1358,23.7676],[74.1169,23.6112],[74.0314,23.5486],[73.9953,23.4197],[73.9822,23.4127],[73.9575,23.3793],[74.1327,23.2661],[74.1208,23.1771],[74.1787,23.1474],[74.2414,23.1815],[74.3416,23.0678],[74.3862,23.1114],[74.5281,23.0977],[74.7021,23.2143],[74.5301,23.3307],[74.613,23.462],[74.7284,23.4962],[74.7711,23.5425],[74.7679,23.595],[74.6906,23.6546],[74.7873,23.8016],[74.6873,23.8889],[74.5495,23.8792],[74.3806,23.905]]]},"properties":{"district":"BANSWARA"}}
]}