{"type":"FeatureCollection","features":[{"type":"Feature","geometry":{"type":"Polygon","coordinates":[[[73.7319,15.7228],[73.8123,15.6525],[73.8838,15.6852],[73.945,15.6994],[73.8757,15.7511],[73.7319,15.7228]]]},"properties":{"AC_NO":2,"AC_NAME":"Pernem (SC)","PC_NO":1,"PC_NAME":"NORTH GOA","district":"NORTH GOA"}},{"type":"Feature","geometry":{"type":"Polygon","coordinates":[[[73.6754,15.727],[73.7304,15.6225],[73.7725,15.64],[73.8123,15.6525],[73.7319,15.7228],[73.6754,15.727]]]},"properties":{"AC_NO":1,"AC_NAME":"Mandrem","PC_NO":1,"PC_NAME":"NORTH GOA","district":"NORTH GOA"}},{"type":"Feature","geometry":{"type":"Polygon","coordinates":[[[73.945,15.6994],[73.8838,15.6852],[73.9007,15.6186],[73.9726,15.628],[73.945,15.6994]]]},"properties":{"AC_NO":3,"AC_NAME":"Bicholim","PC_NO":1,"PC_NAME":"NORTH GOA","district":"NORTH GOA"}},{"type":"Feature","geometry":{"type":"Polygon","coordinates":[[[73.9007,15.6186],[73.8838,15.6852],[73.8123,15.6525],[73.7725,15.64],[73.8139,15.6244],[73.8337,15.6076],[73.8876,15.6129],[73.9007,15.6186]]]},"properties":{"AC_NO":4,"AC_NAME":"Tivim","PC_NO":1,"PC_NAME":"NORTH GOA","district":"NORTH GOA"}},{"type":"Feature","geometry":{"type":"Polygon","coordinates":[[[74.2026,15.6542],[74.1176,15.6517],[74.0172,15.6076],[74.0093,15.5703],[74.0941,15.4713],[74.2026,15.6542]]]},"properties":{"AC_NO":18,"AC_NAME":"Poriem","PC_NO":1,"PC_NAME":"NORTH GOA","district":"NORTH GOA"}},{"type":"Feature","geometry":{"type":"Polygon","coordinates":[[[74.2026,15.6542],[74.0941,15.4713],[74.0418,15.4506],[74.0365,15.45],[74.0536,15.4109],[74.0719,15.4124],[74.2509,15.4933],[74.2786,15.5228],[74.2505,15.6578],[74.2026,15.6542]]]},"properties":{"AC_NO":19,"AC_NAME":"Valpoi","PC_NO":1,"PC_NAME":"NORTH GOA","district":"NORTH GOA"}},{"type":"Feature","geometry":{"type":"Polygon","coordinates":[[[73.8139,15.6244],[73.7725,15.64],[73.7304,15.6225],[73.7412,15.5653],[73.797,15.5738],[73.7981,15.5783],[73.8139,15.6244]]]},"properties":{"AC_NO":6,"AC_NAME":"Siolim","PC_NO":1,"PC_NAME":"NORTH GOA","district":"NORTH GOA"}},{"type":"Feature","geometry":{"type":"Polygon","coordinates":[[[73.8337,15.6076],[73.8139,15.6244],[73.7981,15.5783],[73.8104,15.5803],[73.8337,15.6076]]]},"properties":{"AC_NO":5,"AC_NAME":"Mapusa","PC_NO":1,"PC_NAME":"NORTH GOA","district":"NORTH GOA"}},{"type":"Feature","geometry":{"type":"Polygon","coordinates":[[[73.9726,15.628],[73.9007,15.6186],[73.8876,15.6129],[73.8696,15.5582],[73.8599,15.5261],[73.9194,15.5415],[73.9603,15.5419],[73.9619,15.5395],[74.0093,15.5703],[74.0172,15.6076],[73.9726,15.628]]]},"properties":{"AC_NO":16,"AC_NAME":"Maem","PC_NO":1,"PC_NAME":"NORTH GOA","district":"NORTH GOA"}},{"type":"Feature","geometry":{"type":"Polygon","coordinates":[[[73.8876,15.6129],[73.8337,15.6076],[73.8104,15.5803],[73.8222,15.5644],[73.8696,15.5582],[73.8876,15.6129]]]},"properties":{"AC_NO":10,"AC_NAME":"Aldona","PC_NO":1,"PC_NAME":"NORTH GOA","district":"NORTH GOA"}},{"type":"Feature","geometry":{"type":"Polygon","coordinates":[[[73.797,15.5738],[73.7412,15.5653],[73.7828,15.498],[73.797,15.5738]]]},"properties":{"AC_NO":8,"AC_NAME":"Calangute","PC_NO":1,"PC_NAME":"NORTH GOA","district":"NORTH GOA"}},{"type":"Feature","geometry":{"type":"Polygon","coordinates":[[[73.8104,15.5803],[73.7981,15.5783],[73.797,15.5738],[73.7828,15.498],[73.8059,15.4958],[73.8281,15.5086],[73.8222,15.5644],[73.8104,15.5803]]]},"properties":{"AC_NO":7,"AC_NAME":"Saligao","PC_NO":1,"PC_NAME":"NORTH GOA","district":"NORTH GOA"}},{"type":"Feature","geometry":{"type":"Polygon","coordinates":[[[73.8222,15.5644],[73.8281,15.5086],[73.8599,15.5261],[73.8696,15.5582],[73.8222,15.5644]]]},"properties":{"AC_NO":9,"AC_NAME":"Porvorim","PC_NO":1,"PC_NAME":"NORTH GOA","district":"NORTH GOA"}},{"type":"Feature","geometry":{"type":"Polygon","coordinates":[[[74.0093,15.5703],[73.9619,15.5395],[74.0418,15.4506],[74.0941,15.4713],[74.0093,15.5703]]]},"properties":{"AC_NO":17,"AC_NAME":"Sanquelim","PC_NO":1,"PC_NAME":"NORTH GOA","district":"NORTH GOA"}},{"type":"Feature","geometry":{"type":"Polygon","coordinates":[[[73.9603,15.5419],[73.9194,15.5415],[73.8938,15.5026],[73.8959,15.4903],[73.9349,15.4372],[73.9365,15.4348],[73.9558,15.4685],[73.9603,15.5419]]]},"properties":{"AC_NO":15,"AC_NAME":"Cumbarjua","PC_NO":1,"PC_NAME":"NORTH GOA","district":"NORTH GOA"}},{"type":"Feature","geometry":{"type":"Polygon","coordinates":[[[73.9619,15.5395],[73.9603,15.5419],[73.9558,15.4685],[73.9999,15.4152],[74.0365,15.45],[74.0418,15.4506],[73.9619,15.5395]]]},"properties":{"AC_NO":20,"AC_NAME":"Priol","PC_NO":1,"PC_NAME":"NORTH GOA","district":"NORTH GOA"}},{"type":"Feature","geometry":{"type":"Polygon","coordinates":[[[73.8348,15.5003],[73.8258,15.476],[73.832,15.4526],[73.8399,15.4491],[73.8959,15.4903],[73.8938,15.5026],[73.8348,15.5003]]]},"properties":{"AC_NO":13,"AC_NAME":"St. Cruz","PC_NO":1,"PC_NAME":"NORTH GOA","district":"NORTH GOA"}},{"type":"Feature","geometry":{"type":"Polygon","coordinates":[[[73.8143,15.492],[73.8081,15.475],[73.8258,15.476],[73.8348,15.5003],[73.8143,15.492]]]},"properties":{"AC_NO":11,"AC_NAME":"Panaji","PC_NO":1,"PC_NAME":"NORTH GOA","district":"NORTH GOA"}},{"type":"Feature","geometry":{"type":"Polygon","coordinates":[[[73.8959,15.4903],[73.8399,15.4491],[73.9349,15.4372],[73.8959,15.4903]]]},"properties":{"AC_NO":14,"AC_NAME":"St. Andre","PC_NO":1,"PC_NAME":"NORTH GOA","district":"NORTH GOA"}},{"type":"Feature","geometry":{"type":"Polygon","coordinates":[[[73.8258,15.476],[73.8081,15.475],[73.832,15.4526],[73.8258,15.476]]]},"properties":{"AC_NO":12,"AC_NAME":"Taleigao","PC_NO":1,"PC_NAME":"NORTH GOA","district":"NORTH GOA"}},{"type":"Feature","geometry":{"type":"Polygon","coordinates":[[[74.2509,15.4933],[74.0719,15.4124],[74.1022,15.2722],[74.1253,15.2665],[74.2514,15.2579],[74.3261,15.2837],[74.2509,15.4933]]]},"properties":{"AC_NO":38,"AC_NAME":"Sanvordem","PC_NO":2,"PC_NAME":"SOUTH GOA","district":"SOUTH GOA"}},{"type":"Feature","geometry":{"type":"Polygon","coordinates":[[[73.9558,15.4685],[73.9365,15.4348],[73.9228,15.4054],[73.9573,15.376],[73.9768,15.3675],[74.0015,15.3827],[73.9999,15.4152],[73.9558,15.4685]]]},"properties":{"AC_NO":23,"AC_NAME":"Marcaim","PC_NO":2,"PC_NAME":"SOUTH GOA","district":"NORTH GOA"}},{"type":"Feature","geometry":{"type":"Polygon","coordinates":[[[74.0365,15.45],[73.9999,15.4152],[74.0015,15.3827],[74.0536,15.4109],[74.0365,15.45]]]},"properties":{"AC_NO":21,"AC_NAME":"Ponda","PC_NO":2,"PC_NAME":"SOUTH GOA","district":"NORTH GOA"}},{"type":"Feature","geometry":{"type":"Polygon","coordinates":[[[73.8067,15.3994],[73.7949,15.4144],[73.7839,15.4137],[73.7915,15.3943],[73.8061,15.3937],[73.8067,15.3994]]]},"properties":{"AC_NO":24,"AC_NAME":"Mormugao","PC_NO":2,"PC_NAME":"SOUTH GOA","district":"SOUTH GOA"}},{"type":"Feature","geometry":{"type":"Polygon","coordinates":[[[73.8067,15.3994],[73.8061,15.3937],[73.8243,15.3708],[73.8292,15.4071],[73.8067,15.3994]]]},"properties":{"AC_NO":25,"AC_NAME":"Vasco-Da-Gama","PC_NO":2,"PC_NAME":"SOUTH GOA","district":"SOUTH GOA"}},{"type":"Feature","geometry":{"type":"Polygon","coordinates":[[[73.8292,15.4071],[73.8243,15.3708],[73.8544,15.3663],[73.8629,15.4014],[73.8292,15.4071]]]},"properties":{"AC_NO":26,"AC_NAME":"Dabolim","PC_NO":2,"PC_NAME":"SOUTH GOA","district":"SOUTH GOA"}},{"type":"Feature","geometry":{"type":"Polygon","coordinates":[[[73.9228,15.4054],[73.8629,15.4014],[73.8544,15.3663],[73.8974,15.3237],[73.9573,15.376],[73.9228,15.4054]]]},"properties":{"AC_NO":27,"AC_NAME":"Cortalim","PC_NO":2,"PC_NAME":"SOUTH GOA","district":"SOUTH GOA"}},{"type":"Feature","geometry":{"type":"Polygon","coordinates":[[[74.0719,15.4124],[74.0536,15.4109],[74.0015,15.3827],[73.9768,15.3675],[74.0055,15.3336],[74.0465,15.3012],[74.0754,15.2767],[74.1022,15.2722],[74.0719,15.4124]]]},"properties":{"AC_NO":22,"AC_NAME":"Siroda","PC_NO":2,"PC_NAME":"SOUTH GOA","district":"NORTH GOA"}},{"type":"Feature","geometry":{"type":"Polygon","coordinates":[[[73.9768,15.3675],[73.9573,15.376],[73.8974,15.3237],[73.9091,15.2882],[73.9456,15.2955],[73.9599,15.3042],[74.0055,15.3336],[73.9768,15.3675]]]},"properties":{"AC_NO":28,"AC_NAME":"Nuvem","PC_NO":2,"PC_NAME":"SOUTH GOA","district":"SOUTH GOA"}},{"type":"Feature","geometry":{"type":"Polygon","coordinates":[[[74.0055,15.3336],[73.9599,15.3042],[73.9941,15.2817],[73.9935,15.2791],[73.9984,15.267],[74.0328,15.2655],[74.0465,15.3012],[74.0055,15.3336]]]},"properties":{"AC_NO":29,"AC_NAME":"Curtorim","PC_NO":2,"PC_NAME":"SOUTH GOA","district":"SOUTH GOA"}},{"type":"Feature","geometry":{"type":"Polygon","coordinates":[[[73.9941,15.2817],[73.9599,15.3042],[73.9456,15.2955],[73.9458,15.2936],[73.9941,15.2817]]]},"properties":{"AC_NO":30,"AC_NAME":"Fatorda","PC_NO":2,"PC_NAME":"SOUTH GOA","district":"SOUTH GOA"}},{"type":"Feature","geometry":{"type":"Polygon","coordinates":[[[73.9456,15.2955],[73.9091,15.2882],[73.9424,15.1703],[73.9624,15.2243],[73.9571,15.2705],[73.9458,15.2936],[73.9456,15.2955]]]},"properties":{"AC_NO":32,"AC_NAME":"Benaulim","PC_NO":2,"PC_NAME":"SOUTH GOA","district":"SOUTH GOA"}},{"type":"Feature","geometry":{"type":"Polygon","coordinates":[[[74.0754,15.2767],[74.0465,15.3012],[74.0328,15.2655],[73.996,15.1567],[74.0692,15.207],[74.0559,15.2595],[74.0754,15.2767]]]},"properties":{"AC_NO":34,"AC_NAME":"Cuncolim","PC_NO":2,"PC_NAME":"SOUTH GOA","district":"SOUTH GOA"}},{"type":"Feature","geometry":{"type":"Polygon","coordinates":[[[73.9941,15.2817],[73.9458,15.2936],[73.9571,15.2705],[73.9935,15.2791],[73.9941,15.2817]]]},"properties":{"AC_NO":31,"AC_NAME":"Margao","PC_NO":2,"PC_NAME":"SOUTH GOA","district":"SOUTH GOA"}},{"type":"Feature","geometry":{"type":"Polygon","coordinates":[[[73.9935,15.2791],[73.9571,15.2705],[73.9624,15.2243],[73.9984,15.267],[73.9935,15.2791]]]},"properties":{"AC_NO":33,"AC_NAME":"Navelim","PC_NO":2,"PC_NAME":"SOUTH GOA","district":"SOUTH GOA"}},{"type":"Feature","geometry":{"type":"Polygon","coordinates":[[[74.1022,15.2722],[74.0754,15.2767],[74.0559,15.2595],[74.095,15.1925],[74.1253,15.2665],[74.1022,15.2722]]]},"properties":{"AC_NO":37,"AC_NAME":"Curchorem","PC_NO":2,"PC_NAME":"SOUTH GOA","district":"SOUTH GOA"}},{"type":"Feature","geometry":{"type":"Polygon","coordinates":[[[74.0328,15.2655],[73.9984,15.267],[73.9624,15.2243],[73.9424,15.1703],[73.9493,15.1434],[73.996,15.1567],[74.0328,15.2655]]]},"properties":{"AC_NO":35,"AC_NAME":"Velim","PC_NO":2,"PC_NAME":"SOUTH GOA","district":"SOUTH GOA"}},{"type":"Feature","geometry":{"type":"Polygon","coordinates":[[[74.2514,15.2579],[74.1253,15.2665],[74.095,15.1925],[74.06,15.1022],[74.1265,15.0717],[74.2535,14.9974],[74.2954,15.0456],[74.3167,15.1869],[74.2514,15.2579]]]},"properties":{"AC_NO":39,"AC_NAME":"Sanguem","PC_NO":2,"PC_NAME":"SOUTH GOA","district":"SOUTH GOA"}},{"type":"Feature","geometry":{"type":"Polygon","coordinates":[[[74.0559,15.2595],[74.0692,15.207],[73.996,15.1567],[73.9493,15.1434],[73.9818,15.055],[74.1265,15.0717],[74.06,15.1022],[74.095,15.1925],[74.0559,15.2595]]]},"properties":{"AC_NO":36,"AC_NAME":"Quepem","PC_NO":2,"PC_NAME":"SOUTH GOA","district":"SOUTH GOA"}},{"type":"Feature","geometry":{"type":"Polygon","coordinates":[[[74.1265,15.0717],[73.9818,15.055],[74.0857,14.9006],[74.2535,14.9974],[74.1265,15.0717]]]},"properties":{"AC_NO":40,"AC_NAME":"Canacona","PC_NO":2,"PC_NAME":"SOUTH GOA","district":"SOUTH GOA"}}]}