{"type":"FeatureCollection", "features": [
{"type":"Feature","geometry":{"type":"Polygon","coordinates":[[[73.7319,15.7228],[73.6754,15.727],[73.7304,15.6225],[73.7412,15.5653],[73.7828,15.498],[73.8059,15.4958],[73.8281,15.5086],[73.8599,15.5261],[73.9194,15.5415],[73.8938,15.5026],[73.8348,15.5003],[73.8143,15.492],[73.8081,15.475],[73.832,15.4526],[73.8399,15.4491],[73.9349,15.4372],[73.9365,15.4348],[73.9228,15.4054],[73.9573,15.376],[73.9768,15.3675],[74.0055,15.3336],[74.0465,15.3012],[74.0754,15.2767],[74.1022,15.2722],[74.0719,15.4124],[74.2509,15.4933],[74.2786,15.5228],[74.2505,15.6578],[74.2026,15.6542],[74.1176,15.6517],[74.0172,15.6076],[73.9726,15.628],[73.945,15.6994],[73.8757,15.7511],[73.7319,15.7228]]]},"properties":{"district":"NORTH GOA"}},
{"type":"Feature","geometry":{"type":"Polygon","coordinates":[[[74.0719,15.4124],[74.1022,15.2722],[74.0754,15.2767],[74.0465,15.3012],[74.0055,15.3336],[73.9768,15.3675],[73.9573,15.376],[73.9228,15.4054],[73.8629,15.4014],[73.8292,15.4071],[73.8067,15.3994],[73.7949,15.4144],[73.7839,15.4137],[73.7915,15.3943],[73.8061,15.3937],[73.8243,15.3708],[73.8544,15.3663],[73.8974,15.3237],[73.9091,15.2882],[73.9424,15.1703],[73.9493,15.1434],[73.9818,15.055],[74.0857,14.9006],[74.2535,14.9974],[74.2954,15.0456],[74.3167,15.1869],[74.2514,15.2579],[74.3261,15.2837],[74.2509,15.4933],[74.0719,15.4124]]]},"properties":{"district":"SOUTH GOA"}}
]}