{"type":"FeatureCollection","features":[{"type":"Feature","geometry":{"type":"Polygon","coordinates":[[[76.7712,33.2496],[76.7466,33.1783],[76.7347,33.0827],[76.7803,32.9521],[76.6415,32.854],[76.5107,32.8034],[76.4503,32.8479],[76.3751,32.8195],[76.4396,32.6589],[76.5197,32.6693],[76.6708,32.5697],[76.8648,32.5347],[76.8643,32.4634],[76.9473,32.4032],[77.0753,32.3999],[77.1529,32.4153],[77.3079,32.3338],[77.3877,32.2097],[77.4691,32.2242],[77.743,32.09],[77.7978,31.9876],[77.7663,31.9448],[77.846,31.8022],[77.8682,31.783],[78.0288,31.7579],[78.2012,31.9328],[78.3409,31.9309],[78.4352,31.9701],[78.4496,32.0598],[78.6042,32.0524],[78.6665,32.0889],[78.5902,32.1533],[78.6085,32.2143],[78.4819,32.2798],[78.5348,32.4144],[78.3986,32.5257],[78.3877,32.7569],[78.2195,32.6647],[78.1427,32.6818],[78.0158,32.6198],[77.919,32.69],[77.9259,32.7719],[77.7854,32.8605],[77.8109,32.9068],[77.7131,32.9826],[77.6023,32.9428],[77.469,32.8584],[77.4053,32.8832],[77.3386,32.8169],[77.2739,32.8738],[77.1642,32.9189],[77.1497,32.9781],[77.0126,32.9889],[76.9287,33.032],[76.8344,33.2049],[76.7712,33.2496]]]},"properties":{"AC_NO":21,"AC_NAME":"Lahaul & Spiti (ST)","PC_NO":2,"PC_NAME":"MANDI","district":"LAHUL & SPITI"}},{"type":"Feature","geometry":{"type":"Polygon","coordinates":[[[76.7466,33.1783],[76.6395,33.1617],[76.5613,33.2095],[76.404,33.1859],[76.2858,33.1025],[76.2207,33.023],[75.9497,32.8728],[75.9716,32.8403],[76.0073,32.806],[76.1102,32.7603],[76.0033,32.6086],[76.0985,32.599],[76.1967,32.688],[76.3815,32.6115],[76.4396,32.6589],[76.3751,32.8195],[76.4503,32.8479],[76.5107,32.8034],[76.6415,32.854],[76.7803,32.9521],[76.7347,33.0827],[76.7466,33.1783]]]},"properties":{"AC_NO":1,"AC_NAME":"Churah (SC)","PC_NO":1,"PC_NAME":"KANGRA","district":"CHAMBA"}},{"type":"Feature","geometry":{"type":"Polygon","coordinates":[[[75.9497,32.8728],[75.8326,32.9239],[75.7967,32.8843],[75.9205,32.7477],[75.8967,32.6812],[75.8968,32.6809],[75.8968,32.6808],[75.9162,32.6147],[75.9161,32.6144],[75.9386,32.522],[76.0155,32.5247],[76.0033,32.6086],[76.1102,32.7603],[76.0073,32.806],[75.9716,32.8403],[75.9497,32.8728]]]},"properties":{"AC_NO":4,"AC_NAME":"Dalhousie","PC_NO":1,"PC_NAME":"KANGRA","district":"CHAMBA"}},{"type":"Feature","geometry":{"type":"Polygon","coordinates":[[[76.3815,32.6115],[76.1967,32.688],[76.0985,32.599],[76.0033,32.6086],[76.0155,32.5247],[76.1259,32.4461],[76.2373,32.4675],[76.3815,32.6115]]]},"properties":{"AC_NO":3,"AC_NAME":"Chamba","PC_NO":1,"PC_NAME":"KANGRA","district":"CHAMBA"}},{"type":"Feature","geometry":{"type":"Polygon","coordinates":[[[76.3815,32.6115],[76.2373,32.4675],[76.1259,32.4461],[76.2193,32.3944],[76.359,32.3213],[76.4627,32.247],[76.6535,32.1855],[76.7701,32.2225],[76.7849,32.3731],[76.8643,32.4634],[76.8648,32.5347],[76.6708,32.5697],[76.5197,32.6693],[76.4396,32.6589],[76.3815,32.6115]]]},"properties":{"AC_NO":2,"AC_NAME":"Bharmour (ST)","PC_NO":2,"PC_NAME":"MANDI","district":"CHAMBA"}},{"type":"Feature","geometry":{"type":"Polygon","coordinates":[[[75.9161,32.6144],[75.832,32.5101],[75.936,32.3977],[76.0192,32.3412],[76.0319,32.2694],[76.1274,32.2295],[76.1797,32.2447],[76.1655,32.3538],[76.2193,32.3944],[76.1259,32.4461],[76.0155,32.5247],[75.9386,32.522],[75.9161,32.6144]]]},"properties":{"AC_NO":5,"AC_NAME":"Bhattiyat","PC_NO":1,"PC_NAME":"KANGRA","district":"CHAMBA"}},{"type":"Feature","geometry":{"type":"Polygon","coordinates":[[[76.8643,32.4634],[76.7849,32.3731],[76.7701,32.2225],[76.6535,32.1855],[76.5853,32.0719],[76.6197,31.9271],[76.6744,31.9064],[76.6598,32.0292],[76.7789,32.0644],[76.9357,32.0622],[76.9844,32.1101],[77.0753,32.3999],[76.9473,32.4032],[76.8643,32.4634]]]},"properties":{"AC_NO":20,"AC_NAME":"Baijnath (SC)","PC_NO":1,"PC_NAME":"KANGRA","district":"K>NGRA"}},{"type":"Feature","geometry":{"type":"Polygon","coordinates":[[[75.936,32.3977],[75.8713,32.3946],[75.7526,32.2799],[75.8444,32.1768],[75.9353,32.238],[76.0319,32.2694],[76.0192,32.3412],[75.936,32.3977]]]},"properties":{"AC_NO":6,"AC_NAME":"Nurpur","PC_NO":1,"PC_NAME":"KANGRA","district":"K>NGRA"}},{"type":"Feature","geometry":{"type":"Polygon","coordinates":[[[76.2193,32.3944],[76.1655,32.3538],[76.1797,32.2447],[76.1274,32.2295],[76.0824,32.1327],[76.1149,32.0914],[76.179,32.0587],[76.1703,32.1177],[76.2953,32.1474],[76.3012,32.2304],[76.359,32.3213],[76.2193,32.3944]]]},"properties":{"AC_NO":17,"AC_NAME":"Shahpur","PC_NO":1,"PC_NAME":"KANGRA","district":"K>NGRA"}},{"type":"Feature","geometry":{"type":"Polygon","coordinates":[[[77.0753,32.3999],[76.9844,32.1101],[77.0865,31.9716],[77.1722,31.9841],[77.2134,32.0602],[77.3877,32.2097],[77.3079,32.3338],[77.1529,32.4153],[77.0753,32.3999]]]},"properties":{"AC_NO":22,"AC_NAME":"Manali","PC_NO":2,"PC_NAME":"MANDI","district":"KULLU"}},{"type":"Feature","geometry":{"type":"Polygon","coordinates":[[[76.359,32.3213],[76.3012,32.2304],[76.2953,32.1474],[76.3359,32.1384],[76.4091,32.1416],[76.4627,32.247],[76.359,32.3213]]]},"properties":{"AC_NO":18,"AC_NAME":"Dharamshala","PC_NO":1,"PC_NAME":"KANGRA","district":"K>NGRA"}},{"type":"Feature","geometry":{"type":"Polygon","coordinates":[[[75.7526,32.2799],[75.704,32.2673],[75.6726,32.1589],[75.6025,32.0867],[75.5963,32.086],[75.7429,32.0395],[75.7627,32.1086],[75.7884,32.1256],[75.8336,32.1265],[75.8434,32.1163],[75.8444,32.1768],[75.7526,32.2799]]]},"properties":{"AC_NO":7,"AC_NAME":"Indora (SC)","PC_NO":1,"PC_NAME":"KANGRA","district":"K>NGRA"}},{"type":"Feature","geometry":{"type":"Polygon","coordinates":[[[76.0319,32.2694],[75.9353,32.238],[75.9638,32.1244],[76.0866,32.0384],[76.1149,32.0914],[76.0824,32.1327],[76.1274,32.2295],[76.0319,32.2694]]]},"properties":{"AC_NO":9,"AC_NAME":"Jawali","PC_NO":1,"PC_NAME":"KANGRA","district":"K>NGRA"}},{"type":"Feature","geometry":{"type":"Polygon","coordinates":[[[75.9009,31.9549],[75.9472,31.9673],[75.967,31.985],[75.9518,31.9995],[75.9582,32.009],[75.9579,32.0117],[75.9638,32.1244],[75.9353,32.238],[75.8444,32.1768],[75.8434,32.1163],[75.8336,32.1265],[75.7884,32.1256],[75.7627,32.1086],[75.7429,32.0395],[75.8999,31.9559],[75.9009,31.9549]]]},"properties":{"AC_NO":8,"AC_NAME":"Fatehpur","PC_NO":1,"PC_NAME":"KANGRA","district":"K>NGRA"}},{"type":"Feature","geometry":{"type":"Polygon","coordinates":[[[76.4627,32.247],[76.4091,32.1416],[76.4444,32.1125],[76.5458,32.0324],[76.5853,32.0719],[76.6535,32.1855],[76.4627,32.247]]]},"properties":{"AC_NO":19,"AC_NAME":"Palampur","PC_NO":1,"PC_NAME":"KANGRA","district":"K>NGRA"}},{"type":"Feature","geometry":{"type":"Polygon","coordinates":[[[77.3877,32.2097],[77.2134,32.0602],[77.1722,31.9841],[77.0865,31.9716],[76.9844,32.1101],[76.9357,32.0622],[77.0768,31.8368],[77.3094,31.9339],[77.4769,31.8647],[77.6267,31.8739],[77.725,31.783],[77.846,31.8022],[77.7663,31.9448],[77.7978,31.9876],[77.743,32.09],[77.4691,32.2242],[77.3877,32.2097]]]},"properties":{"AC_NO":23,"AC_NAME":"Kullu","PC_NO":2,"PC_NAME":"MANDI","district":"KULLU"}},{"type":"Feature","geometry":{"type":"Polygon","coordinates":[[[76.4091,32.1416],[76.3359,32.1384],[76.3174,32.061],[76.2415,31.9709],[76.2626,31.9351],[76.41,31.9687],[76.3937,32.0426],[76.4444,32.1125],[76.4091,32.1416]]]},"properties":{"AC_NO":15,"AC_NAME":"Nagrota","PC_NO":1,"PC_NAME":"KANGRA","district":"K>NGRA"}},{"type":"Feature","geometry":{"type":"Polygon","coordinates":[[[76.2953,32.1474],[76.1703,32.1177],[76.179,32.0587],[76.2415,31.9709],[76.3174,32.061],[76.3359,32.1384],[76.2953,32.1474]]]},"properties":{"AC_NO":16,"AC_NAME":"Kangra","PC_NO":1,"PC_NAME":"KANGRA","district":"K>NGRA"}},{"type":"Feature","geometry":{"type":"Polygon","coordinates":[[[76.1149,32.0914],[76.0866,32.0384],[75.9638,32.1244],[75.9579,32.0117],[75.9582,32.009],[75.9518,31.9995],[75.967,31.985],[75.9472,31.9673],[75.9726,31.9642],[76.0005,31.9511],[75.9938,31.9456],[76.148,31.9094],[76.1702,31.9004],[76.098,31.8823],[76.1103,31.8813],[76.1171,31.8297],[76.2485,31.8386],[76.2626,31.9351],[76.2415,31.9709],[76.179,32.0587],[76.1149,32.0914]]]},"properties":{"AC_NO":10,"AC_NAME":"Dehra","PC_NO":3,"PC_NAME":"HAMIRPUR","district":"K>NGRA"}},{"type":"Feature","geometry":{"type":"Polygon","coordinates":[[[76.4444,32.1125],[76.3937,32.0426],[76.41,31.9687],[76.4509,31.8874],[76.5458,32.0324],[76.4444,32.1125]]]},"properties":{"AC_NO":14,"AC_NAME":"Sullah","PC_NO":1,"PC_NAME":"KANGRA","district":"K>NGRA"}},{"type":"Feature","geometry":{"type":"Polygon","coordinates":[[[76.5853,32.0719],[76.5458,32.0324],[76.4509,31.8874],[76.4678,31.8299],[76.557,31.8863],[76.6376,31.8741],[76.6806,31.8718],[76.6744,31.9064],[76.6197,31.9271],[76.5853,32.0719]]]},"properties":{"AC_NO":13,"AC_NAME":"Jaisinghpur (SC)","PC_NO":1,"PC_NAME":"KANGRA","district":"K>NGRA"}},{"type":"Feature","geometry":{"type":"Polygon","coordinates":[[[76.7789,32.0644],[76.8767,31.9605],[76.855,31.8244],[76.9443,31.7086],[77.0575,31.6671],[77.2153,31.7231],[77.1802,31.8366],[77.0768,31.8368],[76.9357,32.0622],[76.7789,32.0644]]]},"properties":{"AC_NO":30,"AC_NAME":"Darang","PC_NO":2,"PC_NAME":"MANDI","district":"MANDI"}},{"type":"Feature","geometry":{"type":"Polygon","coordinates":[[[76.7789,32.0644],[76.6598,32.0292],[76.6744,31.9064],[76.6806,31.8718],[76.8138,31.8181],[76.855,31.8244],[76.8767,31.9605],[76.7789,32.0644]]]},"properties":{"AC_NO":31,"AC_NAME":"Jogindernagar","PC_NO":2,"PC_NAME":"MANDI","district":"MANDI"}},{"type":"Feature","geometry":{"type":"Polygon","coordinates":[[[78.6665,32.0889],[78.6042,32.0524],[78.4496,32.0598],[78.4352,31.9701],[78.3409,31.9309],[78.2012,31.9328],[78.0288,31.7579],[77.8682,31.783],[77.7482,31.7136],[77.823,31.6345],[77.8431,31.5282],[77.963,31.4048],[78.0872,31.4215],[78.2114,31.3234],[78.3111,31.283],[78.3701,31.2863],[78.4844,31.1991],[78.6477,31.2141],[78.8044,31.1984],[78.8906,31.097],[79.0104,31.1108],[78.9208,31.2539],[78.8431,31.325],[78.8097,31.4477],[78.7356,31.536],[78.8387,31.6254],[78.7491,31.6871],[78.7062,31.7886],[78.7863,31.9952],[78.6665,32.0889]]]},"properties":{"AC_NO":68,"AC_NAME":"Kinnaur (ST)","PC_NO":2,"PC_NAME":"MANDI","district":"KINNAUR"}},{"type":"Feature","geometry":{"type":"Polygon","coordinates":[[[75.9009,31.9549],[75.9148,31.9325],[75.9151,31.9319],[75.9154,31.9314],[75.9593,31.8575],[75.9704,31.8534],[76.0514,31.8561],[76.1987,31.7728],[76.285,31.683],[76.3099,31.7239],[76.2978,31.7845],[76.2485,31.8386],[76.1171,31.8297],[76.1103,31.8813],[76.098,31.8823],[76.1702,31.9004],[76.148,31.9094],[75.9938,31.9456],[76.0005,31.9511],[75.9726,31.9642],[75.9472,31.9673],[75.9009,31.9549]]]},"properties":{"AC_NO":11,"AC_NAME":"Jaswan-Pragpur","PC_NO":3,"PC_NAME":"HAMIRPUR","district":"K>NGRA"}},{"type":"Feature","geometry":{"type":"Polygon","coordinates":[[[76.41,31.9687],[76.2626,31.9351],[76.2485,31.8386],[76.2978,31.7845],[76.4477,31.8018],[76.4678,31.8299],[76.4509,31.8874],[76.41,31.9687]]]},"properties":{"AC_NO":12,"AC_NAME":"Jawalamukhi","PC_NO":1,"PC_NAME":"KANGRA","district":"K>NGRA"}},{"type":"Feature","geometry":{"type":"Polygon","coordinates":[[[77.846,31.8022],[77.725,31.783],[77.6267,31.8739],[77.4769,31.8647],[77.3094,31.9339],[77.0768,31.8368],[77.1802,31.8366],[77.2153,31.7231],[77.3021,31.6686],[77.3169,31.53],[77.493,31.5503],[77.5597,31.6246],[77.646,31.6573],[77.7482,31.7136],[77.8682,31.783],[77.846,31.8022]]]},"properties":{"AC_NO":24,"AC_NAME":"Banjar","PC_NO":2,"PC_NAME":"MANDI","district":"KULLU"}},{"type":"Feature","geometry":{"type":"Polygon","coordinates":[[[76.4678,31.8299],[76.4477,31.8018],[76.4781,31.7449],[76.491,31.6997],[76.6195,31.6938],[76.6498,31.7425],[76.6376,31.8741],[76.557,31.8863],[76.4678,31.8299]]]},"properties":{"AC_NO":37,"AC_NAME":"Sujanpur","PC_NO":3,"PC_NAME":"HAMIRPUR","district":"HAM|RPUR"}},{"type":"Feature","geometry":{"type":"Polygon","coordinates":[[[75.9704,31.8534],[76.0731,31.7972],[76.0779,31.6783],[76.1594,31.5716],[76.1884,31.5511],[76.2566,31.5856],[76.285,31.683],[76.1987,31.7728],[76.0514,31.8561],[75.9704,31.8534]]]},"properties":{"AC_NO":41,"AC_NAME":"Chintpurni (SC)","PC_NO":3,"PC_NAME":"HAMIRPUR","district":"UNA"}},{"type":"Feature","geometry":{"type":"Polygon","coordinates":[[[75.9593,31.8575],[75.9354,31.8157],[76.0005,31.6838],[76.0762,31.5609],[76.1594,31.5716],[76.0779,31.6783],[76.0731,31.7972],[75.9704,31.8534],[75.9593,31.8575]]]},"properties":{"AC_NO":42,"AC_NAME":"Gagret","PC_NO":3,"PC_NAME":"HAMIRPUR","district":"UNA"}},{"type":"Feature","geometry":{"type":"Polygon","coordinates":[[[76.8138,31.8181],[76.6806,31.8718],[76.6376,31.8741],[76.6498,31.7425],[76.7219,31.6669],[76.7488,31.7442],[76.8302,31.731],[76.8138,31.8181]]]},"properties":{"AC_NO":32,"AC_NAME":"Dharampur","PC_NO":3,"PC_NAME":"HAMIRPUR","district":"MANDI"}},{"type":"Feature","geometry":{"type":"Polygon","coordinates":[[[76.855,31.8244],[76.8138,31.8181],[76.8302,31.731],[76.8456,31.7079],[76.947,31.6799],[76.9987,31.6238],[77.0561,31.6495],[77.0575,31.6671],[76.9443,31.7086],[76.855,31.8244]]]},"properties":{"AC_NO":33,"AC_NAME":"Mandi","PC_NO":2,"PC_NAME":"MANDI","district":"MANDI"}},{"type":"Feature","geometry":{"type":"Polygon","coordinates":[[[76.2978,31.7845],[76.3099,31.7239],[76.3912,31.6132],[76.4973,31.6065],[76.4494,31.6555],[76.4781,31.7449],[76.4477,31.8018],[76.2978,31.7845]]]},"properties":{"AC_NO":40,"AC_NAME":"Nadaun","PC_NO":3,"PC_NAME":"HAMIRPUR","district":"HAM|RPUR"}},{"type":"Feature","geometry":{"type":"Polygon","coordinates":[[[76.4781,31.7449],[76.4494,31.6555],[76.4973,31.6065],[76.5584,31.6213],[76.6151,31.5451],[76.6212,31.5746],[76.6195,31.6938],[76.491,31.6997],[76.4781,31.7449]]]},"properties":{"AC_NO":38,"AC_NAME":"Hamirpur","PC_NO":3,"PC_NAME":"HAMIRPUR","district":"HAM|RPUR"}},{"type":"Feature","geometry":{"type":"Polygon","coordinates":[[[76.8302,31.731],[76.7488,31.7442],[76.7219,31.6669],[76.7279,31.5824],[76.7294,31.571],[76.7853,31.5001],[76.8174,31.5047],[76.8043,31.628],[76.8456,31.7079],[76.8302,31.731]]]},"properties":{"AC_NO":35,"AC_NAME":"Sarkaghat","PC_NO":2,"PC_NAME":"MANDI","district":"MANDI"}},{"type":"Feature","geometry":{"type":"Polygon","coordinates":[[[76.6195,31.6938],[76.6212,31.5746],[76.7279,31.5824],[76.7219,31.6669],[76.6498,31.7425],[76.6195,31.6938]]]},"properties":{"AC_NO":36,"AC_NAME":"Bhoranj (SC)","PC_NO":3,"PC_NAME":"HAMIRPUR","district":"HAM|RPUR"}},{"type":"Feature","geometry":{"type":"Polygon","coordinates":[[[76.3099,31.7239],[76.285,31.683],[76.2566,31.5856],[76.1884,31.5511],[76.2289,31.4801],[76.3738,31.4376],[76.3947,31.4083],[76.4693,31.421],[76.4564,31.4851],[76.3912,31.6132],[76.3099,31.7239]]]},"properties":{"AC_NO":45,"AC_NAME":"Kutlehar","PC_NO":3,"PC_NAME":"HAMIRPUR","district":"UNA"}},{"type":"Feature","geometry":{"type":"Polygon","coordinates":[[[77.2153,31.7231],[77.0575,31.6671],[77.0561,31.6495],[77.0373,31.5756],[77.1639,31.4783],[77.1743,31.4242],[77.3323,31.4515],[77.3169,31.53],[77.3021,31.6686],[77.2153,31.7231]]]},"properties":{"AC_NO":29,"AC_NAME":"Seraj","PC_NO":2,"PC_NAME":"MANDI","district":"MANDI"}},{"type":"Feature","geometry":{"type":"Polygon","coordinates":[[[76.9987,31.6238],[76.947,31.6799],[76.8456,31.7079],[76.8043,31.628],[76.8174,31.5047],[76.8905,31.5762],[76.9987,31.6238]]]},"properties":{"AC_NO":34,"AC_NAME":"Balh (SC)","PC_NO":2,"PC_NAME":"MANDI","district":"MANDI"}},{"type":"Feature","geometry":{"type":"Polygon","coordinates":[[[77.7482,31.7136],[77.646,31.6573],[77.6486,31.5835],[77.7069,31.501],[77.5222,31.35],[77.5008,31.2427],[77.6262,31.2633],[77.963,31.4048],[77.8431,31.5282],[77.823,31.6345],[77.7482,31.7136]]]},"properties":{"AC_NO":66,"AC_NAME":"Rampur (SC)","PC_NO":2,"PC_NAME":"MANDI","district":"SHIMLA"}},{"type":"Feature","geometry":{"type":"Polygon","coordinates":[[[76.6151,31.5451],[76.5584,31.6213],[76.4973,31.6065],[76.3912,31.6132],[76.4564,31.4851],[76.6174,31.4217],[76.6151,31.5451]]]},"properties":{"AC_NO":39,"AC_NAME":"Barsar","PC_NO":3,"PC_NAME":"HAMIRPUR","district":"HAM|RPUR"}},{"type":"Feature","geometry":{"type":"Polygon","coordinates":[[[77.0561,31.6495],[76.9987,31.6238],[76.8905,31.5762],[76.9698,31.4144],[77.0981,31.3865],[77.1743,31.4242],[77.1639,31.4783],[77.0373,31.5756],[77.0561,31.6495]]]},"properties":{"AC_NO":28,"AC_NAME":"Nachan (SC)","PC_NO":2,"PC_NAME":"MANDI","district":"MANDI"}},{"type":"Feature","geometry":{"type":"Polygon","coordinates":[[[77.646,31.6573],[77.5597,31.6246],[77.493,31.5503],[77.3169,31.53],[77.3323,31.4515],[77.3836,31.3605],[77.5222,31.35],[77.7069,31.501],[77.6486,31.5835],[77.646,31.6573]]]},"properties":{"AC_NO":25,"AC_NAME":"Anni (SC)","PC_NO":2,"PC_NAME":"MANDI","district":"KULLU"}},{"type":"Feature","geometry":{"type":"Polygon","coordinates":[[[76.7279,31.5824],[76.6212,31.5746],[76.6151,31.5451],[76.6174,31.4217],[76.7239,31.3637],[76.7294,31.571],[76.7279,31.5824]]]},"properties":{"AC_NO":47,"AC_NAME":"Ghumarwin","PC_NO":3,"PC_NAME":"HAMIRPUR","district":"BIL>SPUR"}},{"type":"Feature","geometry":{"type":"Polygon","coordinates":[[[76.1884,31.5511],[76.1594,31.5716],[76.0762,31.5609],[76.1042,31.517],[76.1046,31.5161],[76.1688,31.3973],[76.1566,31.3475],[76.1886,31.2999],[76.2888,31.3064],[76.3145,31.3428],[76.2289,31.4801],[76.1884,31.5511]]]},"properties":{"AC_NO":43,"AC_NAME":"Haroli","PC_NO":3,"PC_NAME":"HAMIRPUR","district":"UNA"}},{"type":"Feature","geometry":{"type":"Polygon","coordinates":[[[76.8905,31.5762],[76.8174,31.5047],[76.7853,31.5001],[76.8015,31.4212],[76.8772,31.3503],[77.003,31.2963],[77.0618,31.2601],[77.0468,31.3473],[77.0981,31.3865],[76.9698,31.4144],[76.8905,31.5762]]]},"properties":{"AC_NO":27,"AC_NAME":"Sundernagar","PC_NO":2,"PC_NAME":"MANDI","district":"MANDI"}},{"type":"Feature","geometry":{"type":"Polygon","coordinates":[[[76.7294,31.571],[76.7239,31.3637],[76.7411,31.2981],[76.875,31.3308],[76.8772,31.3503],[76.8015,31.4212],[76.7853,31.5001],[76.7294,31.571]]]},"properties":{"AC_NO":48,"AC_NAME":"Bilaspur","PC_NO":3,"PC_NAME":"HAMIRPUR","district":"BIL>SPUR"}},{"type":"Feature","geometry":{"type":"Polygon","coordinates":[[[76.2289,31.4801],[76.3145,31.3428],[76.3738,31.4376],[76.2289,31.4801]]]},"properties":{"AC_NO":44,"AC_NAME":"Una","PC_NO":3,"PC_NAME":"HAMIRPUR","district":"UNA"}},{"type":"Feature","geometry":{"type":"Polygon","coordinates":[[[76.6174,31.4217],[76.4564,31.4851],[76.4693,31.421],[76.6523,31.2528],[76.7411,31.2981],[76.7239,31.3637],[76.6174,31.4217]]]},"properties":{"AC_NO":46,"AC_NAME":"Jhanduta (SC)","PC_NO":3,"PC_NAME":"HAMIRPUR","district":"BIL>SPUR"}},{"type":"Feature","geometry":{"type":"Polygon","coordinates":[[[76.4693,31.421],[76.3947,31.4083],[76.4317,31.3268],[76.645,31.2073],[76.7817,31.2162],[76.875,31.3308],[76.7411,31.2981],[76.6523,31.2528],[76.4693,31.421]]]},"properties":{"AC_NO":49,"AC_NAME":"Sri Naina Deviji","PC_NO":3,"PC_NAME":"HAMIRPUR","district":"BIL>SPUR"}},{"type":"Feature","geometry":{"type":"Polygon","coordinates":[[[77.3323,31.4515],[77.1743,31.4242],[77.0981,31.3865],[77.0468,31.3473],[77.0618,31.2601],[77.1235,31.2306],[77.3155,31.2818],[77.3836,31.3605],[77.3323,31.4515]]]},"properties":{"AC_NO":26,"AC_NAME":"Karsog (SC)","PC_NO":2,"PC_NAME":"MANDI","district":"MANDI"}},{"type":"Feature","geometry":{"type":"Polygon","coordinates":[[[77.963,31.4048],[77.6262,31.2633],[77.6595,31.1893],[77.8992,31.1505],[78.1042,31.1856],[78.2459,31.23],[78.3111,31.283],[78.2114,31.3234],[78.0872,31.4215],[77.963,31.4048]]]},"properties":{"AC_NO":67,"AC_NAME":"Rohru (SC)","PC_NO":4,"PC_NAME":"SHIMLA (SC)","district":"SHIMLA"}},{"type":"Feature","geometry":{"type":"Polygon","coordinates":[[[76.875,31.3308],[76.7817,31.2162],[76.8217,31.052],[76.9395,31.0532],[76.974,31.0586],[76.9876,31.1143],[77.0359,31.1543],[77.003,31.2963],[76.8772,31.3503],[76.875,31.3308]]]},"properties":{"AC_NO":50,"AC_NAME":"Arki","PC_NO":4,"PC_NAME":"SHIMLA (SC)","district":"SOLAN"}},{"type":"Feature","geometry":{"type":"Polygon","coordinates":[[[77.5222,31.35],[77.3836,31.3605],[77.3155,31.2818],[77.2842,31.1336],[77.3429,31.0825],[77.341,30.9998],[77.401,31.0061],[77.4386,31.1128],[77.5008,31.2427],[77.5222,31.35]]]},"properties":{"AC_NO":61,"AC_NAME":"Theog","PC_NO":4,"PC_NAME":"SHIMLA (SC)","district":"SHIMLA"}},{"type":"Feature","geometry":{"type":"Polygon","coordinates":[[[77.003,31.2963],[77.0359,31.1543],[76.9876,31.1143],[77.1715,31.0122],[77.1758,31.0866],[77.1336,31.0929],[77.1584,31.1208],[77.195,31.2061],[77.2842,31.1336],[77.3155,31.2818],[77.1235,31.2306],[77.0618,31.2601],[77.003,31.2963]]]},"properties":{"AC_NO":64,"AC_NAME":"Shimla Rural","PC_NO":4,"PC_NAME":"SHIMLA (SC)","district":"SHIMLA"}},{"type":"Feature","geometry":{"type":"Polygon","coordinates":[[[76.645,31.2073],[76.6115,31.046],[76.7002,30.9701],[76.8217,31.052],[76.7817,31.2162],[76.645,31.2073]]]},"properties":{"AC_NO":51,"AC_NAME":"Nalagarh","PC_NO":4,"PC_NAME":"SHIMLA (SC)","district":"SOLAN"}},{"type":"Feature","geometry":{"type":"Polygon","coordinates":[[[77.5008,31.2427],[77.4386,31.1128],[77.5,31.0638],[77.6251,31.0749],[77.7635,31.028],[77.7716,30.9703],[77.8992,31.1505],[77.6595,31.1893],[77.6262,31.2633],[77.5008,31.2427]]]},"properties":{"AC_NO":65,"AC_NAME":"Jubbal-Kotkhai","PC_NO":4,"PC_NAME":"SHIMLA (SC)","district":"SHIMLA"}},{"type":"Feature","geometry":{"type":"Polygon","coordinates":[[[77.2842,31.1336],[77.195,31.2061],[77.1584,31.1208],[77.1758,31.0866],[77.1715,31.0122],[77.2469,30.9188],[77.341,30.9998],[77.3429,31.0825],[77.2842,31.1336]]]},"properties":{"AC_NO":62,"AC_NAME":"Kasumpti","PC_NO":4,"PC_NAME":"SHIMLA (SC)","district":"SHIMLA"}},{"type":"Feature","geometry":{"type":"Polygon","coordinates":[[[77.1758,31.0866],[77.1584,31.1208],[77.1336,31.0929],[77.1758,31.0866]]]},"properties":{"AC_NO":63,"AC_NAME":"Shimla","PC_NO":4,"PC_NAME":"SHIMLA (SC)","district":"SHIMLA"}},{"type":"Feature","geometry":{"type":"Polygon","coordinates":[[[76.9876,31.1143],[76.974,31.0586],[77.0645,30.9718],[77.0408,30.9277],[77.1221,30.8526],[77.2469,30.9188],[77.1715,31.0122],[76.9876,31.1143]]]},"properties":{"AC_NO":53,"AC_NAME":"Solan (SC)","PC_NO":4,"PC_NAME":"SHIMLA (SC)","district":"SOLAN"}},{"type":"Feature","geometry":{"type":"Polygon","coordinates":[[[77.4386,31.1128],[77.401,31.0061],[77.4513,30.8635],[77.4928,30.7956],[77.5685,30.7774],[77.7038,30.7651],[77.7986,30.8699],[77.8042,30.9219],[77.7716,30.9703],[77.7635,31.028],[77.6251,31.0749],[77.5,31.0638],[77.4386,31.1128]]]},"properties":{"AC_NO":60,"AC_NAME":"Chopal","PC_NO":4,"PC_NAME":"SHIMLA (SC)","district":"SHIMLA"}},{"type":"Feature","geometry":{"type":"Polygon","coordinates":[[[76.9395,31.0532],[76.8217,31.052],[76.7002,30.9701],[76.7371,30.9389],[76.7741,30.9071],[76.9231,30.9015],[76.9964,30.9667],[76.9395,31.0532]]]},"properties":{"AC_NO":52,"AC_NAME":"Doon","PC_NO":4,"PC_NAME":"SHIMLA (SC)","district":"SOLAN"}},{"type":"Feature","geometry":{"type":"Polygon","coordinates":[[[77.1221,30.8526],[77.0408,30.9277],[77.0645,30.9718],[76.974,31.0586],[76.9395,31.0532],[76.9964,30.9667],[76.9231,30.9015],[77.02,30.749],[77.1221,30.8526]]]},"properties":{"AC_NO":54,"AC_NAME":"Kasauli (SC)","PC_NO":4,"PC_NAME":"SHIMLA (SC)","district":"SOLAN"}},{"type":"Feature","geometry":{"type":"Polygon","coordinates":[[[77.401,31.0061],[77.341,30.9998],[77.2469,30.9188],[77.1221,30.8526],[77.02,30.749],[77.1664,30.6846],[77.2775,30.6571],[77.3599,30.8057],[77.4513,30.8635],[77.401,31.0061]]]},"properties":{"AC_NO":55,"AC_NAME":"Pachhad (SC)","PC_NO":4,"PC_NAME":"SHIMLA (SC)","district":"SIRMAUR"}},{"type":"Feature","geometry":{"type":"Polygon","coordinates":[[[77.5685,30.7774],[77.4928,30.7956],[77.4513,30.8635],[77.3599,30.8057],[77.2775,30.6571],[77.3491,30.6355],[77.4449,30.517],[77.4982,30.5267],[77.6454,30.5519],[77.5604,30.6318],[77.5316,30.734],[77.5685,30.7774]]]},"properties":{"AC_NO":57,"AC_NAME":"Sri Renukaji (SC","PC_NO":4,"PC_NAME":"SHIMLA (SC)","district":"SIRMAUR"}},{"type":"Feature","geometry":{"type":"Polygon","coordinates":[[[77.7038,30.7651],[77.5685,30.7774],[77.5316,30.734],[77.5604,30.6318],[77.6454,30.5519],[77.7429,30.6012],[77.7904,30.6341],[77.7038,30.7651]]]},"properties":{"AC_NO":59,"AC_NAME":"Shillai","PC_NO":4,"PC_NAME":"SHIMLA (SC)","district":"SIRMAUR"}},{"type":"Feature","geometry":{"type":"Polygon","coordinates":[[[77.2775,30.6571],[77.1664,30.6846],[77.1345,30.5698],[77.2119,30.4977],[77.4443,30.3963],[77.5227,30.443],[77.4982,30.5267],[77.4449,30.517],[77.3491,30.6355],[77.2775,30.6571]]]},"properties":{"AC_NO":56,"AC_NAME":"Nahan","PC_NO":4,"PC_NAME":"SHIMLA (SC)","district":"SIRMAUR"}},{"type":"Feature","geometry":{"type":"Polygon","coordinates":[[[77.7429,30.6012],[77.6454,30.5519],[77.4982,30.5267],[77.5227,30.443],[77.5872,30.3788],[77.5773,30.3977],[77.6411,30.4318],[77.8178,30.5067],[77.7429,30.6012]]]},"properties":{"AC_NO":58,"AC_NAME":"Paonta Sahib","PC_NO":4,"PC_NAME":"SHIMLA (SC)","district":"SIRMAUR"}}]}