{"type":"FeatureCollection", "features": [
{"type":"Feature","geometry":{"type":"Polygon","coordinates":[[[78.6665,32.0889],[78.5902,32.1533],[78.6085,32.2143],[78.4819,32.2798],[78.5348,32.4144],[78.3986,32.5257],[78.3877,32.7569],[78.2195,32.6647],[78.1427,32.6818],[78.0158,32.6198],[77.919,32.69],[77.9259,32.7719],[77.7854,32.8605],[77.8109,32.9068],[77.7131,32.9826],[77.6023,32.9428],[77.469,32.8584],[77.4053,32.8832],[77.3386,32.8169],[77.2739,32.8738],[77.1642,32.9189],[77.1497,32.9781],[77.0126,32.9889],[76.9287,33.032],[76.8344,33.2049],[76.7712,33.2496],[76.7466,33.1783],[76.7347,33.0827],[76.7803,32.9521],[76.6415,32.854],[76.5107,32.8034],[76.4503,32.8479],[76.3751,32.8195],[76.4396,32.6589],[76.5197,32.6693],[76.6708,32.5697],[76.8648,32.5347],[76.8643,32.4634],[76.9473,32.4032],[77.0753,32.3999],[77.1529,32.4153],[77.3079,32.3338],[77.3877,32.2097],[77.4691,32.2242],[77.743,32.09],[77.7978,31.9876],[77.7663,31.9448],[77.846,31.8022],[77.8682,31.783],[78.0288,31.7579],[78.2012,31.9328],[78.3409,31.9309],[78.4352,31.9701],[78.4496,32.0598],[78.6042,32.0524],[78.6665,32.0889]]]},"properties":{"district":"LAHUL & SPITI"}},
{"type":"Feature","geometry":{"type":"Polygon","coordinates":[[[76.7466,33.1783],[76.6395,33.1617],[76.5613,33.2095],[76.404,33.1859],[76.2858,33.1025],[76.2207,33.023],[75.9497,32.8728],[75.8326,32.9239],[75.7967,32.8843],[75.9205,32.7477],[75.8967,32.6812],[75.8968,32.6809],[75.8968,32.6808],[75.9162,32.6147],[75.9161,32.6144],[75.832,32.5101],[75.936,32.3977],[76.0192,32.3412],[76.0319,32.2694],[76.1274,32.2295],[76.1797,32.2447],[76.1655,32.3538],[76.2193,32.3944],[76.359,32.3213],[76.4627,32.247],[76.6535,32.1855],[76.7701,32.2225],[76.7849,32.3731],[76.8643,32.4634],[76.8648,32.5347],[76.6708,32.5697],[76.5197,32.6693],[76.4396,32.6589],[76.3751,32.8195],[76.4503,32.8479],[76.5107,32.8034],[76.6415,32.854],[76.7803,32.9521],[76.7347,33.0827],[76.7466,33.1783]]]},"properties":{"district":"CHAMBA"}},
{"type":"Feature","geometry":{"type":"Polygon","coordinates":[[[76.8643,32.4634],[76.7849,32.3731],[76.7701,32.2225],[76.6535,32.1855],[76.4627,32.247],[76.359,32.3213],[76.2193,32.3944],[76.1655,32.3538],[76.1797,32.2447],[76.1274,32.2295],[76.0319,32.2694],[76.0192,32.3412],[75.936,32.3977],[75.8713,32.3946],[75.7526,32.2799],[75.704,32.2673],[75.6726,32.1589],[75.6025,32.0867],[75.5963,32.086],[75.7429,32.0395],[75.8999,31.9559],[75.9009,31.9549],[75.9148,31.9325],[75.9151,31.9319],[75.9154,31.9314],[75.9593,31.8575],[75.9704,31.8534],[76.0514,31.8561],[76.1987,31.7728],[76.285,31.683],[76.3099,31.7239],[76.2978,31.7845],[76.4477,31.8018],[76.4678,31.8299],[76.557,31.8863],[76.6376,31.8741],[76.6806,31.8718],[76.6744,31.9064],[76.6598,32.0292],[76.7789,32.0644],[76.9357,32.0622],[76.9844,32.1101],[77.0753,32.3999],[76.9473,32.4032],[76.8643,32.4634]]]},"properties":{"district":"K>NGRA"}},
{"type":"Feature","geometry":{"type":"Polygon","coordinates":[[[77.0753,32.3999],[76.9844,32.1101],[76.9357,32.0622],[77.0768,31.8368],[77.1802,31.8366],[77.2153,31.7231],[77.3021,31.6686],[77.3169,31.53],[77.3323,31.4515],[77.3836,31.3605],[77.5222,31.35],[77.7069,31.501],[77.6486,31.5835],[77.646,31.6573],[77.7482,31.7136],[77.8682,31.783],[77.846,31.8022],[77.7663,31.9448],[77.7978,31.9876],[77.743,32.09],[77.4691,32.2242],[77.3877,32.2097],[77.3079,32.3338],[77.1529,32.4153],[77.0753,32.3999]]]},"properties":{"district":"KULLU"}},
{"type":"Feature","geometry":{"type":"Polygon","coordinates":[[[76.7789,32.0644],[76.6598,32.0292],[76.6744,31.9064],[76.6806,31.8718],[76.6376,31.8741],[76.6498,31.7425],[76.7219,31.6669],[76.7279,31.5824],[76.7294,31.571],[76.7853,31.5001],[76.8015,31.4212],[76.8772,31.3503],[77.003,31.2963],[77.0618,31.2601],[77.1235,31.2306],[77.3155,31.2818],[77.3836,31.3605],[77.3323,31.4515],[77.3169,31.53],[77.3021,31.6686],[77.2153,31.7231],[77.1802,31.8366],[77.0768,31.8368],[76.9357,32.0622],[76.7789,32.0644]]]},"properties":{"district":"MANDI"}},
{"type":"Feature","geometry":{"type":"Polygon","coordinates":[[[77.8682,31.783],[77.7482,31.7136],[77.823,31.6345],[77.8431,31.5282],[77.963,31.4048],[78.0872,31.4215],[78.2114,31.3234],[78.3111,31.283],[78.3701,31.2863],[78.4844,31.1991],[78.6477,31.2141],[78.8044,31.1984],[78.8906,31.097],[79.0104,31.1108],[78.9208,31.2539],[78.8431,31.325],[78.8097,31.4477],[78.7356,31.536],[78.8387,31.6254],[78.7491,31.6871],[78.7062,31.7886],[78.7863,31.9952],[78.6665,32.0889],[78.6042,32.0524],[78.4496,32.0598],[78.4352,31.9701],[78.3409,31.9309],[78.2012,31.9328],[78.0288,31.7579],[77.8682,31.783]]]},"properties":{"district":"KINNAUR"}},
{"type":"Feature","geometry":{"type":"Polygon","coordinates":[[[76.4678,31.8299],[76.4477,31.8018],[76.2978,31.7845],[76.3099,31.7239],[76.3912,31.6132],[76.4564,31.4851],[76.6174,31.4217],[76.6151,31.5451],[76.6212,31.5746],[76.7279,31.5824],[76.7219,31.6669],[76.6498,31.7425],[76.6376,31.8741],[76.557,31.8863],[76.4678,31.8299]]]},"properties":{"district":"HAM|RPUR"}},
{"type":"Feature","geometry":{"type":"Polygon","coordinates":[[[75.9704,31.8534],[75.9593,31.8575],[75.9354,31.8157],[76.0005,31.6838],[76.0762,31.5609],[76.1042,31.517],[76.1046,31.5161],[76.1688,31.3973],[76.1566,31.3475],[76.1886,31.2999],[76.2888,31.3064],[76.3145,31.3428],[76.3738,31.4376],[76.3947,31.4083],[76.4693,31.421],[76.4564,31.4851],[76.3912,31.6132],[76.3099,31.7239],[76.285,31.683],[76.1987,31.7728],[76.0514,31.8561],[75.9704,31.8534]]]},"properties":{"district":"UNA"}},
{"type":"Feature","geometry":{"type":"Polygon","coordinates":[[[77.7482,31.7136],[77.646,31.6573],[77.6486,31.5835],[77.7069,31.501],[77.5222,31.35],[77.3836,31.3605],[77.3155,31.2818],[77.1235,31.2306],[77.0618,31.2601],[77.003,31.2963],[77.0359,31.1543],[76.9876,31.1143],[77.1715,31.0122],[77.2469,30.9188],[77.341,30.9998],[77.401,31.0061],[77.4513,30.8635],[77.4928,30.7956],[77.5685,30.7774],[77.7038,30.7651],[77.7986,30.8699],[77.8042,30.9219],[77.7716,30.9703],[77.8992,31.1505],[78.1042,31.1856],[78.2459,31.23],[78.3111,31.283],[78.2114,31.3234],[78.0872,31.4215],[77.963,31.4048],[77.8431,31.5282],[77.823,31.6345],[77.7482,31.7136]]]},"properties":{"district":"SHIMLA"}},
{"type":"Feature","geometry":{"type":"Polygon","coordinates":[[[76.6151,31.5451],[76.6174,31.4217],[76.4564,31.4851],[76.4693,31.421],[76.3947,31.4083],[76.4317,31.3268],[76.645,31.2073],[76.7817,31.2162],[76.875,31.3308],[76.8772,31.3503],[76.8015,31.4212],[76.7853,31.5001],[76.7294,31.571],[76.7279,31.5824],[76.6212,31.5746],[76.6151,31.5451]]]},"properties":{"district":"BIL>SPUR"}},
{"type":"Feature","geometry":{"type":"Polygon","coordinates":[[[76.8772,31.3503],[76.875,31.3308],[76.7817,31.2162],[76.645,31.2073],[76.6115,31.046],[76.7002,30.9701],[76.7371,30.9389],[76.7741,30.9071],[76.9231,30.9015],[77.02,30.749],[77.1221,30.8526],[77.2469,30.9188],[77.1715,31.0122],[76.9876,31.1143],[77.0359,31.1543],[77.003,31.2963],[76.8772,31.3503]]]},"properties":{"district":"SOLAN"}},
{"type":"Feature","geometry":{"type":"Polygon","coordinates":[[[77.341,30.9998],[77.2469,30.9188],[77.1221,30.8526],[77.02,30.749],[77.1664,30.6846],[77.1345,30.5698],[77.2119,30.4977],[77.4443,30.3963],[77.5227,30.443],[77.5872,30.3788],[77.5773,30.3977],[77.6411,30.4318],[77.8178,30.5067],[77.7429,30.6012],[77.7904,30.6341],[77.7038,30.7651],[77.5685,30.7774],[77.4928,30.7956],[77.4513,30.8635],[77.401,31.0061],[77.341,30.9998]]]},"properties":{"district":"SIRMAUR"}}
]}