{"type":"FeatureCollection", "features": [
{"type":"Feature","geometry":{"type":"Polygon","coordinates":[[[78.1857,26.7856],[78.1064,26.7903],[78.0957,26.6803],[78.002,26.6947],[77.9427,26.6581],[77.8328,26.5997],[77.7398,26.5377],[77.5363,26.4112],[77.5046,26.4084],[77.376,26.3653],[77.2708,26.2672],[77.1146,26.2175],[77.2488,26.0858],[77.3155,26.1424],[77.4025,26.1519],[77.4841,26.0853],[77.6691,25.9718],[77.728,26.0461],[77.7438,26.1618],[77.816,26.2547],[77.8991,26.2281],[77.9878,26.2472],[78.005,26.3256],[78.2644,26.3367],[78.291,26.4388],[78.2229,26.5062],[78.2389,26.5454],[78.3839,26.5845],[78.3823,26.6039],[78.5232,26.6864],[78.5455,26.7636],[78.3989,26.8185],[78.3626,26.8692],[78.223,26.8307],[78.1857,26.7856]]]},"properties":{"district":"MORENA"}},
{"type":"Feature","geometry":{"type":"Polygon","coordinates":[[[78.5232,26.6864],[78.3823,26.6039],[78.3839,26.5845],[78.2389,26.5454],[78.2229,26.5062],[78.291,26.4388],[78.2644,26.3367],[78.4211,26.3309],[78.4402,26.2603],[78.6271,26.2036],[78.6265,26.1573],[78.7556,26.2657],[78.8248,26.2825],[78.79,26.2236],[78.8455,26.1116],[78.7744,26.017],[78.7809,25.9636],[78.8832,25.9089],[78.9363,25.9523],[78.9583,26.1279],[79.1155,26.3205],[79.0982,26.4124],[79.135,26.4399],[79.0105,26.5544],[79.004,26.6287],[78.7797,26.7587],[78.5455,26.7636],[78.5232,26.6864]]]},"properties":{"district":"BHIND"}},
{"type":"Feature","geometry":{"type":"Polygon","coordinates":[[[77.9878,26.2472],[77.8991,26.2281],[77.816,26.2547],[77.7438,26.1618],[77.728,26.0461],[77.6691,25.9718],[77.6798,25.9141],[77.7043,25.879],[77.8665,25.8076],[77.933,25.7508],[78.0527,25.7091],[78.211,25.7374],[78.2528,25.7709],[78.2768,25.7822],[78.3885,25.8374],[78.6034,26.0466],[78.6119,26.1108],[78.6265,26.1573],[78.6271,26.2036],[78.4402,26.2603],[78.4211,26.3309],[78.2644,26.3367],[78.005,26.3256],[77.9878,26.2472]]]},"properties":{"district":"GWALIOR"}},
{"type":"Feature","geometry":{"type":"Polygon","coordinates":[[[78.7556,26.2657],[78.6265,26.1573],[78.6119,26.1108],[78.6034,26.0466],[78.3885,25.8374],[78.2768,25.7822],[78.2473,25.722],[78.449,25.5641],[78.5316,25.571],[78.6578,25.5596],[78.819,25.6449],[78.763,25.7204],[78.8574,25.7916],[78.8832,25.9089],[78.7809,25.9636],[78.7744,26.017],[78.8455,26.1116],[78.79,26.2236],[78.8248,26.2825],[78.7556,26.2657]]]},"properties":{"district":"DATIA"}},
{"type":"Feature","geometry":{"type":"Polygon","coordinates":[[[77.4841,26.0853],[77.4025,26.1519],[77.3155,26.1424],[77.2488,26.0858],[77.1146,26.2175],[76.9988,26.1299],[76.9108,26.1073],[76.8525,26.0439],[76.8364,26.0071],[76.7117,25.8998],[76.6414,25.908],[76.5665,25.8489],[76.5153,25.7737],[76.517,25.5268],[76.5697,25.4393],[76.6143,25.3836],[76.6492,25.3692],[76.7768,25.3156],[76.8532,25.3324],[76.9576,25.2841],[77.0827,25.3358],[77.1787,25.5118],[77.2949,25.5304],[77.2767,25.7197],[77.3394,25.7843],[77.4179,25.7833],[77.4435,25.8904],[77.5577,25.8115],[77.6798,25.9141],[77.6691,25.9718],[77.4841,26.0853]]]},"properties":{"district":"SHEOPUR"}},
{"type":"Feature","geometry":{"type":"Polygon","coordinates":[[[77.6798,25.9141],[77.5577,25.8115],[77.4435,25.8904],[77.4179,25.7833],[77.3394,25.7843],[77.2767,25.7197],[77.2949,25.5304],[77.1787,25.5118],[77.0827,25.3358],[77.2091,25.3062],[77.234,25.3783],[77.3149,25.4315],[77.3669,25.4012],[77.4115,25.2236],[77.3941,25.1198],[77.3108,25.0799],[77.3707,24.9253],[77.4786,24.8767],[77.5641,24.8724],[77.5742,24.9462],[77.707,24.8515],[77.8683,24.9995],[78.0184,24.9552],[77.9697,24.8715],[78.1751,24.8456],[78.1732,24.8787],[78.3326,24.9942],[78.3385,25.0858],[78.4468,25.1218],[78.3722,25.2595],[78.3117,25.3031],[78.3199,25.3836],[78.4308,25.4736],[78.449,25.5641],[78.2473,25.722],[78.2768,25.7822],[78.2528,25.7709],[78.211,25.7374],[78.0527,25.7091],[77.933,25.7508],[77.8665,25.8076],[77.7043,25.879],[77.6798,25.9141]]]},"properties":{"district":"SHIVPURI"}},
{"type":"Feature","geometry":{"type":"Polygon","coordinates":[[[78.5802,25.1912],[78.6024,25.0944],[78.6526,25.0502],[78.6365,24.9592],[78.715,24.8795],[78.774,24.8511],[78.8876,24.8545],[78.9118,24.9974],[78.7709,25.0376],[78.8841,25.1587],[78.8706,25.1869],[78.961,25.345],[78.863,25.3144],[78.8265,25.255],[78.8195,25.3068],[78.9441,25.4827],[78.904,25.5515],[78.8665,25.4658],[78.7965,25.483],[78.7141,25.3725],[78.662,25.4409],[78.5652,25.3855],[78.5312,25.3001],[78.5563,25.2106],[78.5802,25.1912]]]},"properties":{"district":"NIWARI"}},
{"type":"Feature","geometry":{"type":"Polygon","coordinates":[[[80.2735,25.0261],[80.3555,25.0556],[80.3548,25.1385],[80.4306,25.1732],[80.3742,25.2439],[80.3111,25.2862],[80.2944,25.4106],[80.1045,25.3496],[80.0336,25.3423],[79.9742,25.2647],[79.853,25.2248],[79.8418,25.0955],[79.7493,25.1394],[79.6065,25.1502],[79.5252,25.0974],[79.3929,25.1168],[79.4462,25.2442],[79.3522,25.3299],[79.2789,25.324],[79.2837,25.1928],[79.3233,25.1498],[79.338,25.0914],[79.3322,24.9972],[79.346,24.903],[79.3045,24.7982],[79.3193,24.7357],[79.2984,24.68],[79.1757,24.61],[79.1375,24.6256],[79.023,24.5458],[78.9858,24.4413],[78.9917,24.4177],[79.0326,24.3712],[79.1791,24.4327],[79.2537,24.3671],[79.0798,24.2514],[79.0541,24.1712],[79.1468,24.1016],[79.3003,24.1807],[79.3822,24.1952],[79.3982,24.2873],[79.4619,24.4011],[79.629,24.399],[79.795,24.3737],[79.8677,24.4445],[79.8817,24.5174],[79.8413,24.5952],[79.8722,24.6551],[80.0776,24.7984],[80.0513,24.938],[80.1499,24.9347],[80.2735,25.0261]]]},"properties":{"district":"CHHATARPUR"}},
{"type":"Feature","geometry":{"type":"Polygon","coordinates":[[[78.8876,24.8545],[78.774,24.8511],[78.7811,24.7073],[78.7519,24.6001],[78.8831,24.6411],[78.9528,24.5468],[78.9142,24.4595],[78.9858,24.4413],[79.023,24.5458],[79.1375,24.6256],[79.1757,24.61],[79.2984,24.68],[79.3193,24.7357],[79.3045,24.7982],[79.346,24.903],[79.3322,24.9972],[79.338,25.0914],[79.3233,25.1498],[79.1732,25.1077],[78.9707,25.2163],[78.8841,25.1587],[78.7709,25.0376],[78.9118,24.9974],[78.8876,24.8545]]]},"properties":{"district":"TIKAMGARH"}},
{"type":"Feature","geometry":{"type":"Polygon","coordinates":[[[74.771,24.5787],[74.7168,24.507],[74.8551,24.4243],[74.7568,24.2642],[74.8896,24.2286],[74.9099,24.2098],[75.0225,24.3707],[75.1323,24.3489],[75.2026,24.3089],[75.3594,24.3222],[75.4271,24.3343],[75.53,24.4738],[75.589,24.518],[75.5817,24.6422],[75.5484,24.7034],[75.3715,24.6921],[75.3705,24.6922],[75.2198,24.7029],[75.2194,24.7028],[75.1929,24.7733],[75.3513,25.019],[75.1924,25.0335],[75.1137,24.9666],[75.1168,24.8778],[74.9587,24.858],[74.8409,24.967],[74.838,24.7973],[74.8379,24.7971],[74.9729,24.7634],[74.9929,24.6926],[74.8768,24.6427],[74.8097,24.777],[74.8087,24.7807],[74.7804,24.7304],[74.771,24.5787]]]},"properties":{"district":"NEEMUCH"}},
{"type":"Feature","geometry":{"type":"Polygon","coordinates":[[[81.9529,24.8414],[81.9031,24.8919],[81.8911,24.9958],[81.7424,25.0388],[81.7076,25.0351],[81.5402,25.1859],[81.4287,25.1047],[81.3575,25.17],[81.2896,25.1687],[81.2211,24.9976],[81.2153,24.9329],[81.1229,24.8993],[81.055,24.7839],[81.1563,24.708],[81.1553,24.5013],[81.1583,24.4147],[81.2126,24.4453],[81.2917,24.3967],[81.3056,24.3226],[81.5033,24.4234],[81.6907,24.4957],[81.6714,24.5598],[81.5842,24.5446],[81.4938,24.609],[81.6819,24.7709],[81.7962,24.8495],[81.8382,24.7561],[81.889,24.8367],[81.9529,24.8414]]]},"properties":{"district":"REWA"}},
{"type":"Feature","geometry":{"type":"Polygon","coordinates":[[[81.1229,24.8993],[81.0845,24.9499],[80.861,24.9288],[80.8099,24.9526],[80.9076,25.1591],[80.735,25.1395],[80.7189,25.0638],[80.5924,25.1033],[80.5308,25.0014],[80.4774,24.9763],[80.5605,24.8149],[80.4019,24.718],[80.4681,24.6114],[80.4227,24.4441],[80.4692,24.3876],[80.5875,24.2563],[80.6993,24.2841],[80.804,24.3766],[80.8563,24.3212],[80.9737,24.3151],[81.0273,24.3914],[81.1583,24.4147],[81.1553,24.5013],[81.1563,24.708],[81.055,24.7839],[81.1229,24.8993]]]},"properties":{"district":"SATNA"}},
{"type":"Feature","geometry":{"type":"Polygon","coordinates":[[[77.3108,25.0799],[77.1742,25.1117],[77.0845,25.0542],[76.9999,25.0747],[76.8762,25.0411],[76.8624,24.9608],[76.9275,24.8472],[76.8166,24.829],[76.8665,24.7456],[76.9619,24.7571],[77.0654,24.6414],[77.0574,24.537],[76.9774,24.4615],[76.921,24.5318],[76.8178,24.5347],[76.8449,24.4363],[76.8631,24.2734],[76.9456,24.2058],[76.8789,24.1306],[76.9534,24.0693],[77.1822,24.0792],[77.166,23.9462],[77.2265,23.8927],[77.316,23.8915],[77.3006,24.127],[77.3529,24.2136],[77.3213,24.2877],[77.408,24.3291],[77.4335,24.2405],[77.5545,24.2463],[77.6484,24.3144],[77.665,24.3643],[77.5042,24.413],[77.4748,24.4396],[77.4977,24.6639],[77.5554,24.7279],[77.5519,24.8635],[77.5641,24.8724],[77.4786,24.8767],[77.3707,24.9253],[77.3108,25.0799]]]},"properties":{"district":"GUNA"}},
{"type":"Feature","geometry":{"type":"Polygon","coordinates":[[[80.0513,24.938],[80.0776,24.7984],[79.8722,24.6551],[79.8413,24.5952],[79.8817,24.5174],[79.8677,24.4445],[79.795,24.3737],[79.8419,24.3147],[79.8118,24.1598],[79.7533,24.035],[79.8441,24.0227],[79.8322,23.942],[79.8632,23.829],[79.9863,23.8941],[80.0531,23.9915],[80.1552,23.9401],[80.1866,24.0035],[80.2925,23.9237],[80.3549,23.9696],[80.3933,24.0257],[80.5967,24.1356],[80.5875,24.2563],[80.4692,24.3876],[80.4227,24.4441],[80.4681,24.6114],[80.4019,24.718],[80.5605,24.8149],[80.4774,24.9763],[80.4523,25.0748],[80.3346,25.0003],[80.2735,25.0261],[80.1499,24.9347],[80.0513,24.938]]]},"properties":{"district":"PANNA"}},
{"type":"Feature","geometry":{"type":"Polygon","coordinates":[[[77.5641,24.8724],[77.5519,24.8635],[77.5554,24.7279],[77.4977,24.6639],[77.4748,24.4396],[77.5042,24.413],[77.665,24.3643],[77.6484,24.3144],[77.7839,24.3144],[77.8003,24.3062],[78.0149,24.2364],[78.0837,24.2567],[78.0913,24.3206],[78.2652,24.4521],[78.2259,24.5301],[78.2765,24.6633],[78.1751,24.8456],[77.9697,24.8715],[78.0184,24.9552],[77.8683,24.9995],[77.707,24.8515],[77.5742,24.9462],[77.5641,24.8724]]]},"properties":{"district":"ASHOKNAGAR"}},
{"type":"Feature","geometry":{"type":"Polygon","coordinates":[[[75.3594,24.3222],[75.2026,24.3089],[75.1323,24.3489],[75.0225,24.3707],[74.9099,24.2098],[74.9059,24.1155],[74.9739,24.0396],[74.9032,23.853],[74.94,23.7644],[75.0526,23.8259],[75.1539,23.8315],[75.2738,23.8275],[75.2785,23.8457],[75.3342,23.8406],[75.4594,23.9194],[75.5213,24.0246],[75.5817,23.9912],[75.6713,24.0179],[75.7411,23.9769],[75.7816,24.0426],[75.7647,24.1754],[75.83,24.2336],[75.7399,24.3321],[75.7494,24.4245],[75.8999,24.442],[75.9178,24.5396],[75.7848,24.7617],[75.6463,24.6851],[75.5484,24.7034],[75.5817,24.6422],[75.589,24.518],[75.53,24.4738],[75.4271,24.3343],[75.3594,24.3222]]]},"properties":{"district":"MANDSAUR"}},
{"type":"Feature","geometry":{"type":"Polygon","coordinates":[[[81.7962,24.8495],[81.6819,24.7709],[81.4938,24.609],[81.5842,24.5446],[81.6714,24.5598],[81.6907,24.4957],[81.8883,24.5305],[81.9284,24.5701],[81.9514,24.5465],[82.0903,24.5947],[82.2521,24.6109],[82.305,24.5917],[82.2989,24.6051],[82.3034,24.6539],[82.2095,24.7714],[82.1067,24.8043],[81.9529,24.8414],[81.889,24.8367],[81.8382,24.7561],[81.7962,24.8495]]]},"properties":{"district":"MAUGANJ"}},
{"type":"Feature","geometry":{"type":"Polygon","coordinates":[[[82.305,24.5917],[82.3678,24.5536],[82.2082,24.439],[82.2383,24.3677],[82.4548,24.3779],[82.4645,24.2482],[82.2937,24.2366],[82.1806,24.2591],[82.0748,24.3298],[81.9663,24.2444],[81.8344,24.265],[81.7671,24.2003],[81.6644,24.2014],[81.6498,24.2751],[81.5492,24.2289],[81.4802,24.2371],[81.4694,24.1726],[81.5364,24.0679],[81.5436,23.9125],[81.6038,23.8845],[81.6583,23.9164],[81.8152,23.8064],[82.0088,23.8612],[82.0535,23.8188],[82.2117,23.8522],[82.3346,23.8026],[82.496,23.7859],[82.6646,23.8638],[82.6973,23.9197],[82.8116,23.9611],[82.7116,24.0896],[82.741,24.1912],[82.735,24.2187],[82.7713,24.3283],[82.713,24.3803],[82.7434,24.4964],[82.806,24.5633],[82.7739,24.6417],[82.6711,24.697],[82.5234,24.6761],[82.429,24.7026],[82.4161,24.5912],[82.2989,24.6051],[82.305,24.5917]]]},"properties":{"district":"SINGRAULI"}},
{"type":"Feature","geometry":{"type":"Polygon","coordinates":[[[81.9514,24.5465],[81.9284,24.5701],[81.8883,24.5305],[81.6907,24.4957],[81.5033,24.4234],[81.3056,24.3226],[81.3886,24.2627],[81.4802,24.2371],[81.5492,24.2289],[81.6498,24.2751],[81.6644,24.2014],[81.7671,24.2003],[81.8344,24.265],[81.9663,24.2444],[82.0748,24.3298],[82.1806,24.2591],[82.2937,24.2366],[82.4645,24.2482],[82.4548,24.3779],[82.2383,24.3677],[82.2082,24.439],[82.3678,24.5536],[82.305,24.5917],[82.2521,24.6109],[82.0903,24.5947],[81.9514,24.5465]]]},"properties":{"district":"SIDHI"}},
{"type":"Feature","geometry":{"type":"Polygon","coordinates":[[[78.0837,24.2567],[78.1359,24.2132],[78.1173,24.0458],[78.1833,24.0102],[78.2508,24.0472],[78.2919,23.9073],[78.2507,23.7466],[78.2938,23.6744],[78.3975,23.6325],[78.447,23.6917],[78.5184,23.5528],[78.6412,23.5466],[78.7394,23.5764],[78.7371,23.53],[78.6288,23.4515],[78.6315,23.3617],[78.7076,23.3537],[78.7615,23.247],[78.8099,23.2352],[79.0542,23.1981],[79.1388,23.1743],[79.1899,23.223],[79.2389,23.3404],[79.2121,23.4374],[79.2868,23.4788],[79.2914,23.7436],[79.0579,23.9159],[79.187,24.009],[79.1468,24.1016],[79.0541,24.1712],[79.0798,24.2514],[79.2537,24.3671],[79.1791,24.4327],[79.0326,24.3712],[78.9917,24.4177],[78.9166,24.2689],[78.7898,24.1771],[78.7026,24.2269],[78.5959,24.3353],[78.5007,24.3894],[78.3878,24.2688],[78.3291,24.3273],[78.3204,24.4099],[78.2652,24.4521],[78.0913,24.3206],[78.0837,24.2567]]]},"properties":{"district":"SAGAR"}},
{"type":"Feature","geometry":{"type":"Polygon","coordinates":[[[79.4619,24.4011],[79.3982,24.2873],[79.3822,24.1952],[79.3003,24.1807],[79.1468,24.1016],[79.187,24.009],[79.0579,23.9159],[79.2914,23.7436],[79.2868,23.4788],[79.2121,23.4374],[79.2389,23.3404],[79.1899,23.223],[79.23,23.2512],[79.3708,23.1675],[79.5581,23.2733],[79.7028,23.3611],[79.8022,23.466],[79.9294,23.5949],[79.9502,23.6681],[79.8178,23.7374],[79.8632,23.829],[79.8322,23.942],[79.8441,24.0227],[79.7533,24.035],[79.8118,24.1598],[79.8419,24.3147],[79.795,24.3737],[79.629,24.399],[79.4619,24.4011]]]},"properties":{"district":"DAMOH"}},
{"type":"Feature","geometry":{"type":"Polygon","coordinates":[[[80.8563,24.3212],[80.804,24.3766],[80.6993,24.2841],[80.5875,24.2563],[80.5967,24.1356],[80.3933,24.0257],[80.3549,23.9696],[80.4882,23.9999],[80.636,24.0854],[80.7207,24.0912],[80.8642,24.0581],[80.955,24.0662],[80.9598,24.0655],[81.0086,24.0903],[81.1119,24.1302],[81.1851,24.1111],[81.2809,24.1911],[81.3613,24.196],[81.3886,24.2627],[81.3056,24.3226],[81.2917,24.3967],[81.2126,24.4453],[81.1583,24.4147],[81.0273,24.3914],[80.9737,24.3151],[80.8563,24.3212]]]},"properties":{"district":"MAIHAR"}},
{"type":"Feature","geometry":{"type":"Polygon","coordinates":[[[76.212,24.2113],[76.2028,24.3048],[76.1429,24.2827],[76.1267,24.0886],[75.9715,24.0201],[75.9819,23.9296],[75.7938,23.867],[75.7352,23.8982],[75.6866,23.7558],[75.6899,23.7475],[75.8236,23.6971],[75.8782,23.5585],[75.9993,23.5736],[76.1213,23.5384],[76.1594,23.5704],[76.2313,23.5929],[76.2823,23.62],[76.4497,23.6237],[76.355,23.8522],[76.3005,23.9642],[76.1897,24.086],[76.212,24.2113]]]},"properties":{"district":"AGAR MALWA"}},
{"type":"Feature","geometry":{"type":"Polygon","coordinates":[[[77.6484,24.3144],[77.5545,24.2463],[77.4335,24.2405],[77.408,24.3291],[77.3213,24.2877],[77.3529,24.2136],[77.3006,24.127],[77.316,23.8915],[77.3981,23.8513],[77.4337,23.7808],[77.5549,23.7551],[77.6483,23.6926],[77.5064,23.5694],[77.5177,23.5074],[77.6503,23.485],[77.72,23.5315],[77.8112,23.4557],[78.0122,23.4725],[78.0793,23.4525],[78.1335,23.5173],[78.2271,23.5346],[78.2938,23.6744],[78.2507,23.7466],[78.2919,23.9073],[78.2508,24.0472],[78.1833,24.0102],[78.1173,24.0458],[78.1359,24.2132],[78.0837,24.2567],[78.0149,24.2364],[77.8003,24.3062],[77.7839,24.3144],[77.6484,24.3144]]]},"properties":{"district":"VIDISHA"}},
{"type":"Feature","geometry":{"type":"Polygon","coordinates":[[[76.8789,24.1306],[76.7901,24.1227],[76.6759,24.1908],[76.6422,24.2693],[76.5229,24.1568],[76.4569,24.214],[76.3634,24.2327],[76.212,24.2113],[76.1897,24.086],[76.3005,23.9642],[76.355,23.8522],[76.4497,23.6237],[76.4769,23.5241],[76.5262,23.5765],[76.5996,23.5632],[76.7082,23.4897],[76.8022,23.4601],[76.888,23.5232],[77.0498,23.4673],[77.139,23.5479],[77.1668,23.6746],[77.1894,23.7338],[77.2265,23.8927],[77.166,23.9462],[77.1822,24.0792],[76.9534,24.0693],[76.8789,24.1306]]]},"properties":{"district":"RAJGARH"}},
{"type":"Feature","geometry":{"type":"Polygon","coordinates":[[[81.3886,24.2627],[81.3613,24.196],[81.2809,24.1911],[81.1851,24.1111],[81.1119,24.1302],[81.0086,24.0903],[81.0006,24.0687],[81.181,23.8779],[81.1805,23.793],[81.2393,23.6927],[81.2656,23.5548],[81.3016,23.5389],[81.3408,23.2991],[81.3303,23.1925],[81.2655,23.1958],[81.3165,23.105],[81.4225,23.0595],[81.5516,23.0351],[81.5595,23.1483],[81.6707,23.2182],[81.8739,23.2532],[81.8739,23.2976],[81.9837,23.4182],[81.9171,23.5353],[81.8202,23.5157],[81.7254,23.5571],[81.6271,23.491],[81.5769,23.5854],[81.696,23.7211],[81.6038,23.8845],[81.5436,23.9125],[81.5364,24.0679],[81.4694,24.1726],[81.4802,24.2371],[81.3886,24.2627]]]},"properties":{"district":"SHAHDOL"}},
{"type":"Feature","geometry":{"type":"Polygon","coordinates":[[[80.4882,23.9999],[80.3549,23.9696],[80.2925,23.9237],[80.1866,24.0035],[80.1552,23.9401],[80.0531,23.9915],[79.9863,23.8941],[79.8632,23.829],[79.8178,23.7374],[79.9502,23.6681],[79.9294,23.5949],[79.8022,23.466],[79.8704,23.3652],[80.0658,23.3482],[80.168,23.2989],[80.2933,23.3586],[80.3265,23.3057],[80.4845,23.3923],[80.5441,23.3917],[80.5609,23.5668],[80.6222,23.5927],[80.7251,23.7482],[80.8313,23.6702],[80.9053,23.6779],[80.9001,23.8628],[80.8468,23.9662],[80.955,24.0662],[80.8642,24.0581],[80.7207,24.0912],[80.636,24.0854],[80.4882,23.9999]]]},"properties":{"district":"KATNI"}},
{"type":"Feature","geometry":{"type":"Polygon","coordinates":[[[80.9598,24.0655],[80.955,24.0662],[80.8468,23.9662],[80.9001,23.8628],[80.9053,23.6779],[80.8313,23.6702],[80.7251,23.7482],[80.6222,23.5927],[80.5609,23.5668],[80.5441,23.3917],[80.576,23.3519],[80.6992,23.3746],[80.7167,23.2833],[80.8648,23.2328],[80.9233,23.2854],[81.0679,23.1944],[81.1145,23.215],[81.1241,23.2165],[81.1664,23.2944],[81.2655,23.1958],[81.3303,23.1925],[81.3408,23.2991],[81.3016,23.5389],[81.2656,23.5548],[81.2393,23.6927],[81.1805,23.793],[81.181,23.8779],[81.0006,24.0687],[81.0086,24.0903],[80.9598,24.0655]]]},"properties":{"district":"UMARIA"}},
{"type":"Feature","geometry":{"type":"Polygon","coordinates":[[[75.2738,23.8275],[75.1539,23.8315],[75.0526,23.8259],[74.94,23.7644],[74.9365,23.6283],[74.8239,23.5424],[74.7711,23.5425],[74.7284,23.4962],[74.613,23.462],[74.5301,23.3307],[74.5635,23.2931],[74.5733,23.2896],[74.6268,23.2587],[74.6473,23.2553],[74.7412,23.2264],[74.8074,23.1389],[74.9202,23.1619],[75.005,23.1104],[75.1675,23.1059],[75.2421,23.135],[75.2258,23.21],[75.3256,23.2899],[75.1943,23.3272],[75.1566,23.417],[75.1767,23.4987],[75.2743,23.5404],[75.2803,23.5896],[75.4242,23.5667],[75.4991,23.5247],[75.5222,23.6659],[75.6215,23.6601],[75.6899,23.7475],[75.6866,23.7558],[75.5839,23.7948],[75.5638,23.8568],[75.4594,23.9194],[75.3342,23.8406],[75.2785,23.8457],[75.2738,23.8275]]]},"properties":{"district":"RATLAM"}},
{"type":"Feature","geometry":{"type":"Polygon","coordinates":[[[77.2265,23.8927],[77.1894,23.7338],[77.1668,23.6746],[77.2776,23.6018],[77.2883,23.4263],[77.2175,23.3292],[77.1748,23.3021],[77.1762,23.2291],[77.2759,23.104],[77.3792,23.0726],[77.5375,23.1344],[77.5872,23.2504],[77.623,23.3449],[77.5,23.4138],[77.5177,23.5074],[77.5064,23.5694],[77.6483,23.6926],[77.5549,23.7551],[77.4337,23.7808],[77.3981,23.8513],[77.316,23.8915],[77.2265,23.8927]]]},"properties":{"district":"BHOPAL"}},
{"type":"Feature","geometry":{"type":"Polygon","coordinates":[[[75.4242,23.5667],[75.2803,23.5896],[75.2743,23.5404],[75.1767,23.4987],[75.1566,23.417],[75.1943,23.3272],[75.3256,23.2899],[75.2258,23.21],[75.2421,23.135],[75.3005,23.127],[75.3347,23.0394],[75.3069,22.9312],[75.3716,22.8684],[75.4372,22.8677],[75.4737,22.9862],[75.5538,23.0646],[75.6462,23.0069],[75.8048,23.0346],[75.885,23.0249],[75.8971,23.0019],[75.9701,23.0328],[75.9795,23.1031],[75.927,23.2743],[75.962,23.3198],[76.0413,23.1808],[76.0823,23.0476],[76.1139,23.0546],[76.0595,23.1851],[76.1204,23.2431],[76.1819,23.2693],[76.2126,23.3847],[76.209,23.4883],[76.1594,23.5704],[76.1213,23.5384],[75.9993,23.5736],[75.8782,23.5585],[75.8236,23.6971],[75.6899,23.7475],[75.6215,23.6601],[75.5222,23.6659],[75.4991,23.5247],[75.4242,23.5667]]]},"properties":{"district":"UJJAIN"}},
{"type":"Feature","geometry":{"type":"Polygon","coordinates":[[[78.2938,23.6744],[78.2271,23.5346],[78.1335,23.5173],[78.0793,23.4525],[78.0122,23.4725],[77.8112,23.4557],[77.72,23.5315],[77.6503,23.485],[77.5177,23.5074],[77.5,23.4138],[77.623,23.3449],[77.5872,23.2504],[77.5375,23.1344],[77.3792,23.0726],[77.4065,22.9605],[77.5509,22.8593],[77.6394,22.8387],[77.6897,22.8837],[77.855,22.9491],[77.9608,22.9684],[77.9998,22.9259],[78.0271,22.8028],[78.0966,22.7926],[78.2159,22.893],[78.2957,22.8866],[78.4445,22.9871],[78.4731,23.0062],[78.7294,23.0433],[78.7878,23.117],[78.8099,23.2352],[78.7615,23.247],[78.7076,23.3537],[78.6315,23.3617],[78.6288,23.4515],[78.7371,23.53],[78.7394,23.5764],[78.6412,23.5466],[78.5184,23.5528],[78.447,23.6917],[78.3975,23.6325],[78.2938,23.6744]]]},"properties":{"district":"RAISEN"}},
{"type":"Feature","geometry":{"type":"Polygon","coordinates":[[[77.1668,23.6746],[77.139,23.5479],[77.0498,23.4673],[76.9885,23.3971],[76.9825,23.3266],[76.9065,23.2315],[76.8857,23.1258],[76.7743,23.1717],[76.5404,23.1309],[76.4672,23.0757],[76.4536,22.9269],[76.5035,22.8758],[76.5274,22.8063],[76.5757,22.7715],[76.7105,22.7925],[76.8414,22.865],[77.003,22.8769],[77.045,22.6978],[77.1297,22.5554],[77.2122,22.5655],[77.3437,22.5696],[77.466,22.6475],[77.5889,22.6848],[77.6241,22.7445],[77.7692,22.7832],[77.862,22.8399],[77.944,22.7898],[78.0271,22.8028],[77.9998,22.9259],[77.9608,22.9684],[77.855,22.9491],[77.6897,22.8837],[77.6394,22.8387],[77.5509,22.8593],[77.4065,22.9605],[77.3792,23.0726],[77.2759,23.104],[77.1762,23.2291],[77.1748,23.3021],[77.2175,23.3292],[77.2883,23.4263],[77.2776,23.6018],[77.1668,23.6746]]]},"properties":{"district":"SEHORE"}},
{"type":"Feature","geometry":{"type":"Polygon","coordinates":[[[76.2313,23.5929],[76.1594,23.5704],[76.209,23.4883],[76.2126,23.3847],[76.1819,23.2693],[76.1204,23.2431],[76.1634,23.2245],[76.4136,23.2189],[76.4343,23.1929],[76.5109,23.1806],[76.5404,23.1309],[76.7743,23.1717],[76.8857,23.1258],[76.9065,23.2315],[76.9825,23.3266],[76.9885,23.3971],[77.0498,23.4673],[76.888,23.5232],[76.8022,23.4601],[76.7082,23.4897],[76.5996,23.5632],[76.5262,23.5765],[76.4769,23.5241],[76.4497,23.6237],[76.2823,23.62],[76.2313,23.5929]]]},"properties":{"district":"SHAJAPUR"}},
{"type":"Feature","geometry":{"type":"Polygon","coordinates":[[[79.5581,23.2733],[79.3708,23.1675],[79.3474,23.1074],[79.4584,23.0979],[79.5157,23.1435],[79.6077,23.0982],[79.6225,22.9555],[79.7504,22.899],[79.8395,22.8311],[79.9638,22.8521],[79.9512,22.9462],[79.9933,23.0253],[80.1842,23.1265],[80.2484,23.1513],[80.3053,23.097],[80.4241,23.1422],[80.5285,23.0839],[80.5031,23.2023],[80.5825,23.2822],[80.576,23.3519],[80.5441,23.3917],[80.4845,23.3923],[80.3265,23.3057],[80.2933,23.3586],[80.168,23.2989],[80.0658,23.3482],[79.8704,23.3652],[79.8022,23.466],[79.7028,23.3611],[79.5581,23.2733]]]},"properties":{"district":"JABALPUR"}},
{"type":"Feature","geometry":{"type":"Polygon","coordinates":[[[75.962,23.3198],[75.927,23.2743],[75.9795,23.1031],[75.9701,23.0328],[75.8971,23.0019],[75.9795,22.8802],[76.0603,22.807],[76.1037,22.7016],[76.1878,22.6911],[76.2467,22.6451],[76.1175,22.5956],[76.0875,22.5404],[76.1015,22.4701],[76.2342,22.3922],[76.2093,22.3293],[76.2513,22.2899],[76.4443,22.3429],[76.495,22.4118],[76.6021,22.4059],[76.6825,22.2966],[76.7808,22.3442],[76.7954,22.4292],[76.93,22.4904],[77.1008,22.5275],[77.1297,22.5554],[77.045,22.6978],[77.003,22.8769],[76.8414,22.865],[76.7105,22.7925],[76.5757,22.7715],[76.5274,22.8063],[76.5035,22.8758],[76.4536,22.9269],[76.4672,23.0757],[76.5404,23.1309],[76.5109,23.1806],[76.4343,23.1929],[76.4136,23.2189],[76.1634,23.2245],[76.1204,23.2431],[76.0595,23.1851],[76.1139,23.0546],[76.0823,23.0476],[76.0413,23.1808],[75.962,23.3198]]]},"properties":{"district":"DEWAS"}},
{"type":"Feature","geometry":{"type":"Polygon","coordinates":[[[81.8739,23.2532],[81.6707,23.2182],[81.5595,23.1483],[81.5516,23.0351],[81.4225,23.0595],[81.3165,23.105],[81.2655,23.1958],[81.1664,23.2944],[81.1241,23.2165],[81.2552,23.0824],[81.2264,23.0449],[81.1865,22.9522],[81.3513,22.8521],[81.4293,22.8355],[81.4531,22.7705],[81.5286,22.7524],[81.6853,22.7834],[81.7278,22.6753],[81.7691,22.7418],[81.7757,22.8742],[81.8616,22.8891],[81.9504,22.9828],[81.93,23.0211],[81.946,23.0746],[82.1224,23.1039],[82.1486,23.2201],[82.1991,23.3137],[82.1041,23.3978],[81.9837,23.4182],[81.8739,23.2976],[81.8739,23.2532]]]},"properties":{"district":"ANUPPUR"}},
{"type":"Feature","geometry":{"type":"Polygon","coordinates":[[[74.7412,23.2264],[74.5281,23.0977],[74.3862,23.1114],[74.3189,23.0586],[74.3187,23.0575],[74.3384,22.9629],[74.3379,22.9606],[74.4752,22.8501],[74.4745,22.8487],[74.4739,22.8475],[74.466,22.8224],[74.4522,22.8091],[74.3789,22.6346],[74.3788,22.6345],[74.4828,22.5643],[74.5293,22.5654],[74.7118,22.4962],[74.7499,22.5603],[74.7742,22.5715],[74.796,22.6584],[74.7623,22.7505],[74.8517,22.7459],[74.939,22.7935],[75.0031,22.913],[75.0088,22.9936],[75.005,23.1104],[74.9202,23.1619],[74.8074,23.1389],[74.7412,23.2264]]]},"properties":{"district":"JHABUA"}},
{"type":"Feature","geometry":{"type":"Polygon","coordinates":[[[78.8099,23.2352],[78.7878,23.117],[78.7294,23.0433],[78.4731,23.0062],[78.4445,22.9871],[78.5716,22.9551],[78.6309,22.7633],[78.6805,22.6994],[78.7789,22.6217],[78.8815,22.6783],[78.996,22.6347],[79.0225,22.7423],[79.2272,22.8132],[79.325,22.6164],[79.4096,22.7206],[79.6122,22.86],[79.6225,22.9555],[79.6077,23.0982],[79.5157,23.1435],[79.4584,23.0979],[79.3474,23.1074],[79.3708,23.1675],[79.23,23.2512],[79.1899,23.223],[79.1388,23.1743],[79.0542,23.1981],[78.8099,23.2352]]]},"properties":{"district":"NARSINGHPUR"}},
{"type":"Feature","geometry":{"type":"Polygon","coordinates":[[[75.005,23.1104],[75.0088,22.9936],[75.0031,22.913],[74.939,22.7935],[74.8517,22.7459],[74.7623,22.7505],[74.796,22.6584],[74.7742,22.5715],[74.7499,22.5603],[74.7118,22.4962],[74.7368,22.4525],[74.6318,22.3664],[74.6297,22.3222],[74.5993,22.268],[74.5265,22.2364],[74.5253,22.1471],[74.5402,22.1231],[74.5022,22.0446],[74.5612,22.0238],[74.7778,22.0787],[74.95,22.0832],[74.9946,22.087],[75.2756,22.1243],[75.3158,22.1342],[75.4982,22.1558],[75.5644,22.3757],[75.5546,22.5009],[75.7138,22.6279],[75.5284,22.6307],[75.4845,22.7492],[75.4372,22.8677],[75.3716,22.8684],[75.3069,22.9312],[75.3347,23.0394],[75.3005,23.127],[75.2421,23.135],[75.1675,23.1059],[75.005,23.1104]]]},"properties":{"district":"DHAR"}},
{"type":"Feature","geometry":{"type":"Polygon","coordinates":[[[75.4372,22.8677],[75.4845,22.7492],[75.5284,22.6307],[75.7138,22.6279],[75.5546,22.5009],[75.5644,22.3757],[75.6445,22.3356],[75.7523,22.3579],[75.8343,22.4086],[76.0527,22.4537],[76.0283,22.5301],[76.0875,22.5404],[76.1175,22.5956],[76.2467,22.6451],[76.1878,22.6911],[76.1037,22.7016],[76.0603,22.807],[75.9795,22.8802],[75.8971,23.0019],[75.885,23.0249],[75.8048,23.0346],[75.6462,23.0069],[75.5538,23.0646],[75.4737,22.9862],[75.4372,22.8677]]]},"properties":{"district":"INDORE"}},
{"type":"Feature","geometry":{"type":"Polygon","coordinates":[[[81.1145,23.215],[81.0679,23.1944],[80.9233,23.2854],[80.8648,23.2328],[80.7167,23.2833],[80.6992,23.3746],[80.576,23.3519],[80.5825,23.2822],[80.5031,23.2023],[80.5285,23.0839],[80.5723,23.0131],[80.5418,22.9388],[80.5884,22.8565],[80.7299,22.812],[80.8605,22.8399],[80.8674,22.745],[80.9148,22.6948],[80.9437,22.563],[81.0932,22.4585],[81.1079,22.3988],[81.1993,22.4628],[81.3313,22.5255],[81.4228,22.4702],[81.479,22.4917],[81.5224,22.5391],[81.6227,22.5386],[81.6486,22.6153],[81.7178,22.6521],[81.7278,22.6753],[81.6853,22.7834],[81.5286,22.7524],[81.4531,22.7705],[81.4293,22.8355],[81.3513,22.8521],[81.1865,22.9522],[81.2264,23.0449],[81.2552,23.0824],[81.1241,23.2165],[81.1145,23.215]]]},"properties":{"district":"DINDORI"}},
{"type":"Feature","geometry":{"type":"Polygon","coordinates":[[[78.2957,22.8866],[78.2159,22.893],[78.0966,22.7926],[78.0271,22.8028],[77.944,22.7898],[77.862,22.8399],[77.7692,22.7832],[77.6241,22.7445],[77.5889,22.6848],[77.466,22.6475],[77.3437,22.5696],[77.2122,22.5655],[77.257,22.5537],[77.3601,22.3099],[77.3627,22.2465],[77.4308,22.2132],[77.544,22.3405],[77.6555,22.3064],[77.8649,22.3634],[77.9447,22.3393],[78.0305,22.3308],[78.1753,22.3994],[78.2702,22.4021],[78.3484,22.4175],[78.4831,22.3796],[78.5274,22.4203],[78.5479,22.5367],[78.4964,22.5902],[78.5252,22.6662],[78.6118,22.649],[78.6805,22.6994],[78.6309,22.7633],[78.5716,22.9551],[78.4445,22.9871],[78.2957,22.8866]]]},"properties":{"district":"NARMADAPURAM"}},
{"type":"Feature","geometry":{"type":"Polygon","coordinates":[[[79.6225,22.9555],[79.6122,22.86],[79.4096,22.7206],[79.325,22.6164],[79.3467,22.4864],[79.3051,22.4409],[79.3511,22.3514],[79.2954,22.2945],[79.3254,22.2283],[79.4064,22.0414],[79.3962,21.9959],[79.3394,21.9541],[79.2733,21.7744],[79.2309,21.7188],[79.3928,21.674],[79.4962,21.6744],[79.51,21.596],[79.6088,21.6799],[79.6734,21.6963],[79.6908,21.8004],[79.7927,21.837],[79.8618,21.9665],[79.9234,21.9738],[79.9332,22.0675],[80.0654,22.0764],[80.0336,22.1826],[80.0988,22.2458],[80.098,22.3385],[80.0364,22.541],[79.9565,22.5552],[80.0351,22.6082],[80.1541,22.5996],[80.2888,22.7263],[80.27,22.7928],[80.0642,22.7589],[79.9638,22.8521],[79.8395,22.8311],[79.7504,22.899],[79.6225,22.9555]]]},"properties":{"district":"SEONI"}},
{"type":"Feature","geometry":{"type":"Polygon","coordinates":[[[79.9933,23.0253],[79.9512,22.9462],[79.9638,22.8521],[80.0642,22.7589],[80.27,22.7928],[80.2888,22.7263],[80.1541,22.5996],[80.0351,22.6082],[79.9565,22.5552],[80.0364,22.541],[80.098,22.3385],[80.3346,22.3002],[80.3968,22.3056],[80.5143,22.2646],[80.7063,22.2021],[80.7039,22.2706],[80.8657,22.3791],[80.9147,22.279],[81.0469,22.2425],[81.1184,22.2906],[81.1079,22.3988],[81.0932,22.4585],[80.9437,22.563],[80.9148,22.6948],[80.8674,22.745],[80.8605,22.8399],[80.7299,22.812],[80.5884,22.8565],[80.5418,22.9388],[80.5723,23.0131],[80.5285,23.0839],[80.4241,23.1422],[80.3053,23.097],[80.2484,23.1513],[80.1842,23.1265],[79.9933,23.0253]]]},"properties":{"district":"MANDLA"}},
{"type":"Feature","geometry":{"type":"Polygon","coordinates":[[[74.3788,22.6345],[74.3787,22.6345],[74.2772,22.646],[74.1894,22.5535],[74.0933,22.5407],[74.0613,22.5499],[74.0377,22.5348],[74.0292,22.5073],[74.1331,22.4449],[74.2526,22.433],[74.2535,22.3851],[74.2532,22.385],[74.253,22.3852],[74.2528,22.3852],[74.2526,22.3851],[74.1893,22.32],[74.0684,22.3604],[74.0751,22.2572],[74.0751,22.2571],[74.1222,22.2122],[74.1287,22.0947],[74.0999,21.9991],[74.1466,21.9527],[74.2815,21.9329],[74.4318,22.0302],[74.5022,22.0446],[74.5402,22.1231],[74.5253,22.1471],[74.5265,22.2364],[74.5993,22.268],[74.6297,22.3222],[74.6318,22.3664],[74.7368,22.4525],[74.7118,22.4962],[74.5293,22.5654],[74.4828,22.5643],[74.3788,22.6345]]]},"properties":{"district":"ALIRAJPUR"}},
{"type":"Feature","geometry":{"type":"Polygon","coordinates":[[[78.8815,22.6783],[78.7789,22.6217],[78.6805,22.6994],[78.6118,22.649],[78.5252,22.6662],[78.4964,22.5902],[78.5479,22.5367],[78.5274,22.4203],[78.4831,22.3796],[78.3484,22.4175],[78.2702,22.4021],[78.2492,22.3272],[78.2721,22.1153],[78.3304,22.1074],[78.4004,21.9854],[78.5145,21.9363],[78.5045,22.0036],[78.6016,22.048],[78.7968,21.9821],[78.8535,22.02],[78.911,22.0027],[79.0373,21.8643],[79.0294,21.7778],[78.9216,21.7748],[78.9247,21.6738],[78.9737,21.6124],[79.0138,21.5998],[79.2229,21.6489],[79.2309,21.7188],[79.2733,21.7744],[79.3394,21.9541],[79.3962,21.9959],[79.4064,22.0414],[79.3254,22.2283],[79.2954,22.2945],[79.3511,22.3514],[79.3051,22.4409],[79.3467,22.4864],[79.325,22.6164],[79.2272,22.8132],[79.0225,22.7423],[78.996,22.6347],[78.8815,22.6783]]]},"properties":{"district":"CHHINDWARA"}},
{"type":"Feature","geometry":{"type":"Polygon","coordinates":[[[77.1297,22.5554],[77.1008,22.5275],[76.93,22.4904],[76.7954,22.4292],[76.7808,22.3442],[76.852,22.3312],[76.8365,22.1283],[76.8865,21.9841],[76.9556,22.0058],[76.9926,21.9767],[77.1382,21.9943],[77.2184,21.9059],[77.2764,21.9646],[77.4672,22.0193],[77.5064,22.0515],[77.4663,22.0795],[77.3627,22.2465],[77.3601,22.3099],[77.257,22.5537],[77.2122,22.5655],[77.1297,22.5554]]]},"properties":{"district":"HARDA"}},
{"type":"Feature","geometry":{"type":"Polygon","coordinates":[[[76.0875,22.5404],[76.0283,22.5301],[76.0527,22.4537],[75.8343,22.4086],[75.7523,22.3579],[75.6445,22.3356],[75.5644,22.3757],[75.4982,22.1558],[75.3158,22.1342],[75.4134,22.0587],[75.3985,21.9853],[75.3375,21.9241],[75.309,21.8338],[75.2399,21.7447],[75.2712,21.6559],[75.3935,21.6819],[75.4835,21.596],[75.4629,21.5166],[75.5828,21.4756],[75.6166,21.3884],[75.7595,21.38],[75.7931,21.3845],[75.9866,21.3689],[76.0074,21.4221],[75.9487,21.5484],[76.0769,21.5736],[76.0698,21.6634],[76.1697,21.721],[76.1155,21.7702],[76.1006,21.8549],[76.1548,21.8878],[76.1528,22.0287],[76.2249,22.0719],[76.1355,22.1053],[76.0977,22.2491],[76.1579,22.2547],[76.2093,22.3293],[76.2342,22.3922],[76.1015,22.4701],[76.0875,22.5404]]]},"properties":{"district":"KHARGONE"}},
{"type":"Feature","geometry":{"type":"Polygon","coordinates":[[[76.2093,22.3293],[76.1579,22.2547],[76.0977,22.2491],[76.1355,22.1053],[76.2249,22.0719],[76.1528,22.0287],[76.1548,21.8878],[76.1006,21.8549],[76.1155,21.7702],[76.1697,21.721],[76.0698,21.6634],[76.0769,21.5736],[76.1548,21.5496],[76.2604,21.5879],[76.3509,21.5688],[76.4352,21.5984],[76.5152,21.5622],[76.648,21.5648],[76.7811,21.5608],[76.902,21.5971],[77.0658,21.7124],[77.0795,21.7704],[77.1723,21.782],[77.1623,21.8582],[77.2184,21.9059],[77.1382,21.9943],[76.9926,21.9767],[76.9556,22.0058],[76.8865,21.9841],[76.8365,22.1283],[76.852,22.3312],[76.7808,22.3442],[76.6825,22.2966],[76.6021,22.4059],[76.495,22.4118],[76.4443,22.3429],[76.2513,22.2899],[76.2093,22.3293]]]},"properties":{"district":"KHANDWA"}},
{"type":"Feature","geometry":{"type":"Polygon","coordinates":[[[77.9447,22.3393],[77.8649,22.3634],[77.6555,22.3064],[77.544,22.3405],[77.4308,22.2132],[77.3627,22.2465],[77.4663,22.0795],[77.5064,22.0515],[77.4672,22.0193],[77.2764,21.9646],[77.2184,21.9059],[77.1623,21.8582],[77.1723,21.782],[77.0795,21.7704],[77.0658,21.7124],[77.2102,21.6898],[77.28,21.7584],[77.5019,21.7462],[77.5726,21.6168],[77.5751,21.5263],[77.4551,21.5535],[77.4882,21.3743],[77.5633,21.3696],[77.7098,21.3572],[77.8366,21.4004],[77.9037,21.3774],[78.0168,21.4188],[78.1762,21.5005],[78.2648,21.5915],[78.3427,21.589],[78.4593,21.7176],[78.467,21.8133],[78.5392,21.9058],[78.5145,21.9363],[78.4004,21.9854],[78.3304,22.1074],[78.2721,22.1153],[78.2492,22.3272],[78.2702,22.4021],[78.1753,22.3994],[78.0305,22.3308],[77.9447,22.3393]]]},"properties":{"district":"BETUL"}},
{"type":"Feature","geometry":{"type":"Polygon","coordinates":[[[80.5143,22.2646],[80.3968,22.3056],[80.3346,22.3002],[80.098,22.3385],[80.0988,22.2458],[80.0336,22.1826],[80.0654,22.0764],[79.9332,22.0675],[79.9234,21.9738],[79.8618,21.9665],[79.7927,21.837],[79.6908,21.8004],[79.6734,21.6963],[79.6088,21.6799],[79.51,21.596],[79.5392,21.543],[79.6563,21.5594],[79.7362,21.6041],[79.9191,21.5244],[79.9636,21.5582],[80.0755,21.5599],[80.1859,21.6275],[80.2726,21.6127],[80.3372,21.544],[80.4221,21.4406],[80.6214,21.3205],[80.66,21.3342],[80.7337,21.4835],[80.717,21.6717],[80.7484,21.7562],[80.817,21.7616],[80.8426,21.8337],[80.8321,21.9078],[80.9079,22.1096],[80.9944,22.0493],[81.0469,22.2425],[80.9147,22.279],[80.8657,22.3791],[80.7039,22.2706],[80.7063,22.2021],[80.5143,22.2646]]]},"properties":{"district":"BALAGHAT"}},
{"type":"Feature","geometry":{"type":"Polygon","coordinates":[[[75.2756,22.1243],[74.9946,22.087],[74.95,22.0832],[74.7778,22.0787],[74.5612,22.0238],[74.5022,22.0446],[74.4318,22.0302],[74.5091,21.9369],[74.5136,21.8589],[74.5016,21.7825],[74.5823,21.6649],[74.7709,21.6157],[74.8714,21.6316],[74.9726,21.5962],[75.0537,21.5641],[75.1074,21.4628],[75.207,21.4131],[75.3829,21.3796],[75.6166,21.3884],[75.5828,21.4756],[75.4629,21.5166],[75.4835,21.596],[75.3935,21.6819],[75.2712,21.6559],[75.2399,21.7447],[75.309,21.8338],[75.3375,21.9241],[75.3985,21.9853],[75.4134,22.0587],[75.3158,22.1342],[75.2756,22.1243]]]},"properties":{"district":"BARWANI"}},
{"type":"Feature","geometry":{"type":"Polygon","coordinates":[[[78.5145,21.9363],[78.5392,21.9058],[78.467,21.8133],[78.4593,21.7176],[78.3427,21.589],[78.3903,21.6147],[78.4361,21.4998],[78.5117,21.5288],[78.5861,21.4875],[78.7077,21.4705],[78.7559,21.4906],[78.9367,21.4859],[78.9141,21.5888],[78.9737,21.6124],[78.9247,21.6738],[78.9216,21.7748],[79.0294,21.7778],[79.0373,21.8643],[78.911,22.0027],[78.8535,22.02],[78.7968,21.9821],[78.6016,22.048],[78.5045,22.0036],[78.5145,21.9363]]]},"properties":{"district":"PANDHURNA"}},
{"type":"Feature","geometry":{"type":"Polygon","coordinates":[[[76.648,21.5648],[76.5152,21.5622],[76.4352,21.5984],[76.3509,21.5688],[76.2604,21.5879],[76.1548,21.5496],[76.0769,21.5736],[75.9487,21.5484],[76.0074,21.4221],[75.9866,21.3689],[76.0968,21.3719],[76.1511,21.2438],[76.1737,21.0895],[76.3843,21.0765],[76.456,21.1081],[76.4984,21.1935],[76.6239,21.1854],[76.6628,21.2806],[76.6216,21.3326],[76.7395,21.4107],[76.7956,21.4896],[76.7811,21.5608],[76.648,21.5648]]]},"properties":{"district":"BURHANPUR"}}
]}