{"type":"FeatureCollection","features":[{"type":"Feature","geometry":{"type":"Polygon","coordinates":[[[94.9458,26.9352],[94.879,26.922],[94.8185,26.8485],[94.8678,26.8283],[94.9434,26.8495],[94.9907,26.7888],[95.0861,26.805],[95.1215,26.7557],[95.2232,26.7596],[95.1809,26.856],[95.2285,26.8921],[95.1946,27.0317],[95.0923,26.9558],[94.9458,26.9352]]]},"properties":{"AC_NO":41,"AC_NAME":"Tizit","PC_NO":1,"PC_NAME":"NAGALAND","district":"MON"}},{"type":"Feature","geometry":{"type":"Polygon","coordinates":[[[95.2232,26.7596],[95.1215,26.7557],[95.0861,26.805],[94.9907,26.7888],[94.9434,26.8495],[94.8678,26.8283],[94.8951,26.7125],[94.9695,26.7237],[95.0612,26.7276],[95.0926,26.6285],[95.1205,26.6256],[95.2099,26.7287],[95.2176,26.7559],[95.2232,26.7596]]]},"properties":{"AC_NO":43,"AC_NAME":"Tapi","PC_NO":1,"PC_NAME":"NAGALAND","district":"MON"}},{"type":"Feature","geometry":{"type":"Polygon","coordinates":[[[94.8678,26.8283],[94.8185,26.8485],[94.7888,26.796],[94.8342,26.7186],[94.8099,26.6247],[94.9512,26.6737],[94.9893,26.6378],[94.9695,26.7237],[94.8951,26.7125],[94.8678,26.8283]]]},"properties":{"AC_NO":42,"AC_NAME":"Wakching","PC_NO":1,"PC_NAME":"NAGALAND","district":"MON"}},{"type":"Feature","geometry":{"type":"Polygon","coordinates":[[[94.7386,26.7687],[94.7327,26.5949],[94.8143,26.5408],[94.8869,26.5489],[94.8099,26.6247],[94.8342,26.7186],[94.7888,26.796],[94.7386,26.7687]]]},"properties":{"AC_NO":49,"AC_NAME":"Tamlu","PC_NO":1,"PC_NAME":"NAGALAND","district":"LONGLENG"}},{"type":"Feature","geometry":{"type":"Polygon","coordinates":[[[94.7386,26.7687],[94.6994,26.7378],[94.5941,26.7253],[94.561,26.6857],[94.5637,26.5953],[94.5917,26.5414],[94.61,26.6096],[94.7327,26.5949],[94.7386,26.7687]]]},"properties":{"AC_NO":21,"AC_NAME":"Tuli","PC_NO":1,"PC_NAME":"NAGALAND","district":"MOKOKCHUNG"}},{"type":"Feature","geometry":{"type":"Polygon","coordinates":[[[95.2099,26.7287],[95.1205,26.6256],[95.1486,26.6127],[95.2339,26.6825],[95.2099,26.7287]]]},"properties":{"AC_NO":44,"AC_NAME":"Phomching","PC_NO":1,"PC_NAME":"NAGALAND","district":"MON"}},{"type":"Feature","geometry":{"type":"Polygon","coordinates":[[[94.9695,26.7237],[94.9893,26.6378],[94.99,26.6277],[95.0926,26.6285],[95.0612,26.7276],[94.9695,26.7237]]]},"properties":{"AC_NO":46,"AC_NAME":"Mon Town","PC_NO":1,"PC_NAME":"NAGALAND","district":"MON"}},{"type":"Feature","geometry":{"type":"Polygon","coordinates":[[[94.99,26.6277],[94.9893,26.6378],[94.9512,26.6737],[94.8099,26.6247],[94.8869,26.5489],[94.8926,26.5117],[94.9853,26.5398],[94.99,26.6277]]]},"properties":{"AC_NO":47,"AC_NAME":"Aboi","PC_NO":1,"PC_NAME":"NAGALAND","district":"MON"}},{"type":"Feature","geometry":{"type":"Polygon","coordinates":[[[94.561,26.6857],[94.4084,26.613],[94.3959,26.5276],[94.3157,26.4582],[94.3404,26.3804],[94.5637,26.5953],[94.561,26.6857]]]},"properties":{"AC_NO":30,"AC_NAME":"Alungtaki","PC_NO":1,"PC_NAME":"NAGALAND","district":"MOKOKCHUNG"}},{"type":"Feature","geometry":{"type":"Polygon","coordinates":[[[95.1205,26.6256],[95.0926,26.6285],[94.99,26.6277],[94.9853,26.5398],[95.1135,26.5315],[95.1486,26.6127],[95.1205,26.6256]]]},"properties":{"AC_NO":45,"AC_NAME":"Tehok","PC_NO":1,"PC_NAME":"NAGALAND","district":"MON"}},{"type":"Feature","geometry":{"type":"Polygon","coordinates":[[[94.8869,26.5489],[94.8143,26.5408],[94.7327,26.5949],[94.6865,26.5248],[94.8036,26.4198],[94.8961,26.4154],[94.8999,26.438],[94.8926,26.5117],[94.8869,26.5489]]]},"properties":{"AC_NO":50,"AC_NAME":"Longleng","PC_NO":1,"PC_NAME":"NAGALAND","district":"LONGLENG"}},{"type":"Feature","geometry":{"type":"Polygon","coordinates":[[[94.7327,26.5949],[94.61,26.6096],[94.5917,26.5414],[94.5441,26.4744],[94.6047,26.4562],[94.6904,26.4756],[94.6865,26.5248],[94.7327,26.5949]]]},"properties":{"AC_NO":22,"AC_NAME":"Arkakong","PC_NO":1,"PC_NAME":"NAGALAND","district":"MOKOKCHUNG"}},{"type":"Feature","geometry":{"type":"Polygon","coordinates":[[[94.5917,26.5414],[94.5637,26.5953],[94.3404,26.3804],[94.3566,26.3353],[94.4422,26.4003],[94.5441,26.4744],[94.5917,26.5414]]]},"properties":{"AC_NO":29,"AC_NAME":"Jangpetkong","PC_NO":1,"PC_NAME":"NAGALAND","district":"MOKOKCHUNG"}},{"type":"Feature","geometry":{"type":"Polygon","coordinates":[[[95.1135,26.5315],[94.9853,26.5398],[94.8926,26.5117],[94.8999,26.438],[95.0145,26.4934],[95.0728,26.4723],[95.1135,26.5315]]]},"properties":{"AC_NO":48,"AC_NAME":"Moka","PC_NO":1,"PC_NAME":"NAGALAND","district":"MON"}},{"type":"Feature","geometry":{"type":"Polygon","coordinates":[[[94.3157,26.4582],[94.2808,26.535],[94.2066,26.4863],[94.1614,26.3471],[94.0474,26.2492],[93.9964,26.1536],[93.9549,25.969],[93.9783,25.9277],[94.0981,25.9834],[94.131,26.0388],[94.044,26.0623],[94.2374,26.2502],[94.3532,26.316],[94.3566,26.3353],[94.3404,26.3804],[94.3157,26.4582]]]},"properties":{"AC_NO":40,"AC_NAME":"Bhandari","PC_NO":1,"PC_NAME":"NAGALAND","district":"WOKHA"}},{"type":"Feature","geometry":{"type":"Polygon","coordinates":[[[94.6865,26.5248],[94.6904,26.4756],[94.6575,26.3474],[94.7925,26.37],[94.92,26.3464],[94.8961,26.4154],[94.8036,26.4198],[94.6865,26.5248]]]},"properties":{"AC_NO":51,"AC_NAME":"Noksen","PC_NO":1,"PC_NAME":"NAGALAND","district":"TUENSANG"}},{"type":"Feature","geometry":{"type":"Polygon","coordinates":[[[95.0728,26.4723],[95.0145,26.4934],[94.8999,26.438],[94.8961,26.4154],[94.92,26.3464],[94.998,26.3143],[95.1081,26.3952],[95.0728,26.4723]]]},"properties":{"AC_NO":55,"AC_NAME":"Tobu","PC_NO":1,"PC_NAME":"NAGALAND","district":"MON"}},{"type":"Feature","geometry":{"type":"Polygon","coordinates":[[[94.6904,26.4756],[94.6047,26.4562],[94.5769,26.368],[94.4927,26.3486],[94.5033,26.3366],[94.5425,26.3343],[94.6247,26.3293],[94.6575,26.3474],[94.6904,26.4756]]]},"properties":{"AC_NO":24,"AC_NAME":"Angetyongpang","PC_NO":1,"PC_NAME":"NAGALAND","district":"MOKOKCHUNG"}},{"type":"Feature","geometry":{"type":"Polygon","coordinates":[[[94.6047,26.4562],[94.5441,26.4744],[94.4422,26.4003],[94.4927,26.3486],[94.5769,26.368],[94.6047,26.4562]]]},"properties":{"AC_NO":23,"AC_NAME":"Impur","PC_NO":1,"PC_NAME":"NAGALAND","district":"MOKOKCHUNG"}},{"type":"Feature","geometry":{"type":"Polygon","coordinates":[[[95.1081,26.3952],[94.998,26.3143],[94.9702,26.1541],[95.0428,26.1126],[95.1264,26.1292],[95.1425,26.2116],[95.1081,26.3952]]]},"properties":{"AC_NO":56,"AC_NAME":"Noklak","PC_NO":1,"PC_NAME":"NAGALAND","district":"NOKLAK"}},{"type":"Feature","geometry":{"type":"Polygon","coordinates":[[[94.4927,26.3486],[94.4422,26.4003],[94.3566,26.3353],[94.3532,26.316],[94.3712,26.1929],[94.4441,26.2181],[94.4788,26.2933],[94.5033,26.3366],[94.4927,26.3486]]]},"properties":{"AC_NO":28,"AC_NAME":"Koridang","PC_NO":1,"PC_NAME":"NAGALAND","district":"MOKOKCHUNG"}},{"type":"Feature","geometry":{"type":"Polygon","coordinates":[[[94.6575,26.3474],[94.6247,26.3293],[94.5592,26.2822],[94.5834,26.2189],[94.695,26.1809],[94.7536,26.2164],[94.7953,26.3095],[94.7925,26.37],[94.6575,26.3474]]]},"properties":{"AC_NO":52,"AC_NAME":"Longkhim Chare","PC_NO":1,"PC_NAME":"NAGALAND","district":"TUENSANG"}},{"type":"Feature","geometry":{"type":"Polygon","coordinates":[[[94.92,26.3464],[94.7925,26.37],[94.7953,26.3095],[94.8277,26.2358],[94.7536,26.2164],[94.695,26.1809],[94.7041,26.1704],[94.8632,26.1209],[94.9699,26.1186],[94.9702,26.1541],[94.998,26.3143],[94.92,26.3464]]]},"properties":{"AC_NO":54,"AC_NAME":"Tuensang Sadar-II","PC_NO":1,"PC_NAME":"NAGALAND","district":"SHAMATOR"}},{"type":"Feature","geometry":{"type":"Polygon","coordinates":[[[94.6247,26.3293],[94.5425,26.3343],[94.5213,26.3092],[94.4832,26.2924],[94.5081,26.2137],[94.5834,26.2189],[94.5592,26.2822],[94.6247,26.3293]]]},"properties":{"AC_NO":25,"AC_NAME":"Monguya","PC_NO":1,"PC_NAME":"NAGALAND","district":"MOKOKCHUNG"}},{"type":"Feature","geometry":{"type":"Polygon","coordinates":[[[94.5425,26.3343],[94.5033,26.3366],[94.5213,26.3092],[94.5425,26.3343]]]},"properties":{"AC_NO":27,"AC_NAME":"Mokokchung Town","PC_NO":1,"PC_NAME":"NAGALAND","district":"MOKOKCHUNG"}},{"type":"Feature","geometry":{"type":"Polygon","coordinates":[[[94.5213,26.3092],[94.5033,26.3366],[94.4788,26.2933],[94.4832,26.2924],[94.5213,26.3092]]]},"properties":{"AC_NO":26,"AC_NAME":"Aonglenden","PC_NO":1,"PC_NAME":"NAGALAND","district":"MOKOKCHUNG"}},{"type":"Feature","geometry":{"type":"Polygon","coordinates":[[[94.7953,26.3095],[94.7536,26.2164],[94.8277,26.2358],[94.7953,26.3095]]]},"properties":{"AC_NO":53,"AC_NAME":"Tuensang Sadar-I","PC_NO":1,"PC_NAME":"NAGALAND","district":"TUENSANG"}},{"type":"Feature","geometry":{"type":"Polygon","coordinates":[[[94.3712,26.1929],[94.3532,26.316],[94.2374,26.2502],[94.044,26.0623],[94.131,26.0388],[94.2281,26.1618],[94.3355,26.1738],[94.3712,26.1929]]]},"properties":{"AC_NO":39,"AC_NAME":"Sanis","PC_NO":1,"PC_NAME":"NAGALAND","district":"WOKHA"}},{"type":"Feature","geometry":{"type":"Polygon","coordinates":[[[94.4832,26.2924],[94.4788,26.2933],[94.4441,26.2181],[94.3712,26.1929],[94.3355,26.1738],[94.3869,26.1113],[94.5069,26.1967],[94.5081,26.2137],[94.4832,26.2924]]]},"properties":{"AC_NO":31,"AC_NAME":"Akuluto","PC_NO":1,"PC_NAME":"NAGALAND","district":"ZUNHEBOTO"}},{"type":"Feature","geometry":{"type":"Polygon","coordinates":[[[94.5081,26.2137],[94.5069,26.1967],[94.5167,26.1356],[94.632,26.129],[94.6891,26.1365],[94.7041,26.1704],[94.695,26.1809],[94.5834,26.2189],[94.5081,26.2137]]]},"properties":{"AC_NO":33,"AC_NAME":"Suruhuto","PC_NO":1,"PC_NAME":"NAGALAND","district":"ZUNHEBOTO"}},{"type":"Feature","geometry":{"type":"Polygon","coordinates":[[[94.3355,26.1738],[94.2281,26.1618],[94.2726,26.0761],[94.2389,26.0026],[94.2581,26.0051],[94.3602,26.0071],[94.3869,26.1113],[94.3355,26.1738]]]},"properties":{"AC_NO":37,"AC_NAME":"Tyui","PC_NO":1,"PC_NAME":"NAGALAND","district":"WOKHA"}},{"type":"Feature","geometry":{"type":"Polygon","coordinates":[[[95.1264,26.1292],[95.0428,26.1126],[94.9702,26.1541],[94.9699,26.1186],[94.9061,26.0261],[94.8832,25.9538],[94.9392,25.8675],[95.0187,25.8584],[95.1857,26.0733],[95.1264,26.1292]]]},"properties":{"AC_NO":57,"AC_NAME":"Thonoknyu","PC_NO":1,"PC_NAME":"NAGALAND","district":"NOKLAK"}},{"type":"Feature","geometry":{"type":"Polygon","coordinates":[[[94.5069,26.1967],[94.3869,26.1113],[94.3602,26.0071],[94.359,25.9937],[94.4796,26.0611],[94.5167,26.1356],[94.5069,26.1967]]]},"properties":{"AC_NO":32,"AC_NAME":"Atoizu","PC_NO":1,"PC_NAME":"NAGALAND","district":"ZUNHEBOTO"}},{"type":"Feature","geometry":{"type":"Polygon","coordinates":[[[94.7041,26.1704],[94.6891,26.1365],[94.6934,26.0438],[94.8172,26.0328],[94.9061,26.0261],[94.9699,26.1186],[94.8632,26.1209],[94.7041,26.1704]]]},"properties":{"AC_NO":58,"AC_NAME":"Shamtorr-Chessore","PC_NO":1,"PC_NAME":"NAGALAND","district":"SHAMATOR"}},{"type":"Feature","geometry":{"type":"Polygon","coordinates":[[[94.6891,26.1365],[94.632,26.129],[94.567,25.9736],[94.5709,25.8924],[94.6934,26.0438],[94.6891,26.1365]]]},"properties":{"AC_NO":34,"AC_NAME":"Aghunato","PC_NO":1,"PC_NAME":"NAGALAND","district":"ZUNHEBOTO"}},{"type":"Feature","geometry":{"type":"Polygon","coordinates":[[[94.632,26.129],[94.5167,26.1356],[94.4796,26.0611],[94.567,25.9736],[94.632,26.129]]]},"properties":{"AC_NO":35,"AC_NAME":"Zunheboto","PC_NO":1,"PC_NAME":"NAGALAND","district":"ZUNHEBOTO"}},{"type":"Feature","geometry":{"type":"Polygon","coordinates":[[[94.2281,26.1618],[94.131,26.0388],[94.0981,25.9834],[94.2389,26.0026],[94.2726,26.0761],[94.2281,26.1618]]]},"properties":{"AC_NO":38,"AC_NAME":"Wokha","PC_NO":1,"PC_NAME":"NAGALAND","district":"WOKHA"}},{"type":"Feature","geometry":{"type":"Polygon","coordinates":[[[94.4796,26.0611],[94.359,25.9937],[94.3479,25.9224],[94.4907,25.8315],[94.7129,25.7593],[94.6102,25.8178],[94.5709,25.8924],[94.567,25.9736],[94.4796,26.0611]]]},"properties":{"AC_NO":36,"AC_NAME":"Satakha","PC_NO":1,"PC_NAME":"NAGALAND","district":"ZUNHEBOTO"}},{"type":"Feature","geometry":{"type":"Polygon","coordinates":[[[94.8172,26.0328],[94.6934,26.0438],[94.5709,25.8924],[94.6102,25.8178],[94.7129,25.7593],[94.82,25.763],[94.8545,25.7242],[94.858,25.8379],[94.7488,25.9179],[94.8172,26.0328]]]},"properties":{"AC_NO":59,"AC_NAME":"Siyuchong-Sitimi","PC_NO":1,"PC_NAME":"NAGALAND","district":"KIPHIRE"}},{"type":"Feature","geometry":{"type":"Polygon","coordinates":[[[94.9061,26.0261],[94.8172,26.0328],[94.7488,25.9179],[94.858,25.8379],[94.8545,25.7242],[94.8814,25.585],[94.9365,25.668],[95.0408,25.7423],[95.0187,25.8584],[94.9392,25.8675],[94.8832,25.9538],[94.9061,26.0261]]]},"properties":{"AC_NO":60,"AC_NAME":"Pungro-Kiphire","PC_NO":1,"PC_NAME":"NAGALAND","district":"KIPHIRE"}},{"type":"Feature","geometry":{"type":"Polygon","coordinates":[[[94.359,25.9937],[94.3602,26.0071],[94.2581,26.0051],[94.2801,25.9424],[94.177,25.8545],[94.2605,25.7656],[94.3054,25.8404],[94.3479,25.9224],[94.359,25.9937]]]},"properties":{"AC_NO":13,"AC_NAME":"Pughoboto","PC_NO":1,"PC_NAME":"NAGALAND","district":"ZUNHEBOTO"}},{"type":"Feature","geometry":{"type":"Polygon","coordinates":[[[94.2581,26.0051],[94.2389,26.0026],[94.0981,25.9834],[93.9783,25.9277],[93.9561,25.9021],[93.9875,25.8733],[94.0804,25.9064],[94.177,25.8545],[94.2801,25.9424],[94.2581,26.0051]]]},"properties":{"AC_NO":12,"AC_NAME":"Tseminyu","PC_NO":1,"PC_NAME":"NAGALAND","district":"TSEMINYU"}},{"type":"Feature","geometry":{"type":"Polygon","coordinates":[[[94.3479,25.9224],[94.3054,25.8404],[94.3361,25.6913],[94.4407,25.6403],[94.4907,25.8315],[94.3479,25.9224]]]},"properties":{"AC_NO":19,"AC_NAME":"Phek","PC_NO":1,"PC_NAME":"NAGALAND","district":"PHEK"}},{"type":"Feature","geometry":{"type":"Polygon","coordinates":[[[93.778,25.8508],[93.7773,25.969],[93.7326,25.9233],[93.7417,25.8959],[93.7463,25.8983],[93.778,25.8508]]]},"properties":{"AC_NO":1,"AC_NAME":"Dimapur-I","PC_NO":1,"PC_NAME":"NAGALAND","district":"DIMAPUR"}},{"type":"Feature","geometry":{"type":"Polygon","coordinates":[[[94.177,25.8545],[94.0804,25.9064],[93.9875,25.8733],[94.0095,25.8004],[94.0862,25.7134],[94.2142,25.6737],[94.2605,25.7656],[94.177,25.8545]]]},"properties":{"AC_NO":11,"AC_NAME":"Northern Angami -II","PC_NO":1,"PC_NAME":"NAGALAND","district":"KOHIMA"}},{"type":"Feature","geometry":{"type":"Polygon","coordinates":[[[93.7417,25.8959],[93.7326,25.9233],[93.6836,25.8984],[93.6389,25.8107],[93.7216,25.8251],[93.7417,25.8959]]]},"properties":{"AC_NO":2,"AC_NAME":"Dimapur-II","PC_NO":1,"PC_NAME":"NAGALAND","district":"DIMAPUR"}},{"type":"Feature","geometry":{"type":"Polygon","coordinates":[[[93.9875,25.8733],[93.9561,25.9021],[93.8756,25.8416],[93.778,25.8508],[93.7463,25.8983],[93.7298,25.7732],[93.6178,25.6896],[93.6464,25.6501],[93.7922,25.6691],[93.8007,25.7679],[93.8828,25.7906],[93.9875,25.8733]]]},"properties":{"AC_NO":4,"AC_NAME":"Ghaspani-I","PC_NO":1,"PC_NAME":"NAGALAND","district":"CHUMOUKEDIMA"}},{"type":"Feature","geometry":{"type":"Polygon","coordinates":[[[93.7463,25.8983],[93.7417,25.8959],[93.7216,25.8251],[93.6389,25.8107],[93.5113,25.6752],[93.6464,25.6501],[93.6178,25.6896],[93.7298,25.7732],[93.7463,25.8983]]]},"properties":{"AC_NO":3,"AC_NAME":"Dimapur-III","PC_NO":1,"PC_NAME":"NAGALAND","district":"CHUMOUKEDIMA"}},{"type":"Feature","geometry":{"type":"Polygon","coordinates":[[[94.0095,25.8004],[93.9875,25.8733],[93.8828,25.7906],[93.8007,25.7679],[93.7922,25.6691],[93.9469,25.6812],[94.0095,25.8004]]]},"properties":{"AC_NO":5,"AC_NAME":"Ghaspani-II","PC_NO":1,"PC_NAME":"NAGALAND","district":"CHUMOUKEDIMA"}},{"type":"Feature","geometry":{"type":"Polygon","coordinates":[[[94.4907,25.8315],[94.4407,25.6403],[94.4268,25.5871],[94.4917,25.6087],[94.5847,25.6846],[94.5539,25.5026],[94.6755,25.4456],[94.8055,25.4918],[94.8814,25.585],[94.8545,25.7242],[94.82,25.763],[94.7129,25.7593],[94.4907,25.8315]]]},"properties":{"AC_NO":20,"AC_NAME":"Meluri","PC_NO":1,"PC_NAME":"NAGALAND","district":"PHEK"}},{"type":"Feature","geometry":{"type":"Polygon","coordinates":[[[94.3054,25.8404],[94.2605,25.7656],[94.2142,25.6737],[94.2101,25.6305],[94.2071,25.5939],[94.3207,25.6036],[94.3361,25.6913],[94.3054,25.8404]]]},"properties":{"AC_NO":18,"AC_NAME":"Chazouba","PC_NO":1,"PC_NAME":"NAGALAND","district":"PHEK"}},{"type":"Feature","geometry":{"type":"Polygon","coordinates":[[[94.0862,25.7134],[94.0095,25.8004],[93.9469,25.6812],[93.9349,25.559],[94.0891,25.5477],[94.0796,25.6385],[94.0874,25.6805],[94.0862,25.7134]]]},"properties":{"AC_NO":8,"AC_NAME":"Western Angami","PC_NO":1,"PC_NAME":"NAGALAND","district":"KOHIMA"}},{"type":"Feature","geometry":{"type":"Polygon","coordinates":[[[94.4407,25.6403],[94.3361,25.6913],[94.3207,25.6036],[94.3009,25.5063],[94.4166,25.5366],[94.4268,25.5871],[94.4407,25.6403]]]},"properties":{"AC_NO":17,"AC_NAME":"Chizami","PC_NO":1,"PC_NAME":"NAGALAND","district":"PHEK"}},{"type":"Feature","geometry":{"type":"Polygon","coordinates":[[[94.2142,25.6737],[94.0862,25.7134],[94.0874,25.6805],[94.1209,25.6571],[94.1938,25.6426],[94.2101,25.6305],[94.2142,25.6737]]]},"properties":{"AC_NO":10,"AC_NAME":"Northern Angami - I","PC_NO":1,"PC_NAME":"NAGALAND","district":"KOHIMA"}},{"type":"Feature","geometry":{"type":"Polygon","coordinates":[[[94.1209,25.6571],[94.0874,25.6805],[94.0796,25.6385],[94.1209,25.6571]]]},"properties":{"AC_NO":9,"AC_NAME":"Kohima Town","PC_NO":1,"PC_NAME":"NAGALAND","district":"KOHIMA"}},{"type":"Feature","geometry":{"type":"Polygon","coordinates":[[[93.7922,25.6691],[93.6464,25.6501],[93.6874,25.6025],[93.6887,25.3601],[93.805,25.4634],[93.7703,25.5337],[93.9349,25.559],[93.9469,25.6812],[93.7922,25.6691]]]},"properties":{"AC_NO":7,"AC_NAME":"Peren","PC_NO":1,"PC_NAME":"NAGALAND","district":"PEREN"}},{"type":"Feature","geometry":{"type":"Polygon","coordinates":[[[94.1938,25.6426],[94.1209,25.6571],[94.0796,25.6385],[94.0891,25.5477],[94.1073,25.5242],[94.1938,25.6426]]]},"properties":{"AC_NO":14,"AC_NAME":"Southern Angami-I","PC_NO":1,"PC_NAME":"NAGALAND","district":"KOHIMA"}},{"type":"Feature","geometry":{"type":"Polygon","coordinates":[[[94.1938,25.6426],[94.1073,25.5242],[94.1357,25.5184],[94.1921,25.5486],[94.2071,25.5939],[94.2101,25.6305],[94.1938,25.6426]]]},"properties":{"AC_NO":15,"AC_NAME":"Southern Angami-II","PC_NO":1,"PC_NAME":"NAGALAND","district":"KOHIMA"}},{"type":"Feature","geometry":{"type":"Polygon","coordinates":[[[93.5113,25.6752],[93.3303,25.5423],[93.4579,25.4314],[93.4706,25.3051],[93.5015,25.2421],[93.6052,25.199],[93.6887,25.3601],[93.6874,25.6025],[93.6464,25.6501],[93.5113,25.6752]]]},"properties":{"AC_NO":6,"AC_NAME":"Tenning","PC_NO":1,"PC_NAME":"NAGALAND","district":"PEREN"}},{"type":"Feature","geometry":{"type":"Polygon","coordinates":[[[94.3207,25.6036],[94.2071,25.5939],[94.1921,25.5486],[94.3009,25.5063],[94.3207,25.6036]]]},"properties":{"AC_NO":16,"AC_NAME":"Pfutsero","PC_NO":1,"PC_NAME":"NAGALAND","district":"PHEK"}}]}