{"type":"FeatureCollection", "features": [
{"type":"Feature","geometry":{"type":"Polygon","coordinates":[[[94.8185,26.8485],[94.7888,26.796],[94.8342,26.7186],[94.7901,26.6883],[94.8099,26.6247],[94.8939,26.6009],[94.8869,26.5489],[94.8926,26.5117],[94.8999,26.438],[94.8961,26.4154],[94.92,26.3464],[94.998,26.3143],[95.1081,26.3952],[95.0728,26.4723],[95.1135,26.5315],[95.1486,26.6127],[95.2339,26.6825],[95.2099,26.7287],[95.2232,26.7596],[95.1809,26.856],[95.2319,26.9197],[95.1915,26.9849],[94.982,26.913],[94.9551,26.9398],[94.879,26.922],[94.8185,26.8485]]]},"properties":{"district":"MON"}},
{"type":"Feature","geometry":{"type":"Polygon","coordinates":[[[94.7888,26.796],[94.7386,26.7687],[94.7491,26.6984],[94.7068,26.6384],[94.7327,26.5949],[94.6865,26.5248],[94.7465,26.4914],[94.8036,26.4198],[94.8592,26.3939],[94.8961,26.4154],[94.8999,26.438],[94.8926,26.5117],[94.8869,26.5489],[94.8939,26.6009],[94.8099,26.6247],[94.7901,26.6883],[94.8342,26.7186],[94.7888,26.796]]]},"properties":{"district":"LONGLENG"}},
{"type":"Feature","geometry":{"type":"Polygon","coordinates":[[[94.7386,26.7687],[94.6856,26.7291],[94.561,26.6857],[94.4927,26.6662],[94.4031,26.6111],[94.3959,26.5276],[94.3157,26.4582],[94.2902,26.4179],[94.3404,26.3804],[94.3566,26.3353],[94.3532,26.316],[94.3482,26.2506],[94.3712,26.1929],[94.4441,26.2181],[94.4788,26.2933],[94.4832,26.2924],[94.5081,26.2137],[94.5834,26.2189],[94.5592,26.2822],[94.6247,26.3293],[94.6575,26.3474],[94.7117,26.4374],[94.6904,26.4756],[94.6865,26.5248],[94.7327,26.5949],[94.7068,26.6384],[94.7491,26.6984],[94.7386,26.7687]]]},"properties":{"district":"MOKOKCHUNG"}},
{"type":"Feature","geometry":{"type":"Polygon","coordinates":[[[94.3157,26.4582],[94.2808,26.535],[94.2066,26.4863],[94.1713,26.4303],[94.1716,26.3382],[94.1158,26.3294],[94.0078,26.1827],[93.9872,26.0668],[93.9549,25.969],[93.9783,25.9277],[94.0388,25.9405],[94.0981,25.9834],[94.1622,25.9731],[94.2389,26.0026],[94.2581,26.0051],[94.3602,26.0071],[94.3869,26.1113],[94.3355,26.1738],[94.3712,26.1929],[94.3482,26.2506],[94.3532,26.316],[94.3566,26.3353],[94.3404,26.3804],[94.2902,26.4179],[94.3157,26.4582]]]},"properties":{"district":"WOKHA"}},
{"type":"Feature","geometry":{"type":"Polygon","coordinates":[[[94.6865,26.5248],[94.6904,26.4756],[94.7117,26.4374],[94.6575,26.3474],[94.6247,26.3293],[94.5592,26.2822],[94.5834,26.2189],[94.6382,26.2172],[94.695,26.1809],[94.7536,26.2164],[94.8277,26.2358],[94.7953,26.3095],[94.7925,26.37],[94.92,26.3464],[94.8961,26.4154],[94.8592,26.3939],[94.8036,26.4198],[94.7465,26.4914],[94.6865,26.5248]]]},"properties":{"district":"TUENSANG"}},
{"type":"Feature","geometry":{"type":"Polygon","coordinates":[[[94.998,26.3143],[94.9702,26.1541],[94.9699,26.1186],[94.9612,26.0311],[94.9061,26.0261],[94.8832,25.9538],[94.9392,25.8675],[95.0187,25.8584],[95.031,25.9313],[95.0956,25.9558],[95.1857,26.0733],[95.1264,26.1292],[95.1425,26.2116],[95.1081,26.3952],[94.998,26.3143]]]},"properties":{"district":"NOKLAK"}},
{"type":"Feature","geometry":{"type":"Polygon","coordinates":[[[94.7925,26.37],[94.7953,26.3095],[94.8277,26.2358],[94.7536,26.2164],[94.695,26.1809],[94.7041,26.1704],[94.6891,26.1365],[94.6934,26.0438],[94.8172,26.0328],[94.9061,26.0261],[94.9612,26.0311],[94.9699,26.1186],[94.9702,26.1541],[94.998,26.3143],[94.92,26.3464],[94.7925,26.37]]]},"properties":{"district":"SHAMATOR"}},
{"type":"Feature","geometry":{"type":"Polygon","coordinates":[[[94.3712,26.1929],[94.3355,26.1738],[94.3869,26.1113],[94.3602,26.0071],[94.2581,26.0051],[94.2801,25.9424],[94.2462,25.8866],[94.177,25.8545],[94.2605,25.7656],[94.3054,25.8404],[94.3479,25.9224],[94.4263,25.8974],[94.4907,25.8315],[94.6068,25.7784],[94.7129,25.7593],[94.6513,25.8155],[94.6102,25.8178],[94.5709,25.8924],[94.6934,26.0438],[94.6891,26.1365],[94.7041,26.1704],[94.695,26.1809],[94.6382,26.2172],[94.5834,26.2189],[94.5081,26.2137],[94.4832,26.2924],[94.4788,26.2933],[94.4441,26.2181],[94.3712,26.1929]]]},"properties":{"district":"ZUNHEBOTO"}},
{"type":"Feature","geometry":{"type":"Polygon","coordinates":[[[94.6934,26.0438],[94.5709,25.8924],[94.6102,25.8178],[94.6513,25.8155],[94.7129,25.7593],[94.82,25.763],[94.8545,25.7242],[94.846,25.65],[94.8814,25.585],[94.9365,25.668],[95.0408,25.7423],[95.0498,25.8009],[95.0187,25.8584],[94.9392,25.8675],[94.8832,25.9538],[94.9061,26.0261],[94.8172,26.0328],[94.6934,26.0438]]]},"properties":{"district":"KIPHIRE"}},
{"type":"Feature","geometry":{"type":"Polygon","coordinates":[[[93.9783,25.9277],[93.9561,25.9021],[93.9875,25.8733],[94.0804,25.9064],[94.177,25.8545],[94.2462,25.8866],[94.2801,25.9424],[94.2581,26.0051],[94.2389,26.0026],[94.1622,25.9731],[94.0981,25.9834],[94.0388,25.9405],[93.9783,25.9277]]]},"properties":{"district":"TSEMINYU"}},
{"type":"Feature","geometry":{"type":"Polygon","coordinates":[[[94.3479,25.9224],[94.3054,25.8404],[94.2605,25.7656],[94.2142,25.6737],[94.2101,25.6305],[94.2071,25.5939],[94.1921,25.5486],[94.2186,25.4916],[94.3009,25.5063],[94.4166,25.5366],[94.4268,25.5871],[94.5052,25.6136],[94.5847,25.6846],[94.5539,25.5026],[94.616,25.4625],[94.8055,25.4918],[94.8253,25.5424],[94.8814,25.585],[94.846,25.65],[94.8545,25.7242],[94.82,25.763],[94.7129,25.7593],[94.6068,25.7784],[94.4907,25.8315],[94.4263,25.8974],[94.3479,25.9224]]]},"properties":{"district":"PHEK"}},
{"type":"Feature","geometry":{"type":"Polygon","coordinates":[[[93.778,25.8508],[93.7964,25.8925],[93.7326,25.9233],[93.6814,25.9046],[93.7022,25.8518],[93.6389,25.8107],[93.7216,25.8251],[93.7417,25.8959],[93.7463,25.8983],[93.778,25.8508]]]},"properties":{"district":"DIMAPUR"}},
{"type":"Feature","geometry":{"type":"Polygon","coordinates":[[[94.177,25.8545],[94.0804,25.9064],[93.9875,25.8733],[94.0095,25.8004],[93.9469,25.6812],[93.9349,25.559],[94.0481,25.5756],[94.0891,25.5477],[94.1073,25.5242],[94.1921,25.5486],[94.2071,25.5939],[94.2101,25.6305],[94.2142,25.6737],[94.2605,25.7656],[94.177,25.8545]]]},"properties":{"district":"KOHIMA"}},
{"type":"Feature","geometry":{"type":"Polygon","coordinates":[[[93.9561,25.9021],[93.8756,25.8416],[93.778,25.8508],[93.7463,25.8983],[93.7417,25.8959],[93.7216,25.8251],[93.6389,25.8107],[93.5402,25.724],[93.5113,25.6752],[93.6464,25.6501],[93.7922,25.6691],[93.8833,25.6585],[93.9469,25.6812],[94.0095,25.8004],[93.9875,25.8733],[93.9561,25.9021]]]},"properties":{"district":"CHUMOUKEDIMA"}},
{"type":"Feature","geometry":{"type":"Polygon","coordinates":[[[93.6464,25.6501],[93.5113,25.6752],[93.4271,25.6322],[93.3269,25.5463],[93.4026,25.4507],[93.4579,25.4314],[93.4517,25.3541],[93.472,25.2713],[93.556,25.246],[93.6052,25.199],[93.6887,25.3601],[93.7833,25.4331],[93.81,25.4838],[93.7703,25.5337],[93.8344,25.5606],[93.9349,25.559],[93.9469,25.6812],[93.8833,25.6585],[93.7922,25.6691],[93.6464,25.6501]]]},"properties":{"district":"PEREN"}}
]}