{"type":"FeatureCollection", "features": [
{"type":"Feature","geometry":{"type":"Polygon","coordinates":[[[82.2253,16.7585],[82.2119,16.7511],[82.2038,16.7177],[82.239,16.7163],[82.2675,16.6947],[82.2945,16.7045],[82.3138,16.7294],[82.2435,16.7223],[82.2175,16.7328],[82.2253,16.7585]]]},"properties":{"AC_NO":30,"AC_NAME":"Yanam","district":"YANAM","PC_NO":1,"PC_NAME":"PONDICHERRY"}},
{"type":"Feature","geometry":{"type":"MultiPolygon","coordinates":[[[[79.6479,11.9446],[79.6483,11.9673],[79.6364,11.9778],[79.6514,12.0223],[79.6292,12.0187],[79.6189,12.0013],[79.6285,11.9452],[79.6479,11.9446]]],[[[79.6922,12.0344],[79.6569,11.9916],[79.7196,11.9922],[79.6922,12.0344]]]]},"properties":{"AC_NO":1,"AC_NAME":"Mannadipet","district":"PUDUCHERRY","PC_NO":1,"PC_NAME":"PONDICHERRY"}},
{"type":"Feature","geometry":{"type":"MultiPolygon","coordinates":[[[[79.7697,11.944],[79.7612,11.9285],[79.7695,11.929],[79.7705,11.9358],[79.7697,11.944]]],[[[79.7491,11.9295],[79.7428,11.9778],[79.7604,11.9892],[79.7476,12.0078],[79.7124,11.9865],[79.7001,11.9628],[79.708,11.9441],[79.7346,11.9118],[79.7375,11.9171],[79.7491,11.9295]]]]},"properties":{"AC_NO":3,"AC_NAME":"Oussudu (SC)","district":"PUDUCHERRY","PC_NO":1,"PC_NAME":"PONDICHERRY"}},
{"type":"Feature","geometry":{"type":"MultiPolygon","coordinates":[[[[79.8284,11.9587],[79.8053,11.9636],[79.8239,11.9576],[79.8284,11.9587]]],[[[79.8708,12.0438],[79.8498,12.0518],[79.8405,12.0133],[79.8571,12.0068],[79.8708,12.0438]]]]},"properties":{"AC_NO":12,"AC_NAME":"Kalapet","district":"PUDUCHERRY","PC_NO":1,"PC_NAME":"PONDICHERRY"}},
{"type":"Feature","geometry":{"type":"Polygon","coordinates":[[[79.8053,11.9636],[79.8032,11.9532],[79.8054,11.9492],[79.8162,11.9492],[79.8239,11.9576],[79.8053,11.9636]]]},"properties":{"AC_NO":11,"AC_NAME":"Lawspet","district":"PUDUCHERRY","PC_NO":1,"PC_NAME":"PONDICHERRY"}},
{"type":"Feature","geometry":{"type":"Polygon","coordinates":[[[79.8032,11.9532],[79.7847,11.9599],[79.7697,11.944],[79.7705,11.9358],[79.7852,11.9365],[79.7847,11.9548],[79.7974,11.9394],[79.798,11.9391],[79.8054,11.9492],[79.8032,11.9532]]]},"properties":{"AC_NO":8,"AC_NAME":"Indira Nagar","district":"PUDUCHERRY","PC_NO":1,"PC_NAME":"PONDICHERRY"}},
{"type":"Feature","geometry":{"type":"Polygon","coordinates":[[[79.8299,11.9577],[79.8284,11.9587],[79.8239,11.9576],[79.8162,11.9492],[79.8079,11.9386],[79.8177,11.9344],[79.8207,11.9347],[79.8247,11.9395],[79.8299,11.9577]]]},"properties":{"AC_NO":10,"AC_NAME":"Kamraj Nagar","district":"PUDUCHERRY","PC_NO":1,"PC_NAME":"PONDICHERRY"}},
{"type":"Feature","geometry":{"type":"Polygon","coordinates":[[[79.8299,11.9577],[79.8247,11.9395],[79.8384,11.9475],[79.8299,11.9577]]]},"properties":{"AC_NO":13,"AC_NAME":"Muthialpet","district":"PUDUCHERRY","PC_NO":1,"PC_NAME":"PONDICHERRY"}},
{"type":"Feature","geometry":{"type":"Polygon","coordinates":[[[79.8054,11.9492],[79.798,11.9391],[79.7979,11.9358],[79.8076,11.9359],[79.8079,11.9386],[79.8162,11.9492],[79.8054,11.9492]]]},"properties":{"AC_NO":9,"AC_NAME":"Thattanchavady","district":"PUDUCHERRY","PC_NO":1,"PC_NAME":"PONDICHERRY"}},
{"type":"Feature","geometry":{"type":"Polygon","coordinates":[[[79.6285,11.9452],[79.6184,11.9261],[79.6298,11.9016],[79.6689,11.9184],[79.6703,11.9355],[79.6479,11.9446],[79.6285,11.9452]]]},"properties":{"AC_NO":2,"AC_NAME":"Thirubhuvanai (SC)","district":"PUDUCHERRY","PC_NO":1,"PC_NAME":"PONDICHERRY"}},
{"type":"Feature","geometry":{"type":"Polygon","coordinates":[[[79.8207,11.9347],[79.8271,11.9283],[79.835,11.9271],[79.8384,11.9475],[79.8247,11.9395],[79.8207,11.9347]]]},"properties":{"AC_NO":14,"AC_NAME":"Raj Bhavan","district":"PUDUCHERRY","PC_NO":1,"PC_NAME":"PONDICHERRY"}},
{"type":"Feature","geometry":{"type":"Polygon","coordinates":[[[79.7695,11.929],[79.7901,11.9186],[79.8023,11.9226],[79.7979,11.9358],[79.798,11.9391],[79.7974,11.9394],[79.7852,11.9365],[79.7705,11.9358],[79.7695,11.929]]]},"properties":{"AC_NO":6,"AC_NAME":"Ozhukarai","district":"PUDUCHERRY","PC_NO":1,"PC_NAME":"PONDICHERRY"}},
{"type":"Feature","geometry":{"type":"MultiPolygon","coordinates":[[[[79.8101,11.9302],[79.8109,11.9242],[79.8163,11.9252],[79.8165,11.9253],[79.8101,11.9302]]],[[[79.8079,11.9386],[79.8076,11.9359],[79.8101,11.9304],[79.8177,11.9344],[79.8079,11.9386]]]]},"properties":{"AC_NO":17,"AC_NAME":"Nellithope","district":"PUDUCHERRY","PC_NO":1,"PC_NAME":"PONDICHERRY"}},
{"type":"Feature","geometry":{"type":"MultiPolygon","coordinates":[[[[79.7979,11.9358],[79.8023,11.9226],[79.8109,11.9242],[79.8101,11.9302],[79.8101,11.9304],[79.8076,11.9359],[79.7979,11.9358]]],[[[79.7852,11.9365],[79.7974,11.9394],[79.7847,11.9548],[79.7852,11.9365]]]]},"properties":{"AC_NO":7,"AC_NAME":"Kadirgamam","district":"PUDUCHERRY","PC_NO":1,"PC_NAME":"PONDICHERRY"}},
{"type":"Feature","geometry":{"type":"Polygon","coordinates":[[[79.8177,11.9344],[79.8101,11.9304],[79.8101,11.9302],[79.8165,11.9253],[79.8271,11.9283],[79.8207,11.9347],[79.8177,11.9344]]]},"properties":{"AC_NO":16,"AC_NAME":"Orleampeth","district":"PUDUCHERRY","PC_NO":1,"PC_NAME":"PONDICHERRY"}},
{"type":"Feature","geometry":{"type":"Polygon","coordinates":[[[79.7612,11.9285],[79.7491,11.9295],[79.7375,11.9171],[79.7715,11.9027],[79.7903,11.8972],[79.7901,11.9152],[79.7901,11.9186],[79.7695,11.929],[79.7612,11.9285]]]},"properties":{"AC_NO":5,"AC_NAME":"Villianur","district":"PUDUCHERRY","PC_NO":1,"PC_NAME":"PONDICHERRY"}},
{"type":"Feature","geometry":{"type":"Polygon","coordinates":[[[79.8271,11.9283],[79.8165,11.9253],[79.8163,11.9252],[79.8133,11.92],[79.8318,11.9168],[79.835,11.9271],[79.8271,11.9283]]]},"properties":{"AC_NO":15,"AC_NAME":"Oupalam","district":"PUDUCHERRY","PC_NO":1,"PC_NAME":"PONDICHERRY"}},
{"type":"Feature","geometry":{"type":"Polygon","coordinates":[[[79.7901,11.9186],[79.7901,11.9152],[79.8133,11.92],[79.8163,11.9252],[79.8109,11.9242],[79.8023,11.9226],[79.7901,11.9186]]]},"properties":{"AC_NO":18,"AC_NAME":"Mudaliarpet","district":"PUDUCHERRY","PC_NO":1,"PC_NAME":"PONDICHERRY"}},
{"type":"Feature","geometry":{"type":"Polygon","coordinates":[[[79.7903,11.8972],[79.7965,11.8949],[79.8248,11.89],[79.8318,11.9168],[79.8133,11.92],[79.7901,11.9152],[79.7903,11.8972]]]},"properties":{"AC_NO":19,"AC_NAME":"Ariankuppam","district":"PUDUCHERRY","PC_NO":1,"PC_NAME":"PONDICHERRY"}},
{"type":"Feature","geometry":{"type":"Polygon","coordinates":[[[79.7346,11.9118],[79.7305,11.8917],[79.7094,11.8837],[79.743,11.8886],[79.757,11.8682],[79.77,11.8746],[79.7727,11.8758],[79.7715,11.9027],[79.7375,11.9171],[79.7346,11.9118]]]},"properties":{"AC_NO":4,"AC_NAME":"Mangalam","district":"PUDUCHERRY","PC_NO":1,"PC_NAME":"PONDICHERRY"}},
{"type":"Feature","geometry":{"type":"Polygon","coordinates":[[[79.77,11.8746],[79.7817,11.8558],[79.8077,11.8468],[79.8248,11.89],[79.7965,11.8949],[79.7851,11.863],[79.7727,11.8758],[79.77,11.8746]]]},"properties":{"AC_NO":20,"AC_NAME":"Manavely","district":"PUDUCHERRY","PC_NO":1,"PC_NAME":"PONDICHERRY"}},
{"type":"Feature","geometry":{"type":"Polygon","coordinates":[[[79.6023,11.8579],[79.6578,11.8526],[79.6411,11.8866],[79.6212,11.8906],[79.6023,11.8579]]]},"properties":{"AC_NO":22,"AC_NAME":"Nettapakkam (SC)","district":"PUDUCHERRY","PC_NO":1,"PC_NAME":"PONDICHERRY"}},
{"type":"Feature","geometry":{"type":"MultiPolygon","coordinates":[[[[79.8004,11.8099],[79.807,11.8335],[79.7295,11.837],[79.7442,11.8139],[79.8004,11.8099]]],[[[79.7094,11.8837],[79.7211,11.8625],[79.757,11.8682],[79.743,11.8886],[79.7094,11.8837]]]]},"properties":{"AC_NO":21,"AC_NAME":"Embalam (SC)","district":"PUDUCHERRY","PC_NO":1,"PC_NAME":"PONDICHERRY"}},
{"type":"Feature","geometry":{"type":"Polygon","coordinates":[[[75.5312,11.7085],[75.5558,11.7277],[75.5319,11.7345],[75.5312,11.7085]]]},"properties":{"AC_NO":29,"AC_NAME":"Mahe","district":"MAHE","PC_NO":1,"PC_NAME":"PONDICHERRY"}},
{"type":"Feature","geometry":{"type":"Polygon","coordinates":[[[79.7295,11.837],[79.7198,11.7849],[79.755,11.7753],[79.7958,11.7855],[79.8004,11.8099],[79.7442,11.8139],[79.7295,11.837]]]},"properties":{"AC_NO":23,"AC_NAME":"Bahour","district":"PUDUCHERRY","PC_NO":1,"PC_NAME":"PONDICHERRY"}},
{"type":"Feature","geometry":{"type":"Polygon","coordinates":[[[79.8543,10.9646],[79.8512,10.9943],[79.8402,11.0021],[79.786,10.9974],[79.7467,11.0026],[79.7627,10.9621],[79.8073,10.9461],[79.8105,10.9627],[79.8543,10.9646]]]},"properties":{"AC_NO":24,"AC_NAME":"Nedungadu (SC)","district":"KARAIKAL","PC_NO":1,"PC_NAME":"PONDICHERRY"}},
{"type":"Feature","geometry":{"type":"Polygon","coordinates":[[[79.8543,10.9646],[79.8105,10.9627],[79.8073,10.9461],[79.8118,10.937],[79.8302,10.9255],[79.8526,10.9234],[79.8543,10.9646]]]},"properties":{"AC_NO":26,"AC_NAME":"Karaikal North","district":"KARAIKAL","PC_NO":1,"PC_NAME":"PONDICHERRY"}},
{"type":"Feature","geometry":{"type":"Polygon","coordinates":[[[79.7646,10.9104],[79.7769,10.9055],[79.7952,10.9027],[79.8066,10.9108],[79.8118,10.937],[79.8073,10.9461],[79.7627,10.9621],[79.7198,10.9522],[79.7449,10.9146],[79.7615,10.9128],[79.7638,10.9109],[79.7646,10.9104]]]},"properties":{"AC_NO":25,"AC_NAME":"Thirunallar","district":"KARAIKAL","PC_NO":1,"PC_NAME":"PONDICHERRY"}},
{"type":"Feature","geometry":{"type":"Polygon","coordinates":[[[79.8526,10.9234],[79.8302,10.9255],[79.8118,10.937],[79.8066,10.9108],[79.8303,10.9021],[79.8532,10.9152],[79.8526,10.9234]]]},"properties":{"AC_NO":27,"AC_NAME":"Karaikal South","district":"KARAIKAL","PC_NO":1,"PC_NAME":"PONDICHERRY"}},
{"type":"Feature","geometry":{"type":"Polygon","coordinates":[[[79.7952,10.9027],[79.8287,10.8835],[79.821,10.8456],[79.831,10.8274],[79.8527,10.8334],[79.8532,10.9152],[79.8303,10.9021],[79.8066,10.9108],[79.7952,10.9027]]]},"properties":{"AC_NO":28,"AC_NAME":"Neravy- T.R. Pattin","district":"KARAIKAL","PC_NO":1,"PC_NAME":"PONDICHERRY"}}
]}