{"type":"FeatureCollection","features":[{"type":"Feature","geometry":{"type":"Polygon","coordinates":[[[77.0513,28.8549],[77.0397,28.8321],[77.1136,28.7527],[77.1284,28.7682],[77.2139,28.7855],[77.2226,28.8334],[77.2089,28.8585],[77.0513,28.8549]]]},"properties":{"AC_NO":1,"AC_NAME":"Nerela","PC_NO":5,"PC_NAME":"NORTH WEST DELHI (SC)","district":"NORTH"}},{"type":"Feature","geometry":{"type":"Polygon","coordinates":[[[77.0397,28.8321],[76.9512,28.8177],[76.9497,28.7625],[77.0548,28.7141],[77.0692,28.7069],[77.0812,28.7045],[77.1206,28.7449],[77.1186,28.7481],[77.1136,28.7527],[77.0397,28.8321]]]},"properties":{"AC_NO":7,"AC_NAME":"Bawana (SC)","PC_NO":5,"PC_NAME":"NORTH WEST DELHI (SC)","district":"NORTH"}},{"type":"Feature","geometry":{"type":"Polygon","coordinates":[[[77.2139,28.7855],[77.1284,28.7682],[77.1648,28.7305],[77.2048,28.719],[77.2395,28.7168],[77.2141,28.7854],[77.2139,28.7855]]]},"properties":{"AC_NO":2,"AC_NAME":"Burari","PC_NO":2,"PC_NAME":"NORTH EAST DELHI","district":"CENTRAL"}},{"type":"Feature","geometry":{"type":"Polygon","coordinates":[[[77.2141,28.7854],[77.2395,28.7168],[77.2368,28.7067],[77.2716,28.6996],[77.2865,28.7246],[77.2141,28.7854]]]},"properties":{"AC_NO":70,"AC_NAME":"Karawal Nagar","PC_NO":2,"PC_NAME":"NORTH EAST DELHI","district":"NORTH EAST"}},{"type":"Feature","geometry":{"type":"Polygon","coordinates":[[[76.9497,28.7625],[76.9567,28.6726],[76.9952,28.6534],[77.0746,28.6474],[77.0846,28.6547],[77.0709,28.6828],[77.055,28.6846],[77.0548,28.7141],[76.9497,28.7625]]]},"properties":{"AC_NO":8,"AC_NAME":"Mundka","PC_NO":5,"PC_NAME":"NORTH WEST DELHI (SC)","district":"NORTH WEST"}},{"type":"Feature","geometry":{"type":"Polygon","coordinates":[[[77.1284,28.7682],[77.1136,28.7527],[77.1186,28.7481],[77.1367,28.73],[77.1413,28.7329],[77.1648,28.7305],[77.1284,28.7682]]]},"properties":{"AC_NO":5,"AC_NAME":"Badli","PC_NO":5,"PC_NAME":"NORTH WEST DELHI (SC)","district":"NORTH"}},{"type":"Feature","geometry":{"type":"Polygon","coordinates":[[[77.1186,28.7481],[77.1206,28.7449],[77.0967,28.7116],[77.1091,28.7007],[77.1176,28.704],[77.1212,28.7067],[77.1367,28.73],[77.1186,28.7481]]]},"properties":{"AC_NO":13,"AC_NAME":"Rohini","PC_NO":5,"PC_NAME":"NORTH WEST DELHI (SC)","district":"NORTH WEST"}},{"type":"Feature","geometry":{"type":"Polygon","coordinates":[[[77.0967,28.7116],[77.1206,28.7449],[77.0812,28.7045],[77.0854,28.7019],[77.0967,28.7116]]]},"properties":{"AC_NO":6,"AC_NAME":"Rithala","PC_NO":5,"PC_NAME":"NORTH WEST DELHI (SC)","district":"NORTH WEST"}},{"type":"Feature","geometry":{"type":"Polygon","coordinates":[[[77.1413,28.7329],[77.1628,28.7091],[77.1648,28.7066],[77.1849,28.7094],[77.2048,28.719],[77.1648,28.7305],[77.1413,28.7329]]]},"properties":{"AC_NO":4,"AC_NAME":"Adarsh Nagar","PC_NO":1,"PC_NAME":"CHANDNI CHOWK","district":"NORTH"}},{"type":"Feature","geometry":{"type":"Polygon","coordinates":[[[77.1367,28.73],[77.1212,28.7067],[77.1437,28.6949],[77.1628,28.7091],[77.1413,28.7329],[77.1367,28.73]]]},"properties":{"AC_NO":14,"AC_NAME":"Shalimar Bagh","PC_NO":1,"PC_NAME":"CHANDNI CHOWK","district":"NORTH WEST"}},{"type":"Feature","geometry":{"type":"Polygon","coordinates":[[[77.2395,28.7168],[77.2048,28.719],[77.1849,28.7094],[77.2029,28.67],[77.2105,28.6658],[77.2357,28.7003],[77.2368,28.7067],[77.2395,28.7168]]]},"properties":{"AC_NO":3,"AC_NAME":"Timarpur","PC_NO":2,"PC_NAME":"NORTH EAST DELHI","district":"NORTH"}},{"type":"Feature","geometry":{"type":"Polygon","coordinates":[[[77.2865,28.7246],[77.2716,28.6996],[77.2787,28.6993],[77.2866,28.7138],[77.2865,28.7246]]]},"properties":{"AC_NO":69,"AC_NAME":"Mustafabad","PC_NO":2,"PC_NAME":"NORTH EAST DELHI","district":"NORTH EAST"}},{"type":"Feature","geometry":{"type":"Polygon","coordinates":[[[77.0692,28.7069],[77.0548,28.7141],[77.055,28.6846],[77.0692,28.7069]]]},"properties":{"AC_NO":9,"AC_NAME":"Kirari","PC_NO":5,"PC_NAME":"NORTH WEST DELHI (SC)","district":"NORTH WEST"}},{"type":"Feature","geometry":{"type":"Polygon","coordinates":[[[77.0854,28.7019],[77.0713,28.6829],[77.0951,28.6816],[77.1091,28.7007],[77.0967,28.7116],[77.0854,28.7019]]]},"properties":{"AC_NO":12,"AC_NAME":"Mangol Puri (SC)","PC_NO":5,"PC_NAME":"NORTH WEST DELHI (SC)","district":"NORTH WEST"}},{"type":"Feature","geometry":{"type":"Polygon","coordinates":[[[77.1648,28.7066],[77.1847,28.6784],[77.2029,28.67],[77.1849,28.7094],[77.1648,28.7066]]]},"properties":{"AC_NO":18,"AC_NAME":"Model Town","PC_NO":1,"PC_NAME":"CHANDNI CHOWK","district":"NORTH"}},{"type":"Feature","geometry":{"type":"Polygon","coordinates":[[[77.2866,28.7138],[77.2787,28.6993],[77.2798,28.699],[77.2952,28.6977],[77.3061,28.6956],[77.3239,28.6977],[77.2866,28.7138]]]},"properties":{"AC_NO":68,"AC_NAME":"Gokalpur (SC)","PC_NO":2,"PC_NAME":"NORTH EAST DELHI","district":"SHAHADARA"}},{"type":"Feature","geometry":{"type":"Polygon","coordinates":[[[77.0812,28.7045],[77.0692,28.7069],[77.055,28.6846],[77.0709,28.6828],[77.0713,28.6829],[77.0854,28.7019],[77.0812,28.7045]]]},"properties":{"AC_NO":10,"AC_NAME":"Sultan Pur Majra(SC)","PC_NO":5,"PC_NAME":"NORTH WEST DELHI (SC)","district":"WEST"}},{"type":"Feature","geometry":{"type":"Polygon","coordinates":[[[77.1628,28.7091],[77.1437,28.6949],[77.1592,28.6735],[77.1625,28.6719],[77.1847,28.6784],[77.1648,28.7066],[77.1628,28.7091]]]},"properties":{"AC_NO":17,"AC_NAME":"Wazirpur","PC_NO":1,"PC_NAME":"CHANDNI CHOWK","district":"NORTH WEST"}},{"type":"Feature","geometry":{"type":"Polygon","coordinates":[[[77.1176,28.704],[77.1285,28.6745],[77.1592,28.6735],[77.1437,28.6949],[77.1212,28.7067],[77.1176,28.704]]]},"properties":{"AC_NO":16,"AC_NAME":"Tri Nagar","PC_NO":1,"PC_NAME":"CHANDNI CHOWK","district":"NORTH WEST"}},{"type":"Feature","geometry":{"type":"Polygon","coordinates":[[[77.1285,28.6745],[77.1176,28.704],[77.1091,28.7007],[77.0951,28.6816],[77.0921,28.6536],[77.1016,28.6595],[77.1119,28.66],[77.1285,28.6745]]]},"properties":{"AC_NO":15,"AC_NAME":"Shakur Basti","PC_NO":1,"PC_NAME":"CHANDNI CHOWK","district":"NORTH WEST"}},{"type":"Feature","geometry":{"type":"Polygon","coordinates":[[[77.2357,28.7003],[77.2349,28.6757],[77.274,28.6828],[77.2798,28.699],[77.2787,28.6993],[77.2716,28.6996],[77.2368,28.7067],[77.2357,28.7003]]]},"properties":{"AC_NO":66,"AC_NAME":"Ghonda","PC_NO":2,"PC_NAME":"NORTH EAST DELHI","district":"NORTH EAST"}},{"type":"Feature","geometry":{"type":"Polygon","coordinates":[[[77.2349,28.6757],[77.2357,28.7003],[77.2105,28.6658],[77.2187,28.6558],[77.2307,28.6463],[77.2407,28.6399],[77.256,28.6526],[77.2467,28.66],[77.2349,28.6757]]]},"properties":{"AC_NO":20,"AC_NAME":"Chandni Chowk","PC_NO":1,"PC_NAME":"CHANDNI CHOWK","district":"CENTRAL"}},{"type":"Feature","geometry":{"type":"Polygon","coordinates":[[[77.2952,28.6977],[77.2798,28.699],[77.274,28.6828],[77.2774,28.6739],[77.2952,28.6977]]]},"properties":{"AC_NO":67,"AC_NAME":"Babarpur","PC_NO":2,"PC_NAME":"NORTH EAST DELHI","district":"SHAHADARA"}},{"type":"Feature","geometry":{"type":"Polygon","coordinates":[[[77.3061,28.6956],[77.2952,28.6977],[77.2774,28.6739],[77.2731,28.668],[77.2805,28.6672],[77.304,28.6721],[77.3061,28.6956]]]},"properties":{"AC_NO":64,"AC_NAME":"Rohtas Nagar","PC_NO":2,"PC_NAME":"NORTH EAST DELHI","district":"SHAHADARA"}},{"type":"Feature","geometry":{"type":"Polygon","coordinates":[[[77.3061,28.6956],[77.304,28.6721],[77.3322,28.6858],[77.3263,28.6948],[77.3239,28.6977],[77.3061,28.6956]]]},"properties":{"AC_NO":63,"AC_NAME":"Seemapuri (SC)","PC_NO":2,"PC_NAME":"NORTH EAST DELHI","district":"SHAHADARA"}},{"type":"Feature","geometry":{"type":"Polygon","coordinates":[[[77.0713,28.6829],[77.0709,28.6828],[77.0846,28.6547],[77.0921,28.6536],[77.0951,28.6816],[77.0713,28.6829]]]},"properties":{"AC_NO":11,"AC_NAME":"Nangloi Jat","PC_NO":5,"PC_NAME":"NORTH WEST DELHI (SC)","district":"WEST"}},{"type":"Feature","geometry":{"type":"Polygon","coordinates":[[[77.304,28.6721],[77.2805,28.6672],[77.2863,28.6606],[77.3214,28.6644],[77.3322,28.6858],[77.304,28.6721]]]},"properties":{"AC_NO":62,"AC_NAME":"Shahdara","PC_NO":3,"PC_NAME":"EAST DELHI","district":"SHAHADARA"}},{"type":"Feature","geometry":{"type":"Polygon","coordinates":[[[77.274,28.6828],[77.2349,28.6757],[77.2467,28.66],[77.2731,28.668],[77.2774,28.6739],[77.274,28.6828]]]},"properties":{"AC_NO":65,"AC_NAME":"Seelam Pur","PC_NO":2,"PC_NAME":"NORTH EAST DELHI","district":"NAZUL"}},{"type":"Feature","geometry":{"type":"Polygon","coordinates":[[[76.9567,28.6726],[76.9246,28.6496],[76.8839,28.6248],[76.8726,28.5328],[76.9998,28.6313],[76.9952,28.6534],[76.9567,28.6726]]]},"properties":{"AC_NO":35,"AC_NAME":"Najafgarh","PC_NO":6,"PC_NAME":"WEST DELHI","district":"SOUTH WEST"}},{"type":"Feature","geometry":{"type":"Polygon","coordinates":[[[77.1847,28.6784],[77.1625,28.6719],[77.1729,28.6647],[77.1855,28.6625],[77.2046,28.6574],[77.2187,28.6558],[77.2105,28.6658],[77.2029,28.67],[77.1847,28.6784]]]},"properties":{"AC_NO":19,"AC_NAME":"Sadar Bazar","PC_NO":1,"PC_NAME":"CHANDNI CHOWK","district":"CENTRAL"}},{"type":"Feature","geometry":{"type":"Polygon","coordinates":[[[77.0746,28.6474],[76.9952,28.6534],[76.9998,28.6313],[77.0227,28.6251],[77.0616,28.6228],[77.0748,28.6272],[77.0746,28.6474]]]},"properties":{"AC_NO":31,"AC_NAME":"Vikaspuri","PC_NO":6,"PC_NAME":"WEST DELHI","district":"WEST"}},{"type":"Feature","geometry":{"type":"Polygon","coordinates":[[[77.1285,28.6745],[77.1119,28.66],[77.1294,28.6506],[77.1285,28.6745]]]},"properties":{"AC_NO":26,"AC_NAME":"Madipur (SC)","PC_NO":6,"PC_NAME":"WEST DELHI","district":"WEST"}},{"type":"Feature","geometry":{"type":"Polygon","coordinates":[[[77.1625,28.6719],[77.1592,28.6735],[77.1285,28.6745],[77.1294,28.6506],[77.1353,28.6403],[77.1344,28.6308],[77.1345,28.631],[77.1564,28.6558],[77.1729,28.6647],[77.1625,28.6719]]]},"properties":{"AC_NO":25,"AC_NAME":"Moti Nagar","PC_NO":4,"PC_NAME":"NEW DELHI","district":"WEST"}},{"type":"Feature","geometry":{"type":"Polygon","coordinates":[[[77.2805,28.6672],[77.2731,28.668],[77.2467,28.66],[77.256,28.6526],[77.2562,28.6524],[77.2864,28.6605],[77.2863,28.6606],[77.2805,28.6672]]]},"properties":{"AC_NO":61,"AC_NAME":"Gandhi Nagar","PC_NO":3,"PC_NAME":"EAST DELHI","district":"SHAHADARA"}},{"type":"Feature","geometry":{"type":"Polygon","coordinates":[[[77.1855,28.6625],[77.1729,28.6647],[77.1564,28.6558],[77.1854,28.6463],[77.1855,28.6625]]]},"properties":{"AC_NO":24,"AC_NAME":"Patel Nagar (SC)","PC_NO":4,"PC_NAME":"NEW DELHI","district":"WEST"}},{"type":"Feature","geometry":{"type":"Polygon","coordinates":[[[77.1855,28.6625],[77.1854,28.6463],[77.2002,28.642],[77.2195,28.64],[77.2046,28.6574],[77.1855,28.6625]]]},"properties":{"AC_NO":23,"AC_NAME":"Karol Bagh (SC)","PC_NO":4,"PC_NAME":"NEW DELHI","district":"CENTRAL"}},{"type":"Feature","geometry":{"type":"Polygon","coordinates":[[[77.2863,28.6606],[77.2864,28.6605],[77.2858,28.6364],[77.2928,28.628],[77.3199,28.6225],[77.334,28.6282],[77.3204,28.6583],[77.3214,28.6644],[77.2863,28.6606]]]},"properties":{"AC_NO":59,"AC_NAME":"Vishwas Nagar","PC_NO":3,"PC_NAME":"EAST DELHI","district":"SHAHADARA"}},{"type":"Feature","geometry":{"type":"Polygon","coordinates":[[[77.1119,28.66],[77.1016,28.6595],[77.113,28.6423],[77.1353,28.6403],[77.1294,28.6506],[77.1119,28.66]]]},"properties":{"AC_NO":27,"AC_NAME":"Rajouri Garden","PC_NO":6,"PC_NAME":"WEST DELHI","district":"WEST"}},{"type":"Feature","geometry":{"type":"Polygon","coordinates":[[[77.0921,28.6536],[77.0846,28.6547],[77.0746,28.6474],[77.0748,28.6272],[77.0872,28.6321],[77.113,28.6423],[77.1016,28.6595],[77.0921,28.6536]]]},"properties":{"AC_NO":29,"AC_NAME":"Tilak Nagar","PC_NO":6,"PC_NAME":"WEST DELHI","district":"WEST"}},{"type":"Feature","geometry":{"type":"Polygon","coordinates":[[[77.2187,28.6558],[77.2046,28.6574],[77.2195,28.64],[77.2211,28.6399],[77.2307,28.6463],[77.2187,28.6558]]]},"properties":{"AC_NO":22,"AC_NAME":"Ballimaran","PC_NO":1,"PC_NAME":"CHANDNI CHOWK","district":"CENTRAL"}},{"type":"Feature","geometry":{"type":"Polygon","coordinates":[[[77.2562,28.6524],[77.2632,28.642],[77.2858,28.6364],[77.2864,28.6605],[77.2562,28.6524]]]},"properties":{"AC_NO":60,"AC_NAME":"Krishna Nagar","PC_NO":3,"PC_NAME":"EAST DELHI","district":"EAST"}},{"type":"Feature","geometry":{"type":"Polygon","coordinates":[[[77.2002,28.642],[77.1854,28.6463],[77.1564,28.6558],[77.1345,28.631],[77.1718,28.6026],[77.2002,28.642]]]},"properties":{"AC_NO":39,"AC_NAME":"Rajinder Nagar","PC_NO":4,"PC_NAME":"NEW DELHI","district":"NEW DELHI"}},{"type":"Feature","geometry":{"type":"Polygon","coordinates":[[[77.2562,28.6524],[77.256,28.6526],[77.2407,28.6399],[77.2446,28.6231],[77.245,28.5912],[77.2547,28.5639],[77.2633,28.5714],[77.2711,28.5848],[77.2642,28.5998],[77.2632,28.642],[77.2562,28.6524]]]},"properties":{"AC_NO":41,"AC_NAME":"Jangpura","PC_NO":3,"PC_NAME":"EAST DELHI","district":"SOUTH EAST"}},{"type":"Feature","geometry":{"type":"Polygon","coordinates":[[[77.2211,28.6399],[77.2446,28.6231],[77.2407,28.6399],[77.2307,28.6463],[77.2211,28.6399]]]},"properties":{"AC_NO":21,"AC_NAME":"Matia Mahal","PC_NO":1,"PC_NAME":"CHANDNI CHOWK","district":"CENTRAL"}},{"type":"Feature","geometry":{"type":"Polygon","coordinates":[[[77.1353,28.6403],[77.113,28.6423],[77.0872,28.6321],[77.1043,28.6057],[77.111,28.6025],[77.1344,28.6308],[77.1353,28.6403]]]},"properties":{"AC_NO":28,"AC_NAME":"Hari Nagar","PC_NO":6,"PC_NAME":"WEST DELHI","district":"WEST"}},{"type":"Feature","geometry":{"type":"Polygon","coordinates":[[[77.2211,28.6399],[77.2195,28.64],[77.2002,28.642],[77.1718,28.6026],[77.169,28.5941],[77.1692,28.5941],[77.1911,28.5683],[77.1962,28.5654],[77.2173,28.5642],[77.245,28.5912],[77.2446,28.6231],[77.2211,28.6399]]]},"properties":{"AC_NO":40,"AC_NAME":"New Delhi","PC_NO":4,"PC_NAME":"NEW DELHI","district":"NEW DELHI"}},{"type":"Feature","geometry":{"type":"Polygon","coordinates":[[[77.2632,28.642],[77.2642,28.5998],[77.2864,28.6087],[77.2928,28.628],[77.2858,28.6364],[77.2632,28.642]]]},"properties":{"AC_NO":58,"AC_NAME":"Laxmi Nagar","PC_NO":3,"PC_NAME":"EAST DELHI","district":"NAZUL"}},{"type":"Feature","geometry":{"type":"Polygon","coordinates":[[[76.9998,28.6313],[76.8726,28.5328],[76.8855,28.501],[77.0137,28.5394],[77.0593,28.5761],[77.0552,28.6075],[77.0227,28.6251],[76.9998,28.6313]]]},"properties":{"AC_NO":34,"AC_NAME":"Matiala","PC_NO":6,"PC_NAME":"WEST DELHI","district":"SOUTH WEST"}},{"type":"Feature","geometry":{"type":"Polygon","coordinates":[[[77.0872,28.6321],[77.0748,28.6272],[77.0616,28.6228],[77.0768,28.6082],[77.1043,28.6057],[77.0872,28.6321]]]},"properties":{"AC_NO":30,"AC_NAME":"Janakpuri","PC_NO":6,"PC_NAME":"WEST DELHI","district":"WEST"}},{"type":"Feature","geometry":{"type":"Polygon","coordinates":[[[77.1718,28.6026],[77.1345,28.631],[77.1344,28.6308],[77.111,28.6025],[77.1037,28.5939],[77.0845,28.5724],[77.1313,28.5494],[77.153,28.5562],[77.169,28.5941],[77.1718,28.6026]]]},"properties":{"AC_NO":38,"AC_NAME":"Delhi Cantt","PC_NO":4,"PC_NAME":"NEW DELHI","district":"NEW DELHI"}},{"type":"Feature","geometry":{"type":"Polygon","coordinates":[[[77.0616,28.6228],[77.0227,28.6251],[77.0552,28.6075],[77.0673,28.6076],[77.0768,28.6082],[77.0616,28.6228]]]},"properties":{"AC_NO":32,"AC_NAME":"Uttam Nagar","PC_NO":6,"PC_NAME":"WEST DELHI","district":"SOUTH WEST"}},{"type":"Feature","geometry":{"type":"Polygon","coordinates":[[[77.2928,28.628],[77.2864,28.6087],[77.3143,28.6097],[77.3199,28.6225],[77.2928,28.628]]]},"properties":{"AC_NO":57,"AC_NAME":"Patparganj","PC_NO":3,"PC_NAME":"EAST DELHI","district":"EAST"}},{"type":"Feature","geometry":{"type":"Polygon","coordinates":[[[77.334,28.6282],[77.3199,28.6225],[77.3143,28.6097],[77.3126,28.5955],[77.334,28.6282]]]},"properties":{"AC_NO":56,"AC_NAME":"Kondli (SC)","PC_NO":3,"PC_NAME":"EAST DELHI","district":"EAST"}},{"type":"Feature","geometry":{"type":"Polygon","coordinates":[[[77.0673,28.6076],[77.1037,28.5939],[77.111,28.6025],[77.1043,28.6057],[77.0768,28.6082],[77.0673,28.6076]]]},"properties":{"AC_NO":33,"AC_NAME":"Dwarka","PC_NO":6,"PC_NAME":"WEST DELHI","district":"SOUTH WEST"}},{"type":"Feature","geometry":{"type":"Polygon","coordinates":[[[77.0552,28.6075],[77.0593,28.5761],[77.0845,28.5724],[77.1037,28.5939],[77.0673,28.6076],[77.0552,28.6075]]]},"properties":{"AC_NO":37,"AC_NAME":"Palam","PC_NO":6,"PC_NAME":"SOUTH DELHI","district":"SOUTH WEST"}},{"type":"Feature","geometry":{"type":"Polygon","coordinates":[[[77.2642,28.5998],[77.2711,28.5848],[77.3004,28.5631],[77.3126,28.5955],[77.3143,28.6097],[77.2864,28.6087],[77.2642,28.5998]]]},"properties":{"AC_NO":55,"AC_NAME":"Trilokpuri (SC)","PC_NO":3,"PC_NAME":"EAST DELHI","district":"SOUTH EAST"}},{"type":"Feature","geometry":{"type":"Polygon","coordinates":[[[77.1692,28.5941],[77.169,28.5941],[77.153,28.5562],[77.1832,28.5504],[77.1962,28.5654],[77.1911,28.5683],[77.1692,28.5941]]]},"properties":{"AC_NO":44,"AC_NAME":"R.K. Puram","PC_NO":4,"PC_NAME":"NEW DELHI","district":"NEW DELHI"}},{"type":"Feature","geometry":{"type":"Polygon","coordinates":[[[77.245,28.5912],[77.2173,28.5642],[77.2128,28.5483],[77.2472,28.5534],[77.2547,28.5639],[77.245,28.5912]]]},"properties":{"AC_NO":42,"AC_NAME":"Kasturba Nagar","PC_NO":4,"PC_NAME":"NEW DELHI","district":"SOUTH EAST"}},{"type":"Feature","geometry":{"type":"Polygon","coordinates":[[[77.0593,28.5761],[77.0137,28.5394],[77.0943,28.5059],[77.1313,28.5494],[77.0845,28.5724],[77.0593,28.5761]]]},"properties":{"AC_NO":36,"AC_NAME":"Bijwasan","PC_NO":6,"PC_NAME":"SOUTH DELHI","district":"NEW DELHI"}},{"type":"Feature","geometry":{"type":"Polygon","coordinates":[[[77.2633,28.5714],[77.2767,28.5402],[77.2819,28.5273],[77.3358,28.5261],[77.3004,28.5631],[77.2711,28.5848],[77.2633,28.5714]]]},"properties":{"AC_NO":54,"AC_NAME":"Okhla","PC_NO":3,"PC_NAME":"EAST DELHI","district":"SOUTH EAST"}},{"type":"Feature","geometry":{"type":"Polygon","coordinates":[[[77.2633,28.5714],[77.2547,28.5639],[77.2472,28.5534],[77.256,28.5225],[77.2581,28.5219],[77.2767,28.5402],[77.2633,28.5714]]]},"properties":{"AC_NO":51,"AC_NAME":"Kalkaji","PC_NO":7,"PC_NAME":"SOUTH DELHI","district":"SOUTH EAST"}},{"type":"Feature","geometry":{"type":"Polygon","coordinates":[[[77.2173,28.5642],[77.1962,28.5654],[77.1832,28.5504],[77.2161,28.525],[77.2181,28.5258],[77.2128,28.5483],[77.2173,28.5642]]]},"properties":{"AC_NO":43,"AC_NAME":"Malviya Nagar","PC_NO":4,"PC_NAME":"NEW DELHI","district":"SOUTH"}},{"type":"Feature","geometry":{"type":"Polygon","coordinates":[[[77.153,28.5562],[77.1313,28.5494],[77.0943,28.5059],[77.1169,28.4904],[77.2038,28.5149],[77.2161,28.525],[77.1832,28.5504],[77.153,28.5562]]]},"properties":{"AC_NO":45,"AC_NAME":"Mehrauli","PC_NO":7,"PC_NAME":"SOUTH DELHI","district":"NEW DELHI"}},{"type":"Feature","geometry":{"type":"Polygon","coordinates":[[[77.2128,28.5483],[77.2181,28.5258],[77.2313,28.5261],[77.2461,28.5137],[77.256,28.5225],[77.2472,28.5534],[77.2128,28.5483]]]},"properties":{"AC_NO":50,"AC_NAME":"Greater Kailash","PC_NO":4,"PC_NAME":"NEW DELHI","district":"SOUTH"}},{"type":"Feature","geometry":{"type":"Polygon","coordinates":[[[77.2767,28.5402],[77.2581,28.5219],[77.2766,28.4931],[77.2958,28.4956],[77.2819,28.5273],[77.2767,28.5402]]]},"properties":{"AC_NO":52,"AC_NAME":"Tughlakabad","PC_NO":7,"PC_NAME":"SOUTH DELHI","district":"SOUTH EAST"}},{"type":"Feature","geometry":{"type":"Polygon","coordinates":[[[77.2313,28.5261],[77.2181,28.5258],[77.2161,28.525],[77.2038,28.5149],[77.2041,28.4975],[77.2313,28.5261]]]},"properties":{"AC_NO":48,"AC_NAME":"Ambedkar Nagar(SC)","PC_NO":7,"PC_NAME":"SOUTH DELHI","district":"SOUTH"}},{"type":"Feature","geometry":{"type":"Polygon","coordinates":[[[77.2819,28.5273],[77.2958,28.4956],[77.3017,28.4895],[77.3433,28.5105],[77.3358,28.5261],[77.2819,28.5273]]]},"properties":{"AC_NO":53,"AC_NAME":"Badarpur","PC_NO":7,"PC_NAME":"SOUTH DELHI","district":"SOUTH EAST"}},{"type":"Feature","geometry":{"type":"Polygon","coordinates":[[[77.2461,28.5137],[77.2313,28.5261],[77.2041,28.4975],[77.231,28.4602],[77.2383,28.4757],[77.2461,28.5137]]]},"properties":{"AC_NO":47,"AC_NAME":"Deoli (SC)","PC_NO":7,"PC_NAME":"SOUTH DELHI","district":"SOUTH"}},{"type":"Feature","geometry":{"type":"Polygon","coordinates":[[[77.256,28.5225],[77.2461,28.5137],[77.2383,28.4757],[77.2766,28.4931],[77.2581,28.5219],[77.256,28.5225]]]},"properties":{"AC_NO":49,"AC_NAME":"Sangam Vihar","PC_NO":7,"PC_NAME":"SOUTH DELHI","district":"SOUTH EAST"}},{"type":"Feature","geometry":{"type":"Polygon","coordinates":[[[77.2038,28.5149],[77.1169,28.4904],[77.1114,28.4746],[77.1221,28.445],[77.1736,28.4055],[77.2059,28.4094],[77.231,28.4602],[77.2041,28.4975],[77.2038,28.5149]]]},"properties":{"AC_NO":46,"AC_NAME":"Chhatarpur","PC_NO":7,"PC_NAME":"SOUTH DELHI","district":"SOUTH"}}]}