{"type":"FeatureCollection", "features": [
{"type":"Feature","geometry":{"type":"Polygon","coordinates":[[[77.2139,28.7855],[77.2226,28.8334],[77.2089,28.8585],[77.0612,28.8708],[77.0397,28.8321],[76.9941,28.8402],[76.9512,28.8177],[76.9497,28.7625],[77.0108,28.745],[77.0431,28.7651],[77.0548,28.7141],[77.0692,28.7069],[77.0812,28.7045],[77.1014,28.7461],[77.1206,28.7449],[77.1186,28.7481],[77.1367,28.73],[77.1413,28.7329],[77.1628,28.7091],[77.1648,28.7066],[77.1847,28.6784],[77.2029,28.67],[77.2105,28.6658],[77.2357,28.7003],[77.2368,28.7067],[77.2395,28.7168],[77.2048,28.719],[77.1648,28.7305],[77.1767,28.7589],[77.1284,28.7682],[77.1562,28.7947],[77.2139,28.7855]]]},"properties":{"district":"NORTH"}},
{"type":"Feature","geometry":{"type":"MultiPolygon","coordinates":[[[[77.1284,28.7682],[77.1767,28.7589],[77.1648,28.7305],[77.2048,28.719],[77.2395,28.7168],[77.2397,28.7386],[77.2145,28.7634],[77.2141,28.7854],[77.2139,28.7855],[77.1562,28.7947],[77.1284,28.7682]]],[[[77.2105,28.6658],[77.2029,28.67],[77.1847,28.6784],[77.1625,28.6719],[77.1729,28.6647],[77.1855,28.6625],[77.1854,28.6463],[77.2002,28.642],[77.2195,28.64],[77.2211,28.6399],[77.2446,28.6231],[77.2407,28.6399],[77.256,28.6526],[77.2467,28.66],[77.2349,28.6757],[77.2357,28.7003],[77.2105,28.6658]]]]},"properties":{"district":"CENTRAL"}},
{"type":"Feature","geometry":{"type":"Polygon","coordinates":[[[77.2395,28.7168],[77.2368,28.7067],[77.2357,28.7003],[77.2349,28.6757],[77.274,28.6828],[77.2798,28.699],[77.2787,28.6993],[77.2866,28.7138],[77.2865,28.7246],[77.2141,28.7854],[77.2145,28.7634],[77.2397,28.7386],[77.2395,28.7168]]]},"properties":{"district":"NORTH EAST"}},
{"type":"Feature","geometry":{"type":"MultiPolygon","coordinates":[[[[76.9497,28.7625],[76.9684,28.6992],[76.9567,28.6726],[76.9952,28.6534],[77.0083,28.6719],[77.0419,28.674],[77.0746,28.6474],[77.0846,28.6547],[77.0709,28.6828],[77.055,28.6846],[77.0692,28.7069],[77.0548,28.7141],[77.0431,28.7651],[77.0108,28.745],[76.9497,28.7625]]],[[[77.1206,28.7449],[77.1014,28.7461],[77.0812,28.7045],[77.0854,28.7019],[77.0713,28.6829],[77.0951,28.6816],[77.0921,28.6536],[77.1016,28.6595],[77.1119,28.66],[77.1285,28.6745],[77.1592,28.6735],[77.1625,28.6719],[77.1847,28.6784],[77.1648,28.7066],[77.1628,28.7091],[77.1413,28.7329],[77.1367,28.73],[77.1186,28.7481],[77.1206,28.7449]]]]},"properties":{"district":"NORTH WEST"}},
{"type":"Feature","geometry":{"type":"Polygon","coordinates":[[[77.2787,28.6993],[77.2798,28.699],[77.274,28.6828],[77.2774,28.6739],[77.2731,28.668],[77.2467,28.66],[77.256,28.6526],[77.2562,28.6524],[77.2864,28.6605],[77.2858,28.6364],[77.2928,28.628],[77.3199,28.6225],[77.334,28.6282],[77.3214,28.6644],[77.3322,28.6858],[77.3239,28.6977],[77.2866,28.7138],[77.2787,28.6993]]]},"properties":{"district":"SHAHADARA"}},
{"type":"Feature","geometry":{"type":"Polygon","coordinates":[[[77.0692,28.7069],[77.055,28.6846],[77.0709,28.6828],[77.0846,28.6547],[77.0746,28.6474],[77.0419,28.674],[77.0083,28.6719],[76.9952,28.6534],[76.9998,28.6313],[77.0227,28.6251],[77.0616,28.6228],[77.0768,28.6082],[77.1043,28.6057],[77.111,28.6025],[77.1344,28.6308],[77.1345,28.631],[77.1564,28.6558],[77.1854,28.6463],[77.1855,28.6625],[77.1729,28.6647],[77.1625,28.6719],[77.1592,28.6735],[77.1285,28.6745],[77.1119,28.66],[77.1016,28.6595],[77.0921,28.6536],[77.0951,28.6816],[77.0713,28.6829],[77.0854,28.7019],[77.0812,28.7045],[77.0692,28.7069]]]},"properties":{"district":"WEST"}},
{"type":"Feature","geometry":{"type":"MultiPolygon","coordinates":[[[[77.2349,28.6757],[77.2467,28.66],[77.2731,28.668],[77.2774,28.6739],[77.274,28.6828],[77.2349,28.6757]]],[[[77.2858,28.6364],[77.2632,28.642],[77.2642,28.5998],[77.2864,28.6087],[77.2928,28.628],[77.2858,28.6364]]]]},"properties":{"district":"NAZUL"}},
{"type":"Feature","geometry":{"type":"Polygon","coordinates":[[[76.9567,28.6726],[76.8885,28.632],[76.8646,28.586],[76.8393,28.5822],[76.8451,28.5503],[76.8726,28.5328],[76.8873,28.5199],[76.954,28.505],[77.0137,28.5394],[77.0295,28.5668],[77.0593,28.5761],[77.0845,28.5724],[77.1037,28.5939],[77.111,28.6025],[77.1043,28.6057],[77.0768,28.6082],[77.0616,28.6228],[77.0227,28.6251],[76.9998,28.6313],[76.9952,28.6534],[76.9567,28.6726]]]},"properties":{"district":"SOUTH WEST"}},
{"type":"Feature","geometry":{"type":"MultiPolygon","coordinates":[[[[77.2562,28.6524],[77.2632,28.642],[77.2858,28.6364],[77.2864,28.6605],[77.2562,28.6524]]],[[[77.2928,28.628],[77.2864,28.6087],[77.3143,28.6097],[77.3126,28.5955],[77.334,28.6282],[77.3199,28.6225],[77.2928,28.628]]]]},"properties":{"district":"EAST"}},
{"type":"Feature","geometry":{"type":"Polygon","coordinates":[[[77.1345,28.631],[77.1344,28.6308],[77.111,28.6025],[77.1037,28.5939],[77.0845,28.5724],[77.0593,28.5761],[77.0295,28.5668],[77.0137,28.5394],[77.0646,28.512],[77.0943,28.5059],[77.1169,28.4904],[77.1463,28.509],[77.2038,28.5149],[77.2161,28.525],[77.1832,28.5504],[77.1962,28.5654],[77.2173,28.5642],[77.245,28.5912],[77.2446,28.6231],[77.2211,28.6399],[77.2195,28.64],[77.2002,28.642],[77.1854,28.6463],[77.1564,28.6558],[77.1345,28.631]]]},"properties":{"district":"NEW DELHI"}},
{"type":"Feature","geometry":{"type":"Polygon","coordinates":[[[77.2407,28.6399],[77.2446,28.6231],[77.245,28.5912],[77.2173,28.5642],[77.2128,28.5483],[77.2472,28.5534],[77.256,28.5225],[77.2461,28.5137],[77.2383,28.4757],[77.2766,28.4931],[77.2958,28.4956],[77.3171,28.485],[77.3358,28.5261],[77.3004,28.5631],[77.3126,28.5955],[77.3143,28.6097],[77.2864,28.6087],[77.2642,28.5998],[77.2632,28.642],[77.2562,28.6524],[77.256,28.6526],[77.2407,28.6399]]]},"properties":{"district":"SOUTH EAST"}},
{"type":"Feature","geometry":{"type":"Polygon","coordinates":[[[77.1962,28.5654],[77.1832,28.5504],[77.2161,28.525],[77.2038,28.5149],[77.1463,28.509],[77.1169,28.4904],[77.1221,28.445],[77.1609,28.4283],[77.1736,28.4055],[77.2474,28.4245],[77.231,28.4602],[77.2383,28.4757],[77.2461,28.5137],[77.256,28.5225],[77.2472,28.5534],[77.2128,28.5483],[77.2173,28.5642],[77.1962,28.5654]]]},"properties":{"district":"SOUTH"}}
]}