{"type":"FeatureCollection","features":[{"type":"Feature","geometry":{"type":"Polygon","coordinates":[[[76.8474,30.7801],[76.9057,30.6836],[77.0301,30.628],[77.1345,30.5698],[77.1664,30.6846],[77.02,30.749],[76.9231,30.9015],[76.7741,30.9071],[76.8474,30.7801]]]},"properties":{"AC_NO":1,"AC_NAME":"Kalka","PC_NO":1,"PC_NAME":"AMBALA (SC)","district":"PANCHKULA"}},{"type":"Feature","geometry":{"type":"Polygon","coordinates":[[[77.0301,30.628],[76.9057,30.6836],[76.8474,30.7801],[76.8381,30.7542],[76.8288,30.6807],[76.9256,30.6114],[76.9279,30.5241],[77.0301,30.628]]]},"properties":{"AC_NO":2,"AC_NAME":"Panchkula","PC_NO":1,"PC_NAME":"AMBALA (SC)","district":"PANCHKULA"}},{"type":"Feature","geometry":{"type":"Polygon","coordinates":[[[77.0301,30.628],[76.9279,30.5241],[76.8994,30.36],[76.8883,30.3089],[76.9655,30.3529],[77.1609,30.3556],[77.2119,30.4977],[77.1345,30.5698],[77.0301,30.628]]]},"properties":{"AC_NO":3,"AC_NAME":"Naraingarh","PC_NO":1,"PC_NAME":"AMBALA (SC)","district":"AMBALA"}},{"type":"Feature","geometry":{"type":"MultiPolygon","coordinates":[[[[76.64,30.0979],[76.637,30.1474],[76.5743,30.1009],[76.64,30.0979]]],[[[76.7981,30.4173],[76.7481,30.4288],[76.7266,30.3614],[76.6357,30.2895],[76.6429,30.15],[76.7015,30.1936],[76.7826,30.2909],[76.8369,30.295],[76.7981,30.4173]]]]},"properties":{"AC_NO":5,"AC_NAME":"Ambala City","PC_NO":1,"PC_NAME":"AMBALA (SC)","district":"AMBALA"}},{"type":"Feature","geometry":{"type":"Polygon","coordinates":[[[77.4443,30.3963],[77.2119,30.4977],[77.1609,30.3556],[77.1328,30.2313],[77.1624,30.1636],[77.2748,30.1889],[77.2811,30.2865],[77.3603,30.2792],[77.4443,30.3963]]]},"properties":{"AC_NO":7,"AC_NAME":"Sadhaura (SC)","PC_NO":1,"PC_NAME":"AMBALA (SC)","district":"YAMUNANAGAR"}},{"type":"Feature","geometry":{"type":"Polygon","coordinates":[[[76.7981,30.4173],[76.8369,30.295],[76.8883,30.3089],[76.8994,30.36],[76.7981,30.4173]]]},"properties":{"AC_NO":4,"AC_NAME":"Ambala Cantt.","PC_NO":1,"PC_NAME":"AMBALA (SC)","district":"AMBALA"}},{"type":"Feature","geometry":{"type":"Polygon","coordinates":[[[77.4443,30.3963],[77.3603,30.2792],[77.2811,30.2865],[77.2748,30.1889],[77.2935,30.1764],[77.4269,30.1594],[77.459,30.1659],[77.5844,30.3095],[77.5872,30.3788],[77.5227,30.443],[77.4443,30.3963]]]},"properties":{"AC_NO":8,"AC_NAME":"Jagadhri","PC_NO":1,"PC_NAME":"AMBALA (SC)","district":"YAMUNANAGAR"}},{"type":"Feature","geometry":{"type":"Polygon","coordinates":[[[77.1609,30.3556],[76.9655,30.3529],[76.8883,30.3089],[76.8369,30.295],[76.7826,30.2909],[76.7015,30.1936],[76.8169,30.2179],[76.987,30.1678],[77.0673,30.1299],[77.1328,30.2313],[77.1609,30.3556]]]},"properties":{"AC_NO":6,"AC_NAME":"Mulana (SC)","PC_NO":1,"PC_NAME":"AMBALA (SC)","district":"AMBALA"}},{"type":"Feature","geometry":{"type":"Polygon","coordinates":[[[76.987,30.1678],[76.8169,30.2179],[76.7015,30.1936],[76.6429,30.15],[76.637,30.1474],[76.64,30.0979],[76.7117,30.0186],[76.8617,30.0461],[76.987,30.1678]]]},"properties":{"AC_NO":12,"AC_NAME":"Shahbad (SC)","PC_NO":2,"PC_NAME":"KURUKSHETRA","district":"KURUKSHETRA"}},{"type":"Feature","geometry":{"type":"Polygon","coordinates":[[[77.4269,30.1594],[77.2935,30.1764],[77.3711,30.0852],[77.4269,30.1594]]]},"properties":{"AC_NO":9,"AC_NAME":"Yamunanagar","PC_NO":1,"PC_NAME":"AMBALA (SC)","district":"YAMUNANAGAR"}},{"type":"Feature","geometry":{"type":"Polygon","coordinates":[[[76.1961,30.1227],[76.2422,30.1006],[76.1713,29.9287],[76.2435,29.8633],[76.3571,29.8254],[76.4362,29.8796],[76.4486,29.9672],[76.4211,30.0305],[76.4675,30.0989],[76.4291,30.1507],[76.334,30.1386],[76.1961,30.1227]]]},"properties":{"AC_NO":15,"AC_NAME":"Guhla (SC)","PC_NO":2,"PC_NAME":"KURUKSHETRA","district":"KAITHAL"}},{"type":"Feature","geometry":{"type":"Polygon","coordinates":[[[77.1328,30.2313],[77.0673,30.1299],[77.1141,29.9917],[77.226,29.9391],[77.2849,30.0425],[77.3711,30.0852],[77.2935,30.1764],[77.2748,30.1889],[77.1624,30.1636],[77.1328,30.2313]]]},"properties":{"AC_NO":10,"AC_NAME":"Radaur","PC_NO":2,"PC_NAME":"KURUKSHETRA","district":"YAMUNANAGAR"}},{"type":"Feature","geometry":{"type":"Polygon","coordinates":[[[77.0673,30.1299],[76.987,30.1678],[76.8617,30.0461],[76.9502,29.9287],[77.096,29.9506],[77.1141,29.9917],[77.0673,30.1299]]]},"properties":{"AC_NO":11,"AC_NAME":"Ladwa","PC_NO":2,"PC_NAME":"KURUKSHETRA","district":"KURUKSHETRA"}},{"type":"Feature","geometry":{"type":"Polygon","coordinates":[[[76.5743,30.1009],[76.4675,30.0989],[76.4211,30.0305],[76.4486,29.9672],[76.5531,29.8577],[76.6704,29.9427],[76.7527,29.9116],[76.7117,30.0186],[76.64,30.0979],[76.5743,30.1009]]]},"properties":{"AC_NO":14,"AC_NAME":"Pehowa","PC_NO":2,"PC_NAME":"KURUKSHETRA","district":"KURUKSHETRA"}},{"type":"Feature","geometry":{"type":"Polygon","coordinates":[[[74.9519,29.9029],[74.9265,29.9505],[74.8115,29.9921],[74.7062,29.9766],[74.6305,29.9051],[74.5267,29.9428],[74.5612,29.8706],[74.4847,29.8157],[74.4773,29.7452],[74.6156,29.7515],[74.5969,29.6833],[74.7722,29.6638],[74.9113,29.7198],[74.9519,29.9029]]]},"properties":{"AC_NO":43,"AC_NAME":"Dabwali","PC_NO":3,"PC_NAME":"SIRSA (SC)","district":"SIRSA"}},{"type":"Feature","geometry":{"type":"Polygon","coordinates":[[[76.8617,30.0461],[76.7117,30.0186],[76.7527,29.9116],[76.7242,29.881],[76.8798,29.8804],[76.9568,29.9147],[76.9502,29.9287],[76.8617,30.0461]]]},"properties":{"AC_NO":13,"AC_NAME":"Thanesar","PC_NO":2,"PC_NAME":"KURUKSHETRA","district":"KURUKSHETRA"}},{"type":"Feature","geometry":{"type":"Polygon","coordinates":[[[76.9502,29.9287],[76.9568,29.9147],[77.0081,29.8682],[76.9667,29.7512],[77.0542,29.6606],[77.1357,29.6661],[77.1417,29.6923],[77.1273,29.7709],[77.1844,29.8501],[77.226,29.9391],[77.1141,29.9917],[77.096,29.9506],[76.9502,29.9287]]]},"properties":{"AC_NO":20,"AC_NAME":"Indri","PC_NO":5,"PC_NAME":"KARNAL","district":"KARNAL"}},{"type":"Feature","geometry":{"type":"Polygon","coordinates":[[[75.1913,29.8409],[75.135,29.8074],[75.0701,29.8774],[74.9519,29.9029],[74.9113,29.7198],[75.0255,29.6556],[75.0017,29.5809],[75.0819,29.5197],[75.2845,29.4662],[75.2777,29.5043],[75.3026,29.5601],[75.1825,29.6307],[75.2096,29.7384],[75.1913,29.8409]]]},"properties":{"AC_NO":42,"AC_NAME":"Kalanwali (SC)","PC_NO":3,"PC_NAME":"SIRSA (SC)","district":"SIRSA"}},{"type":"Feature","geometry":{"type":"Polygon","coordinates":[[[76.5531,29.8577],[76.4486,29.9672],[76.4362,29.8796],[76.3571,29.8254],[76.4473,29.7521],[76.5091,29.7604],[76.5531,29.8577]]]},"properties":{"AC_NO":17,"AC_NAME":"Kaithal","PC_NO":2,"PC_NAME":"KURUKSHETRA","district":"KAITHAL"}},{"type":"Feature","geometry":{"type":"Polygon","coordinates":[[[76.7527,29.9116],[76.6704,29.9427],[76.5531,29.8577],[76.5091,29.7604],[76.487,29.6672],[76.5218,29.6149],[76.6781,29.6711],[76.7242,29.881],[76.7527,29.9116]]]},"properties":{"AC_NO":18,"AC_NAME":"Pundri","PC_NO":2,"PC_NAME":"KURUKSHETRA","district":"KAITHAL"}},{"type":"Feature","geometry":{"type":"Polygon","coordinates":[[[76.9568,29.9147],[76.8798,29.8804],[76.7242,29.881],[76.6781,29.6711],[76.7614,29.6208],[76.8592,29.7492],[76.9667,29.7512],[77.0081,29.8682],[76.9568,29.9147]]]},"properties":{"AC_NO":19,"AC_NAME":"Nilokheri(SC)","PC_NO":5,"PC_NAME":"KARNAL","district":"KARNAL"}},{"type":"Feature","geometry":{"type":"Polygon","coordinates":[[[76.3571,29.8254],[76.2435,29.8633],[76.2151,29.8418],[76.2144,29.8423],[76.1673,29.6893],[76.2415,29.6001],[76.4953,29.5164],[76.5218,29.6149],[76.487,29.6672],[76.5091,29.7604],[76.4473,29.7521],[76.3571,29.8254]]]},"properties":{"AC_NO":16,"AC_NAME":"Kalayat","PC_NO":2,"PC_NAME":"KURUKSHETRA","district":"KAITHAL"}},{"type":"Feature","geometry":{"type":"Polygon","coordinates":[[[75.9465,29.7299],[75.9605,29.5913],[76.0546,29.5802],[76.2415,29.6001],[76.1673,29.6893],[76.2144,29.8423],[76.214,29.8425],[76.1049,29.8121],[75.9465,29.7299]]]},"properties":{"AC_NO":38,"AC_NAME":"Narwana (SC)","PC_NO":3,"PC_NAME":"SIRSA (SC)","district":"JIND"}},{"type":"Feature","geometry":{"type":"Polygon","coordinates":[[[75.9465,29.7299],[75.8372,29.7942],[75.7375,29.8147],[75.6982,29.7533],[75.6807,29.635],[75.6128,29.5951],[75.5847,29.4915],[75.6361,29.4642],[75.6972,29.5728],[75.8032,29.5215],[75.9587,29.5664],[75.9605,29.5913],[75.9465,29.7299]]]},"properties":{"AC_NO":39,"AC_NAME":"Tohana","PC_NO":3,"PC_NAME":"SIRSA (SC)","district":"FATEHABAD"}},{"type":"Feature","geometry":{"type":"Polygon","coordinates":[[[75.6982,29.7533],[75.4578,29.7943],[75.4297,29.7739],[75.3465,29.6951],[75.3026,29.5601],[75.2777,29.5043],[75.4123,29.5085],[75.4808,29.554],[75.5847,29.4915],[75.6128,29.5951],[75.6807,29.635],[75.6982,29.7533]]]},"properties":{"AC_NO":41,"AC_NAME":"Ratia (SC)","PC_NO":3,"PC_NAME":"SIRSA (SC)","district":"FATEHABAD"}},{"type":"Feature","geometry":{"type":"Polygon","coordinates":[[[74.9113,29.7198],[74.7722,29.6638],[74.5969,29.6833],[74.575,29.5637],[74.6133,29.537],[74.8815,29.4642],[74.9062,29.4794],[75.0017,29.5809],[75.0255,29.6556],[74.9113,29.7198]]]},"properties":{"AC_NO":44,"AC_NAME":"Rania","PC_NO":3,"PC_NAME":"SIRSA (SC)","district":"SIRSA"}},{"type":"Feature","geometry":{"type":"Polygon","coordinates":[[[76.9667,29.7512],[76.8592,29.7492],[76.9224,29.6275],[77.0157,29.6135],[77.0542,29.6606],[76.9667,29.7512]]]},"properties":{"AC_NO":21,"AC_NAME":"Karnal","PC_NO":5,"PC_NAME":"KARNAL","district":"KARNAL"}},{"type":"Feature","geometry":{"type":"Polygon","coordinates":[[[76.6781,29.6711],[76.5218,29.6149],[76.4953,29.5164],[76.5215,29.4807],[76.6547,29.4913],[76.7627,29.4666],[76.8508,29.4749],[76.8581,29.4894],[76.9224,29.6275],[76.8592,29.7492],[76.7614,29.6208],[76.6781,29.6711]]]},"properties":{"AC_NO":23,"AC_NAME":"Assandh","PC_NO":5,"PC_NAME":"KARNAL","district":"KARNAL"}},{"type":"Feature","geometry":{"type":"Polygon","coordinates":[[[77.1357,29.6661],[77.0542,29.6606],[77.0157,29.6135],[76.9224,29.6275],[76.8581,29.4894],[77.075,29.4442],[77.1311,29.4862],[77.0954,29.594],[77.1357,29.6661]]]},"properties":{"AC_NO":22,"AC_NAME":"Gharaunda","PC_NO":5,"PC_NAME":"KARNAL","district":"KARNAL"}},{"type":"Feature","geometry":{"type":"Polygon","coordinates":[[[75.0017,29.5809],[74.9062,29.4794],[75.0778,29.4558],[75.1482,29.3565],[75.2324,29.3789],[75.2845,29.4662],[75.0819,29.5197],[75.0017,29.5809]]]},"properties":{"AC_NO":45,"AC_NAME":"Sirsa","PC_NO":3,"PC_NAME":"SIRSA (SC)","district":"SIRSA"}},{"type":"Feature","geometry":{"type":"Polygon","coordinates":[[[75.9605,29.5913],[75.9587,29.5664],[75.9398,29.4984],[76.0954,29.4039],[76.2503,29.3837],[76.3342,29.4283],[76.4268,29.4135],[76.5215,29.4807],[76.4953,29.5164],[76.2415,29.6001],[76.0546,29.5802],[75.9605,29.5913]]]},"properties":{"AC_NO":37,"AC_NAME":"Uchana Kalan","PC_NO":4,"PC_NAME":"HISAR","district":"JIND"}},{"type":"Feature","geometry":{"type":"Polygon","coordinates":[[[74.9062,29.4794],[74.8815,29.4642],[74.6133,29.537],[74.5846,29.4585],[74.6033,29.3274],[74.6511,29.3328],[74.7941,29.3691],[74.8505,29.4036],[74.9383,29.362],[74.9606,29.281],[75.0495,29.2856],[75.1201,29.2229],[75.2455,29.2506],[75.2324,29.3789],[75.1482,29.3565],[75.0778,29.4558],[74.9062,29.4794]]]},"properties":{"AC_NO":46,"AC_NAME":"Ellenabad","PC_NO":3,"PC_NAME":"SIRSA (SC)","district":"SIRSA"}},{"type":"Feature","geometry":{"type":"Polygon","coordinates":[[[75.2777,29.5043],[75.2845,29.4662],[75.2324,29.3789],[75.2455,29.2506],[75.2857,29.2708],[75.3968,29.3196],[75.4159,29.4134],[75.516,29.3981],[75.5994,29.3386],[75.6302,29.4165],[75.7026,29.4243],[75.8032,29.5215],[75.6972,29.5728],[75.6361,29.4642],[75.5847,29.4915],[75.4808,29.554],[75.4123,29.5085],[75.2777,29.5043]]]},"properties":{"AC_NO":40,"AC_NAME":"Fatehabad","PC_NO":3,"PC_NAME":"SIRSA (SC)","district":"FATEHABAD"}},{"type":"Feature","geometry":{"type":"Polygon","coordinates":[[[75.9587,29.5664],[75.8032,29.5215],[75.7026,29.4243],[75.6302,29.4165],[75.5994,29.3386],[75.6583,29.2602],[75.7633,29.3017],[75.8424,29.3699],[75.9246,29.3137],[76.0421,29.3007],[76.0954,29.4039],[75.9398,29.4984],[75.9587,29.5664]]]},"properties":{"AC_NO":48,"AC_NAME":"Uklana (SC)","PC_NO":4,"PC_NAME":"HISAR","district":"HISAR"}},{"type":"Feature","geometry":{"type":"Polygon","coordinates":[[[76.5215,29.4807],[76.4268,29.4135],[76.477,29.353],[76.489,29.2392],[76.5597,29.281],[76.6815,29.2692],[76.6519,29.3703],[76.7347,29.3889],[76.7627,29.4666],[76.6547,29.4913],[76.5215,29.4807]]]},"properties":{"AC_NO":35,"AC_NAME":"Safidon","PC_NO":6,"PC_NAME":"SONIPAT","district":"JIND"}},{"type":"Feature","geometry":{"type":"Polygon","coordinates":[[[76.8508,29.4749],[76.9062,29.4139],[76.9424,29.2826],[76.9841,29.2844],[77.075,29.4442],[76.8581,29.4894],[76.8508,29.4749]],[[76.9751,29.4012],[76.9792,29.3574],[76.9497,29.3773],[76.9751,29.4012]]]},"properties":{"AC_NO":24,"AC_NAME":"Panipat Rural","PC_NO":5,"PC_NAME":"KARNAL","district":"PANIPAT"}},{"type":"Feature","geometry":{"type":"Polygon","coordinates":[[[76.7627,29.4666],[76.7347,29.3889],[76.6519,29.3703],[76.6815,29.2692],[76.7697,29.2798],[76.8102,29.2222],[76.8599,29.1997],[76.9318,29.2135],[76.9424,29.2826],[76.9062,29.4139],[76.8508,29.4749],[76.7627,29.4666]]]},"properties":{"AC_NO":26,"AC_NAME":"Israna (SC)","PC_NO":5,"PC_NAME":"KARNAL","district":"PANIPAT"}},{"type":"Feature","geometry":{"type":"Polygon","coordinates":[[[77.1524,29.2975],[77.1311,29.4862],[77.075,29.4442],[76.9841,29.2844],[76.9424,29.2826],[76.9318,29.2135],[77.1434,29.1672],[77.1524,29.2975]]]},"properties":{"AC_NO":27,"AC_NAME":"Samalkha","PC_NO":5,"PC_NAME":"KARNAL","district":"PANIPAT"}},{"type":"Feature","geometry":{"type":"Polygon","coordinates":[[[75.5994,29.3386],[75.516,29.3981],[75.4159,29.4134],[75.3968,29.3196],[75.2857,29.2708],[75.3882,29.2608],[75.3914,29.063],[75.5071,29.0112],[75.5031,29.1647],[75.5949,29.2278],[75.7077,29.1377],[75.7663,29.1894],[75.7633,29.3017],[75.6583,29.2602],[75.5994,29.3386]]]},"properties":{"AC_NO":47,"AC_NAME":"Adampur","PC_NO":4,"PC_NAME":"HISAR","district":"HISAR"}},{"type":"Feature","geometry":{"type":"Polygon","coordinates":[[[76.2503,29.3837],[76.2066,29.3168],[76.4114,29.3246],[76.477,29.353],[76.4268,29.4135],[76.3342,29.4283],[76.2503,29.3837]]]},"properties":{"AC_NO":36,"AC_NAME":"Jind","PC_NO":6,"PC_NAME":"SONIPAT","district":"JIND"}},{"type":"Feature","geometry":{"type":"Polygon","coordinates":[[[76.0954,29.4039],[76.0421,29.3007],[75.9246,29.3137],[75.8507,29.224],[75.8988,29.1878],[76.1385,29.1543],[76.103,29.1059],[76.199,29.0352],[76.2262,28.9867],[76.3019,29.0858],[76.2816,29.2082],[76.226,29.2192],[76.2066,29.3168],[76.2503,29.3837],[76.0954,29.4039]]]},"properties":{"AC_NO":49,"AC_NAME":"Narnaund","PC_NO":4,"PC_NAME":"HISAR","district":"HISAR"}},{"type":"Feature","geometry":{"type":"Polygon","coordinates":[[[75.9246,29.3137],[75.8424,29.3699],[75.7633,29.3017],[75.7663,29.1894],[75.7467,29.1078],[75.8348,29.0569],[75.904,29.1201],[75.8988,29.1878],[75.8507,29.224],[75.9246,29.3137]]]},"properties":{"AC_NO":51,"AC_NAME":"Barwala","PC_NO":4,"PC_NAME":"HISAR","district":"HISAR"}},{"type":"Feature","geometry":{"type":"Polygon","coordinates":[[[76.9751,29.4012],[76.9497,29.3773],[76.9792,29.3574],[76.9751,29.4012]]]},"properties":{"AC_NO":25,"AC_NAME":"Panipat City","PC_NO":5,"PC_NAME":"KARNAL","district":"PANIPAT"}},{"type":"Feature","geometry":{"type":"Polygon","coordinates":[[[76.2066,29.3168],[76.226,29.2192],[76.2816,29.2082],[76.3019,29.0858],[76.4631,29.0697],[76.4981,29.1481],[76.489,29.2392],[76.477,29.353],[76.4114,29.3246],[76.2066,29.3168]]]},"properties":{"AC_NO":34,"AC_NAME":"Julana","PC_NO":6,"PC_NAME":"SONIPAT","district":"JIND"}},{"type":"Feature","geometry":{"type":"Polygon","coordinates":[[[76.6815,29.2692],[76.5597,29.281],[76.489,29.2392],[76.4981,29.1481],[76.5668,29.0592],[76.6644,28.9877],[76.7746,28.9492],[76.804,29.0141],[76.7689,29.1395],[76.8102,29.2222],[76.7697,29.2798],[76.6815,29.2692]]]},"properties":{"AC_NO":33,"AC_NAME":"Baroda","PC_NO":6,"PC_NAME":"SONIPAT","district":"SONIPAT"}},{"type":"Feature","geometry":{"type":"Polygon","coordinates":[[[75.7077,29.1377],[75.5949,29.2278],[75.5031,29.1647],[75.5071,29.0112],[75.5275,28.9755],[75.6012,28.9953],[75.7314,28.9051],[75.8341,28.9121],[75.8714,28.9683],[75.8348,29.0569],[75.7467,29.1078],[75.7077,29.1377]]]},"properties":{"AC_NO":53,"AC_NAME":"Nalwa","PC_NO":4,"PC_NAME":"HISAR","district":"HISAR"}},{"type":"Feature","geometry":{"type":"Polygon","coordinates":[[[76.199,29.0352],[76.103,29.1059],[76.1385,29.1543],[75.8988,29.1878],[75.904,29.1201],[75.8348,29.0569],[75.8714,28.9683],[75.9698,29.0528],[76.199,29.0352]]]},"properties":{"AC_NO":50,"AC_NAME":"Hansi","PC_NO":4,"PC_NAME":"HISAR","district":"HISAR"}},{"type":"Feature","geometry":{"type":"Polygon","coordinates":[[[75.7663,29.1894],[75.7077,29.1377],[75.7467,29.1078],[75.7663,29.1894]]]},"properties":{"AC_NO":52,"AC_NAME":"Hisar","PC_NO":4,"PC_NAME":"HISAR","district":"HISAR"}},{"type":"Feature","geometry":{"type":"Polygon","coordinates":[[[76.8102,29.2222],[76.7689,29.1395],[76.804,29.0141],[76.9176,28.9563],[76.9783,28.9672],[76.9802,29.0287],[76.9431,29.0932],[76.8258,29.1624],[76.8599,29.1997],[76.8102,29.2222]]]},"properties":{"AC_NO":32,"AC_NAME":"Gohana","PC_NO":6,"PC_NAME":"SONIPAT","district":"SONIPAT"}},{"type":"Feature","geometry":{"type":"Polygon","coordinates":[[[76.9318,29.2135],[76.8599,29.1997],[76.8258,29.1624],[76.9431,29.0932],[76.9802,29.0287],[77.0388,28.9972],[77.0299,29.0484],[77.1521,29.0797],[77.1361,29.1478],[77.1434,29.1672],[76.9318,29.2135]]]},"properties":{"AC_NO":28,"AC_NAME":"Ganaur","PC_NO":6,"PC_NAME":"SONIPAT","district":"SONIPAT"}},{"type":"Feature","geometry":{"type":"Polygon","coordinates":[[[76.4631,29.0697],[76.5612,28.9423],[76.5644,28.9151],[76.631,28.9053],[76.6167,28.8656],[76.6681,28.8139],[76.779,28.7432],[76.8179,28.7841],[76.9007,28.8632],[76.8112,28.8661],[76.7746,28.9492],[76.6644,28.9877],[76.5668,29.0592],[76.4981,29.1481],[76.4631,29.0697]]]},"properties":{"AC_NO":61,"AC_NAME":"Garhi Sampla-Kilo","PC_NO":7,"PC_NAME":"ROHTAK","district":"ROHTAK"}},{"type":"Feature","geometry":{"type":"Polygon","coordinates":[[[76.199,29.0352],[75.9698,29.0528],[75.8714,28.9683],[75.8341,28.9121],[75.9347,28.9265],[75.9888,28.8507],[76.1738,28.8074],[76.2949,28.7813],[76.3843,28.7827],[76.2917,28.807],[76.2887,28.8732],[76.2262,28.9867],[76.199,29.0352]]]},"properties":{"AC_NO":59,"AC_NAME":"Bawani Khera (SC)","PC_NO":4,"PC_NAME":"HISAR","district":"BHIWANI"}},{"type":"Feature","geometry":{"type":"Polygon","coordinates":[[[76.3019,29.0858],[76.2262,28.9867],[76.2887,28.8732],[76.4171,28.8568],[76.5612,28.9423],[76.4631,29.0697],[76.3019,29.0858]]]},"properties":{"AC_NO":60,"AC_NAME":"Meham","PC_NO":7,"PC_NAME":"ROHTAK","district":"ROHTAK"}},{"type":"Feature","geometry":{"type":"Polygon","coordinates":[[[77.1521,29.0797],[77.0299,29.0484],[77.0388,28.9972],[77.0368,28.9532],[77.0513,28.8549],[77.2089,28.8585],[77.1993,28.9352],[77.1521,29.0797]]]},"properties":{"AC_NO":29,"AC_NAME":"Rai","PC_NO":6,"PC_NAME":"SONIPAT","district":"SONIPAT"}},{"type":"Feature","geometry":{"type":"Polygon","coordinates":[[[75.7314,28.9051],[75.6012,28.9953],[75.5275,28.9755],[75.4767,28.932],[75.5032,28.7825],[75.5615,28.6132],[75.6222,28.6017],[75.6708,28.5181],[75.7881,28.4538],[75.7885,28.4007],[75.8955,28.3895],[75.9038,28.4319],[75.8214,28.5111],[75.8969,28.6039],[75.7005,28.7376],[75.6898,28.8387],[75.7314,28.9051]]]},"properties":{"AC_NO":54,"AC_NAME":"Loharu","PC_NO":8,"PC_NAME":"BHIWANI-MAHENDRAGARH","district":"BHIWANI"}},{"type":"Feature","geometry":{"type":"Polygon","coordinates":[[[77.0388,28.9972],[76.9802,29.0287],[76.9783,28.9672],[77.0368,28.9532],[77.0388,28.9972]]]},"properties":{"AC_NO":31,"AC_NAME":"Sonipat","PC_NO":6,"PC_NAME":"SONIPAT","district":"SONIPAT"}},{"type":"Feature","geometry":{"type":"Polygon","coordinates":[[[76.804,29.0141],[76.7746,28.9492],[76.8112,28.8661],[76.9007,28.8632],[76.9512,28.8177],[77.0397,28.8321],[77.0513,28.8549],[77.0368,28.9532],[76.9783,28.9672],[76.9176,28.9563],[76.804,29.0141]]]},"properties":{"AC_NO":30,"AC_NAME":"Kharkhauda (SC)","PC_NO":6,"PC_NAME":"SONIPAT","district":"SONIPAT"}},{"type":"Feature","geometry":{"type":"Polygon","coordinates":[[[75.8341,28.9121],[75.7314,28.9051],[75.6898,28.8387],[75.7005,28.7376],[75.8969,28.6039],[76.0278,28.638],[75.9946,28.733],[76.1738,28.8074],[75.9888,28.8507],[75.9347,28.9265],[75.8341,28.9121]]]},"properties":{"AC_NO":58,"AC_NAME":"Tosham","PC_NO":8,"PC_NAME":"BHIWANI-MAHENDRAGARH","district":"BHIWANI"}},{"type":"Feature","geometry":{"type":"Polygon","coordinates":[[[76.5644,28.9151],[76.5612,28.9423],[76.4171,28.8568],[76.2887,28.8732],[76.2917,28.807],[76.3843,28.7827],[76.4063,28.6826],[76.4455,28.7363],[76.6681,28.8139],[76.6167,28.8656],[76.5644,28.9151]]]},"properties":{"AC_NO":63,"AC_NAME":"Kalanaur (SC)","PC_NO":7,"PC_NAME":"ROHTAK","district":"ROHTAK"}},{"type":"Feature","geometry":{"type":"Polygon","coordinates":[[[76.6167,28.8656],[76.631,28.9053],[76.5644,28.9151],[76.6167,28.8656]]]},"properties":{"AC_NO":62,"AC_NAME":"Rohtak","PC_NO":7,"PC_NAME":"ROHTAK","district":"ROHTAK"}},{"type":"Feature","geometry":{"type":"Polygon","coordinates":[[[76.9007,28.8632],[76.8179,28.7841],[76.8062,28.7371],[76.9246,28.6496],[76.9567,28.6726],[76.9497,28.7625],[76.9512,28.8177],[76.9007,28.8632]]]},"properties":{"AC_NO":64,"AC_NAME":"Bahadurgarh","PC_NO":7,"PC_NAME":"ROHTAK","district":"JHAJJAR"}},{"type":"Feature","geometry":{"type":"Polygon","coordinates":[[[76.8179,28.7841],[76.779,28.7432],[76.6681,28.8139],[76.4455,28.7363],[76.4063,28.6826],[76.4645,28.6154],[76.5043,28.6047],[76.6501,28.6758],[76.7201,28.6053],[76.8211,28.6724],[76.8839,28.6248],[76.9246,28.6496],[76.8062,28.7371],[76.8179,28.7841]]]},"properties":{"AC_NO":67,"AC_NAME":"Beri","PC_NO":7,"PC_NAME":"ROHTAK","district":"JHAJJAR"}},{"type":"Feature","geometry":{"type":"Polygon","coordinates":[[[76.1738,28.8074],[75.9946,28.733],[76.0278,28.638],[76.0556,28.6307],[76.1305,28.6782],[76.2264,28.6534],[76.2949,28.7813],[76.1738,28.8074]]]},"properties":{"AC_NO":57,"AC_NAME":"Bhiwani","PC_NO":8,"PC_NAME":"BHIWANI-MAHENDRAGARH","district":"BHIWANI"}},{"type":"Feature","geometry":{"type":"Polygon","coordinates":[[[76.2949,28.7813],[76.2264,28.6534],[76.1305,28.6782],[76.0556,28.6307],[76.2631,28.5079],[76.2853,28.4754],[76.346,28.602],[76.4645,28.6154],[76.4063,28.6826],[76.3843,28.7827],[76.2949,28.7813]]]},"properties":{"AC_NO":56,"AC_NAME":"Dadri","PC_NO":8,"PC_NAME":"BHIWANI-MAHENDRAGARH","district":"CHARKI DADRI"}},{"type":"Feature","geometry":{"type":"Polygon","coordinates":[[[76.4645,28.6154],[76.346,28.602],[76.2853,28.4754],[76.2852,28.4329],[76.2877,28.4283],[76.4231,28.4627],[76.5246,28.5648],[76.6343,28.5652],[76.7201,28.6053],[76.6501,28.6758],[76.5043,28.6047],[76.4645,28.6154]]]},"properties":{"AC_NO":66,"AC_NAME":"Jhajjar (SC)","PC_NO":7,"PC_NAME":"ROHTAK","district":"JHAJJAR"}},{"type":"Feature","geometry":{"type":"Polygon","coordinates":[[[76.7201,28.6053],[76.6343,28.5652],[76.5246,28.5648],[76.4231,28.4627],[76.4388,28.4249],[76.6313,28.4222],[76.6691,28.3793],[76.7932,28.4666],[76.8855,28.501],[76.8726,28.5328],[76.8839,28.6248],[76.8211,28.6724],[76.7201,28.6053]]]},"properties":{"AC_NO":65,"AC_NAME":"Badli","PC_NO":7,"PC_NAME":"ROHTAK","district":"JHAJJAR"}},{"type":"Feature","geometry":{"type":"Polygon","coordinates":[[[76.2853,28.4754],[76.2631,28.5079],[76.0556,28.6307],[76.0278,28.638],[75.8969,28.6039],[75.8214,28.5111],[75.9038,28.4319],[75.9823,28.445],[76.0207,28.3857],[76.2444,28.4586],[76.2852,28.4329],[76.2853,28.4754]]]},"properties":{"AC_NO":55,"AC_NAME":"Badhra","PC_NO":8,"PC_NAME":"BHIWANI-MAHENDRAGARH","district":"CHARKI DADRI"}},{"type":"Feature","geometry":{"type":"Polygon","coordinates":[[[76.8855,28.501],[76.7932,28.4666],[76.8906,28.3645],[76.9835,28.3283],[77.0817,28.4134],[77.1114,28.4746],[77.1169,28.4904],[77.0943,28.5059],[77.0137,28.5394],[76.8855,28.501]]]},"properties":{"AC_NO":76,"AC_NAME":"Badshahpur","PC_NO":9,"PC_NAME":"GURGAON","district":"GURUGRAM"}},{"type":"Feature","geometry":{"type":"Polygon","coordinates":[[[76.7932,28.4666],[76.6691,28.3793],[76.6653,28.3032],[76.6738,28.2708],[76.8472,28.2393],[76.9835,28.3283],[76.8906,28.3645],[76.7932,28.4666]]]},"properties":{"AC_NO":75,"AC_NAME":"Pataudi (SC)","PC_NO":9,"PC_NAME":"GURGAON","district":"GURUGRAM"}},{"type":"Feature","geometry":{"type":"Polygon","coordinates":[[[77.4111,28.4529],[77.3552,28.4993],[77.3433,28.5105],[77.3017,28.4895],[77.3085,28.4281],[77.3404,28.3922],[77.418,28.2977],[77.4723,28.3294],[77.4775,28.4188],[77.4111,28.4529]]]},"properties":{"AC_NO":90,"AC_NAME":"Tigaon","PC_NO":10,"PC_NAME":"FARIDABAD","district":"FARIDABAD"}},{"type":"Feature","geometry":{"type":"Polygon","coordinates":[[[77.1114,28.4746],[77.0817,28.4134],[77.1221,28.445],[77.1114,28.4746]]]},"properties":{"AC_NO":77,"AC_NAME":"Gurgaon","PC_NO":9,"PC_NAME":"GURGAON","district":"GURUGRAM"}},{"type":"Feature","geometry":{"type":"Polygon","coordinates":[[[76.2852,28.4329],[76.2444,28.4586],[76.0207,28.3857],[75.9823,28.445],[75.9038,28.4319],[75.8955,28.3895],[76.095,28.1463],[76.1872,28.1788],[76.2402,28.3915],[76.2838,28.4151],[76.2877,28.4283],[76.2852,28.4329]]]},"properties":{"AC_NO":69,"AC_NAME":"Mahendragarh","PC_NO":8,"PC_NAME":"BHIWANI-MAHENDRAGARH","district":"MAHENDRAGARH"}},{"type":"Feature","geometry":{"type":"Polygon","coordinates":[[[77.3017,28.4895],[77.2958,28.4956],[77.2766,28.4931],[77.2383,28.4757],[77.231,28.4602],[77.2059,28.4094],[77.2908,28.3806],[77.3072,28.3819],[77.3085,28.4281],[77.3017,28.4895]]]},"properties":{"AC_NO":87,"AC_NAME":"Badkhal","PC_NO":10,"PC_NAME":"FARIDABAD","district":"FARIDABAD"}},{"type":"Feature","geometry":{"type":"Polygon","coordinates":[[[76.344,28.2293],[76.3516,28.3671],[76.2838,28.4151],[76.2402,28.3915],[76.1872,28.1788],[76.1897,28.0548],[76.3576,28.0705],[76.3111,28.1786],[76.344,28.2293]]]},"properties":{"AC_NO":68,"AC_NAME":"Ateli","PC_NO":8,"PC_NAME":"BHIWANI-MAHENDRAGARH","district":"MAHENDRAGARH"}},{"type":"Feature","geometry":{"type":"Polygon","coordinates":[[[76.6691,28.3793],[76.6313,28.4222],[76.4388,28.4249],[76.4231,28.4627],[76.2877,28.4283],[76.2838,28.4151],[76.3516,28.3671],[76.344,28.2293],[76.5396,28.1959],[76.5701,28.2674],[76.6653,28.3032],[76.6691,28.3793]]]},"properties":{"AC_NO":73,"AC_NAME":"Kosli","PC_NO":7,"PC_NAME":"ROHTAK","district":"REWARI"}},{"type":"Feature","geometry":{"type":"Polygon","coordinates":[[[77.1221,28.445],[77.0817,28.4134],[76.9835,28.3283],[76.8472,28.2393],[76.853,28.2206],[76.9684,28.1387],[77.0069,28.1938],[77.1082,28.2277],[77.183,28.1831],[77.2245,28.2667],[77.1978,28.2918],[77.1736,28.4055],[77.1221,28.445]]]},"properties":{"AC_NO":78,"AC_NAME":"Sohna","PC_NO":9,"PC_NAME":"GURGAON","district":"GURUGRAM"}},{"type":"Feature","geometry":{"type":"Polygon","coordinates":[[[77.3085,28.4281],[77.3072,28.3819],[77.3425,28.3703],[77.3404,28.3922],[77.3085,28.4281]]]},"properties":{"AC_NO":89,"AC_NAME":"Faridabad","PC_NO":10,"PC_NAME":"FARIDABAD","district":"FARIDABAD"}},{"type":"Feature","geometry":{"type":"Polygon","coordinates":[[[77.1736,28.4055],[77.1978,28.2918],[77.2885,28.373],[77.2908,28.3806],[77.2059,28.4094],[77.1736,28.4055]]]},"properties":{"AC_NO":86,"AC_NAME":"Faridabad NIT","PC_NO":10,"PC_NAME":"FARIDABAD","district":"FARIDABAD"}},{"type":"Feature","geometry":{"type":"Polygon","coordinates":[[[77.3425,28.3703],[77.2885,28.373],[77.1978,28.2918],[77.2245,28.2667],[77.2425,28.2416],[77.4051,28.1781],[77.5044,28.2525],[77.4723,28.3294],[77.418,28.2977],[77.3404,28.3922],[77.3425,28.3703]]]},"properties":{"AC_NO":85,"AC_NAME":"Prithla","PC_NO":10,"PC_NAME":"FARIDABAD","district":"FARIDABAD"}},{"type":"Feature","geometry":{"type":"Polygon","coordinates":[[[77.3072,28.3819],[77.2908,28.3806],[77.2885,28.373],[77.3425,28.3703],[77.3072,28.3819]]]},"properties":{"AC_NO":88,"AC_NAME":"Ballabhgarh","PC_NO":10,"PC_NAME":"FARIDABAD","district":"FARIDABAD"}},{"type":"Feature","geometry":{"type":"Polygon","coordinates":[[[76.6653,28.3032],[76.5701,28.2674],[76.5396,28.1959],[76.7954,28.1769],[76.853,28.2206],[76.8472,28.2393],[76.6738,28.2708],[76.6653,28.3032]]]},"properties":{"AC_NO":74,"AC_NAME":"Rewari","PC_NO":9,"PC_NAME":"GURGAON","district":"REWARI"}},{"type":"Feature","geometry":{"type":"Polygon","coordinates":[[[76.344,28.2293],[76.3111,28.1786],[76.4527,28.0932],[76.5893,27.9973],[76.6587,28.0085],[76.657,28.0884],[76.7395,28.1223],[76.7954,28.1769],[76.5396,28.1959],[76.344,28.2293]]]},"properties":{"AC_NO":72,"AC_NAME":"Bawal (SC)","PC_NO":9,"PC_NAME":"GURGAON","district":"REWARI"}},{"type":"Feature","geometry":{"type":"Polygon","coordinates":[[[77.2245,28.2667],[77.183,28.1831],[77.1099,28.0105],[77.0751,27.989],[77.1133,27.9692],[77.296,27.8913],[77.3167,28.0629],[77.3637,28.0591],[77.3154,28.1297],[77.2145,28.1871],[77.2425,28.2416],[77.2245,28.2667]]]},"properties":{"AC_NO":82,"AC_NAME":"Hathin","PC_NO":10,"PC_NAME":"FARIDABAD","district":"PALWAL"}},{"type":"Feature","geometry":{"type":"Polygon","coordinates":[[[77.4748,28.0852],[77.535,28.2075],[77.5044,28.2525],[77.4051,28.1781],[77.2425,28.2416],[77.2145,28.1871],[77.3154,28.1297],[77.3637,28.0591],[77.423,28.0111],[77.5206,28.014],[77.4748,28.0852]]]},"properties":{"AC_NO":84,"AC_NAME":"Palwal","PC_NO":10,"PC_NAME":"FARIDABAD","district":"PALWAL"}},{"type":"Feature","geometry":{"type":"Polygon","coordinates":[[[77.0751,27.989],[77.1099,28.0105],[77.183,28.1831],[77.1082,28.2277],[77.0069,28.1938],[76.9684,28.1387],[76.9362,27.9766],[77.0751,27.989]]]},"properties":{"AC_NO":79,"AC_NAME":"Nuh","PC_NO":9,"PC_NAME":"GURGAON","district":"NUH"}},{"type":"Feature","geometry":{"type":"Polygon","coordinates":[[[76.1872,28.1788],[76.095,28.1463],[75.9873,28.125],[76.0602,28.0899],[76.051,28.0093],[76.1602,27.9946],[76.1897,28.0548],[76.1872,28.1788]]]},"properties":{"AC_NO":70,"AC_NAME":"Narnaul","PC_NO":8,"PC_NAME":"BHIWANI-MAHENDRAGARH","district":"MAHENDRAGARH"}},{"type":"Feature","geometry":{"type":"Polygon","coordinates":[[[75.9873,28.125],[75.9432,28.1003],[75.9831,28.0812],[75.9314,27.9304],[75.9709,27.8522],[76.0749,27.8439],[76.183,27.7977],[76.2255,27.8331],[76.1692,27.9034],[76.1602,27.9946],[76.051,28.0093],[76.0602,28.0899],[75.9873,28.125]]]},"properties":{"AC_NO":71,"AC_NAME":"Nangal Chaudhry","PC_NO":8,"PC_NAME":"BHIWANI-MAHENDRAGARH","district":"MAHENDRAGARH"}},{"type":"Feature","geometry":{"type":"Polygon","coordinates":[[[77.3637,28.0591],[77.3167,28.0629],[77.296,27.8913],[77.3353,27.848],[77.4717,27.8836],[77.5262,27.9273],[77.5206,28.014],[77.423,28.0111],[77.3637,28.0591]]]},"properties":{"AC_NO":83,"AC_NAME":"Hodal (SC)","PC_NO":10,"PC_NAME":"FARIDABAD","district":"PALWAL"}},{"type":"Feature","geometry":{"type":"Polygon","coordinates":[[[77.0751,27.989],[76.9362,27.9766],[76.9414,27.8417],[76.9117,27.7956],[76.9011,27.7664],[76.8985,27.6778],[76.9795,27.6537],[77.0453,27.8129],[77.1203,27.7906],[77.0873,27.9019],[77.1133,27.9692],[77.0751,27.989]]]},"properties":{"AC_NO":80,"AC_NAME":"Ferozepur Jhirka","PC_NO":9,"PC_NAME":"GURGAON","district":"NUH"}},{"type":"Feature","geometry":{"type":"Polygon","coordinates":[[[77.1133,27.9692],[77.0873,27.9019],[77.1203,27.7906],[77.2834,27.8019],[77.3353,27.848],[77.296,27.8913],[77.1133,27.9692]]]},"properties":{"AC_NO":81,"AC_NAME":"Punahana","PC_NO":9,"PC_NAME":"GURGAON","district":"NUH"}}]}