{"type":"FeatureCollection", "features": [
{"type":"Feature","geometry":{"type":"Polygon","coordinates":[[[76.8474,30.7801],[76.8322,30.6688],[76.9256,30.6114],[76.9279,30.5241],[77.0038,30.5674],[77.0301,30.628],[77.0888,30.5736],[77.1345,30.5698],[77.174,30.5996],[77.1664,30.6846],[77.0945,30.7403],[77.0178,30.7433],[77.0128,30.809],[76.9664,30.8109],[76.9231,30.9015],[76.7813,30.8787],[76.8477,30.8347],[76.8474,30.7801]]]},"properties":{"district":"PANCHKULA"}},
{"type":"Feature","geometry":{"type":"MultiPolygon","coordinates":[[[[77.0301,30.628],[77.0038,30.5674],[76.9279,30.5241],[76.8975,30.4379],[76.9417,30.3937],[76.8994,30.36],[76.8816,30.4092],[76.7981,30.4173],[76.6241,30.265],[76.654,30.2032],[76.6429,30.15],[76.7015,30.1936],[76.8169,30.2179],[76.9606,30.1932],[76.987,30.1678],[77.0673,30.1299],[77.1328,30.2313],[77.1609,30.3556],[77.1724,30.4573],[77.2119,30.4977],[77.1345,30.5698],[77.0888,30.5736],[77.0301,30.628]]],[[[76.64,30.0979],[76.637,30.1474],[76.5743,30.1009],[76.64,30.0979]]]]},"properties":{"district":"AMBALA"}},
{"type":"Feature","geometry":{"type":"Polygon","coordinates":[[[77.1609,30.3556],[77.1328,30.2313],[77.0673,30.1299],[77.0671,30.0726],[77.1141,29.9917],[77.226,29.9391],[77.2849,30.0425],[77.3711,30.0852],[77.4269,30.1594],[77.4569,30.1624],[77.5844,30.3095],[77.6042,30.368],[77.4935,30.4108],[77.4443,30.3963],[77.4444,30.4184],[77.3143,30.4474],[77.2119,30.4977],[77.1724,30.4573],[77.1609,30.3556]]]},"properties":{"district":"YAMUNANAGAR"}},
{"type":"Feature","geometry":{"type":"Polygon","coordinates":[[[76.64,30.0979],[76.5743,30.1009],[76.5451,30.0747],[76.4675,30.0989],[76.4211,30.0305],[76.4486,29.9672],[76.4698,29.9125],[76.5531,29.8577],[76.5916,29.9123],[76.6704,29.9427],[76.7527,29.9116],[76.7242,29.881],[76.8798,29.8804],[76.9568,29.9147],[76.9502,29.9287],[76.9837,29.9536],[77.096,29.9506],[77.1141,29.9917],[77.0671,30.0726],[77.0673,30.1299],[76.987,30.1678],[76.9606,30.1932],[76.8169,30.2179],[76.7015,30.1936],[76.6429,30.15],[76.637,30.1474],[76.64,30.0979]]]},"properties":{"district":"KURUKSHETRA"}},
{"type":"Feature","geometry":{"type":"Polygon","coordinates":[[[76.4675,30.0989],[76.4291,30.1507],[76.3228,30.0952],[76.2545,30.1211],[76.2092,29.9879],[76.1713,29.9287],[76.2435,29.8633],[76.2144,29.8423],[76.216,29.7953],[76.1673,29.6893],[76.2415,29.6001],[76.4953,29.5164],[76.5464,29.5965],[76.5218,29.6149],[76.603,29.6282],[76.6781,29.6711],[76.7242,29.881],[76.7527,29.9116],[76.6704,29.9427],[76.5916,29.9123],[76.5531,29.8577],[76.4698,29.9125],[76.4486,29.9672],[76.4211,30.0305],[76.4675,30.0989]]]},"properties":{"district":"KAITHAL"}},
{"type":"Feature","geometry":{"type":"Polygon","coordinates":[[[74.5969,29.6833],[74.575,29.5637],[74.6133,29.537],[74.5846,29.4585],[74.6073,29.3562],[74.6582,29.372],[74.7819,29.3579],[74.8505,29.4036],[74.9383,29.362],[74.9606,29.281],[75.0495,29.2856],[75.0755,29.2295],[75.1201,29.2229],[75.1963,29.2626],[75.2455,29.2506],[75.2324,29.3789],[75.286,29.4223],[75.2845,29.4662],[75.2777,29.5043],[75.3026,29.5601],[75.2373,29.5433],[75.2356,29.6033],[75.1825,29.6307],[75.2096,29.7384],[75.2413,29.7537],[75.1913,29.8409],[75.135,29.8074],[75.0701,29.8774],[74.9946,29.8657],[74.9519,29.9029],[74.9265,29.9505],[74.8558,29.9566],[74.8054,29.992],[74.682,29.9434],[74.6305,29.9051],[74.5312,29.95],[74.5612,29.8706],[74.4847,29.8157],[74.4773,29.7452],[74.6156,29.7515],[74.5969,29.6833]]]},"properties":{"district":"SIRSA"}},
{"type":"Feature","geometry":{"type":"Polygon","coordinates":[[[77.1141,29.9917],[77.096,29.9506],[76.9837,29.9536],[76.9502,29.9287],[76.9568,29.9147],[76.8798,29.8804],[76.7242,29.881],[76.6781,29.6711],[76.603,29.6282],[76.5218,29.6149],[76.5464,29.5965],[76.4953,29.5164],[76.5215,29.4807],[76.5348,29.4565],[76.6547,29.4913],[76.7627,29.4666],[76.8508,29.4749],[76.8581,29.4894],[76.9076,29.4671],[77.075,29.4442],[77.1311,29.4862],[77.0954,29.594],[77.1357,29.6661],[77.1227,29.7429],[77.1638,29.787],[77.226,29.9391],[77.1141,29.9917]]]},"properties":{"district":"KARNAL"}},
{"type":"Feature","geometry":{"type":"Polygon","coordinates":[[[76.2144,29.8423],[76.1453,29.8184],[75.9843,29.7272],[75.9465,29.7299],[75.9327,29.6845],[75.9605,29.5913],[75.9587,29.5664],[75.9398,29.4984],[75.9924,29.4521],[76.0954,29.4039],[76.1867,29.4129],[76.2503,29.3837],[76.2066,29.3168],[76.1864,29.2863],[76.226,29.2192],[76.2816,29.2082],[76.3183,29.1162],[76.3019,29.0858],[76.4631,29.0697],[76.4981,29.1481],[76.489,29.2392],[76.5686,29.2255],[76.5597,29.281],[76.6815,29.2692],[76.6314,29.3138],[76.6519,29.3703],[76.7347,29.3889],[76.7627,29.4666],[76.6547,29.4913],[76.5348,29.4565],[76.5215,29.4807],[76.4953,29.5164],[76.2415,29.6001],[76.1673,29.6893],[76.216,29.7953],[76.2144,29.8423]]]},"properties":{"district":"JIND"}},
{"type":"Feature","geometry":{"type":"Polygon","coordinates":[[[75.9465,29.7299],[75.8698,29.7495],[75.8372,29.7942],[75.7218,29.8134],[75.6982,29.7533],[75.6783,29.7763],[75.5718,29.7434],[75.5616,29.7703],[75.4578,29.7943],[75.3465,29.6951],[75.3026,29.5601],[75.2777,29.5043],[75.2845,29.4662],[75.286,29.4223],[75.2324,29.3789],[75.2455,29.2506],[75.2857,29.2708],[75.3044,29.3203],[75.3968,29.3196],[75.3857,29.3782],[75.4159,29.4134],[75.516,29.3981],[75.5301,29.3621],[75.5994,29.3386],[75.6302,29.4165],[75.7026,29.4243],[75.7283,29.4782],[75.8032,29.5215],[75.9587,29.5664],[75.9605,29.5913],[75.9327,29.6845],[75.9465,29.7299]]]},"properties":{"district":"FATEHABAD"}},
{"type":"Feature","geometry":{"type":"Polygon","coordinates":[[[75.8032,29.5215],[75.7283,29.4782],[75.7026,29.4243],[75.6302,29.4165],[75.5994,29.3386],[75.5301,29.3621],[75.516,29.3981],[75.4159,29.4134],[75.3857,29.3782],[75.3968,29.3196],[75.3044,29.3203],[75.2857,29.2708],[75.3882,29.2608],[75.4136,29.1832],[75.3818,29.169],[75.3914,29.063],[75.442,29.0577],[75.5071,29.0112],[75.5275,28.9755],[75.6012,28.9953],[75.6793,28.9122],[75.7314,28.9051],[75.8341,28.9121],[75.8714,28.9683],[75.9698,29.0528],[76.0357,29.0578],[76.199,29.0352],[76.2262,28.9867],[76.2451,29.0608],[76.3019,29.0858],[76.3183,29.1162],[76.2816,29.2082],[76.226,29.2192],[76.1864,29.2863],[76.2066,29.3168],[76.2503,29.3837],[76.1867,29.4129],[76.0954,29.4039],[75.9924,29.4521],[75.9398,29.4984],[75.9587,29.5664],[75.8032,29.5215]]]},"properties":{"district":"HISAR"}},
{"type":"Feature","geometry":{"type":"Polygon","coordinates":[[[76.8508,29.4749],[76.7627,29.4666],[76.7347,29.3889],[76.6519,29.3703],[76.6314,29.3138],[76.6815,29.2692],[76.7697,29.2798],[76.8102,29.2222],[76.8599,29.1997],[76.9318,29.2135],[76.9742,29.19],[77.1434,29.1672],[77.1394,29.268],[77.1608,29.3121],[77.1311,29.4862],[77.075,29.4442],[76.9076,29.4671],[76.8581,29.4894],[76.8508,29.4749]]]},"properties":{"district":"PANIPAT"}},
{"type":"Feature","geometry":{"type":"Polygon","coordinates":[[[76.489,29.2392],[76.4981,29.1481],[76.5668,29.0592],[76.6366,29.0531],[76.6644,28.9877],[76.7746,28.9492],[76.8186,28.931],[76.8112,28.8661],[76.9007,28.8632],[76.9512,28.8177],[77.0513,28.8549],[77.2249,28.879],[77.2022,28.9881],[77.1521,29.0797],[77.1434,29.1672],[76.9742,29.19],[76.9318,29.2135],[76.8599,29.1997],[76.8102,29.2222],[76.7697,29.2798],[76.6815,29.2692],[76.5597,29.281],[76.5686,29.2255],[76.489,29.2392]]]},"properties":{"district":"SONIPAT"}},
{"type":"Feature","geometry":{"type":"Polygon","coordinates":[[[76.4631,29.0697],[76.3019,29.0858],[76.2451,29.0608],[76.2262,28.9867],[76.2357,28.9115],[76.2887,28.8732],[76.2917,28.807],[76.3843,28.7827],[76.4063,28.6826],[76.4455,28.7363],[76.5312,28.7507],[76.5797,28.7357],[76.604,28.7923],[76.6681,28.8139],[76.7079,28.7691],[76.779,28.7432],[76.8179,28.7841],[76.9007,28.8632],[76.8112,28.8661],[76.8186,28.931],[76.7746,28.9492],[76.6644,28.9877],[76.6366,29.0531],[76.5668,29.0592],[76.4981,29.1481],[76.4631,29.0697]]]},"properties":{"district":"ROHTAK"}},
{"type":"Feature","geometry":{"type":"Polygon","coordinates":[[[76.199,29.0352],[76.0357,29.0578],[75.9698,29.0528],[75.8714,28.9683],[75.8341,28.9121],[75.7314,28.9051],[75.6793,28.9122],[75.6012,28.9953],[75.5275,28.9755],[75.5057,28.9359],[75.5032,28.7825],[75.5369,28.7448],[75.5615,28.6132],[75.6222,28.6017],[75.6658,28.536],[75.7701,28.423],[75.8955,28.3895],[75.9038,28.4319],[75.8848,28.487],[75.8214,28.5111],[75.8578,28.5852],[75.8969,28.6039],[75.9594,28.5985],[76.0278,28.638],[76.0556,28.6307],[76.1305,28.6782],[76.2264,28.6534],[76.2949,28.7813],[76.3843,28.7827],[76.2917,28.807],[76.2887,28.8732],[76.2357,28.9115],[76.2262,28.9867],[76.199,29.0352]]]},"properties":{"district":"BHIWANI"}},
{"type":"Feature","geometry":{"type":"Polygon","coordinates":[[[76.8179,28.7841],[76.779,28.7432],[76.7079,28.7691],[76.6681,28.8139],[76.604,28.7923],[76.5797,28.7357],[76.5312,28.7507],[76.4455,28.7363],[76.4063,28.6826],[76.4645,28.6154],[76.4282,28.5911],[76.346,28.602],[76.3269,28.4958],[76.2853,28.4754],[76.2852,28.4329],[76.2877,28.4283],[76.3427,28.4597],[76.4231,28.4627],[76.4388,28.4249],[76.6313,28.4222],[76.6691,28.3793],[76.7171,28.4376],[76.7932,28.4666],[76.8242,28.5043],[76.8855,28.501],[76.8451,28.5503],[76.8839,28.6248],[76.9246,28.6496],[76.9684,28.6992],[76.9512,28.8177],[76.9007,28.8632],[76.8179,28.7841]]]},"properties":{"district":"JHAJJAR"}},
{"type":"Feature","geometry":{"type":"Polygon","coordinates":[[[76.2949,28.7813],[76.2264,28.6534],[76.1305,28.6782],[76.0556,28.6307],[76.0278,28.638],[75.9594,28.5985],[75.8969,28.6039],[75.8578,28.5852],[75.8214,28.5111],[75.8848,28.487],[75.9038,28.4319],[75.9823,28.445],[76.0207,28.3857],[76.0811,28.3929],[76.1177,28.4536],[76.1651,28.4314],[76.2444,28.4586],[76.2852,28.4329],[76.2853,28.4754],[76.3269,28.4958],[76.346,28.602],[76.4282,28.5911],[76.4645,28.6154],[76.4063,28.6826],[76.3843,28.7827],[76.2949,28.7813]]]},"properties":{"district":"CHARKI DADRI"}},
{"type":"Feature","geometry":{"type":"Polygon","coordinates":[[[76.7932,28.4666],[76.7171,28.4376],[76.6691,28.3793],[76.6653,28.3032],[76.6738,28.2708],[76.7688,28.2401],[76.8472,28.2393],[76.853,28.2206],[76.9684,28.1387],[77.0069,28.1938],[77.1082,28.2277],[77.183,28.1831],[77.2245,28.2667],[77.1978,28.2918],[77.1548,28.324],[77.1736,28.4055],[77.1221,28.445],[77.1114,28.4746],[77.0137,28.5394],[76.954,28.505],[76.8855,28.501],[76.8242,28.5043],[76.7932,28.4666]]]},"properties":{"district":"GURUGRAM"}},
{"type":"Feature","geometry":{"type":"Polygon","coordinates":[[[77.3017,28.4895],[77.2383,28.4757],[77.2059,28.4094],[77.1736,28.4055],[77.1548,28.324],[77.1978,28.2918],[77.2245,28.2667],[77.2425,28.2416],[77.3386,28.2183],[77.4051,28.1781],[77.503,28.2284],[77.5044,28.2525],[77.4723,28.3294],[77.5027,28.3725],[77.4335,28.4545],[77.3453,28.5128],[77.3017,28.4895]]]},"properties":{"district":"FARIDABAD"}},
{"type":"Feature","geometry":{"type":"Polygon","coordinates":[[[75.8955,28.3895],[75.9868,28.2932],[76.095,28.1463],[76.032,28.1679],[75.9873,28.125],[75.9662,27.9821],[75.938,27.9142],[75.9709,27.8522],[76.0485,27.8346],[76.0894,27.8603],[76.183,27.7977],[76.2255,27.8331],[76.1692,27.9034],[76.1869,27.9649],[76.1602,27.9946],[76.1897,28.0548],[76.2586,28.0673],[76.3203,28.0159],[76.3576,28.0705],[76.3111,28.1786],[76.344,28.2293],[76.3516,28.3671],[76.2838,28.4151],[76.2877,28.4283],[76.2852,28.4329],[76.2444,28.4586],[76.1651,28.4314],[76.1177,28.4536],[76.0811,28.3929],[76.0207,28.3857],[75.9823,28.445],[75.9038,28.4319],[75.8955,28.3895]]]},"properties":{"district":"MAHENDRAGARH"}},
{"type":"Feature","geometry":{"type":"Polygon","coordinates":[[[76.2877,28.4283],[76.2838,28.4151],[76.3516,28.3671],[76.344,28.2293],[76.3111,28.1786],[76.4012,28.1448],[76.4589,28.1461],[76.5298,28.0398],[76.5893,27.9973],[76.6679,28.0145],[76.6514,28.0617],[76.7153,28.1278],[76.7954,28.1769],[76.853,28.2206],[76.8472,28.2393],[76.7688,28.2401],[76.6738,28.2708],[76.6653,28.3032],[76.6691,28.3793],[76.6313,28.4222],[76.4388,28.4249],[76.4231,28.4627],[76.3427,28.4597],[76.2877,28.4283]]]},"properties":{"district":"REWARI"}},
{"type":"Feature","geometry":{"type":"Polygon","coordinates":[[[77.183,28.1831],[77.1529,28.1599],[77.1099,28.0105],[77.0751,27.989],[77.1133,27.9692],[77.296,27.8913],[77.3353,27.848],[77.4717,27.8836],[77.4753,27.929],[77.5408,27.9391],[77.5206,28.014],[77.4748,28.0852],[77.535,28.2075],[77.5044,28.2525],[77.503,28.2284],[77.4051,28.1781],[77.3386,28.2183],[77.2425,28.2416],[77.2245,28.2667],[77.183,28.1831]]]},"properties":{"district":"PALWAL"}},
{"type":"Feature","geometry":{"type":"Polygon","coordinates":[[[76.9684,28.1387],[76.9362,27.9766],[76.9414,27.8417],[76.9138,27.8334],[76.8985,27.6778],[76.9795,27.6537],[76.9999,27.7373],[77.045,27.7433],[77.0453,27.8129],[77.1203,27.7906],[77.2226,27.7959],[77.3353,27.848],[77.296,27.8913],[77.1133,27.9692],[77.0751,27.989],[77.1099,28.0105],[77.1529,28.1599],[77.183,28.1831],[77.1082,28.2277],[77.0069,28.1938],[76.9684,28.1387]]]},"properties":{"district":"NUH"}}
]}