{"type":"FeatureCollection","features":[{"type":"Feature","geometry":{"type":"Polygon","coordinates":[[[88.5722,27.5503],[88.5236,27.5035],[88.5567,27.4705],[88.5713,27.507],[88.6691,27.5446],[88.6347,27.5744],[88.5722,27.5503]]]},"properties":{"AC_NO":31,"AC_NAME":"Lachen Mangan(BL)","PC_NO":1,"PC_NAME":"SIKKIM","district":"MANGAN"}},{"type":"Feature","geometry":{"type":"Polygon","coordinates":[[[88.5567,27.4705],[88.5236,27.5035],[88.5722,27.5503],[88.4414,27.5774],[88.496,27.5068],[88.4827,27.4197],[88.4365,27.4013],[88.4829,27.3758],[88.5201,27.4019],[88.5489,27.4331],[88.5567,27.4705]]]},"properties":{"AC_NO":30,"AC_NAME":"Djongu(BL)","PC_NO":1,"PC_NAME":"SIKKIM","district":"MANGAN"}},{"type":"Feature","geometry":{"type":"Polygon","coordinates":[[[88.5489,27.4331],[88.5201,27.4019],[88.541,27.3727],[88.6347,27.3658],[88.6517,27.3903],[88.6482,27.4425],[88.6079,27.4639],[88.5489,27.4331]]]},"properties":{"AC_NO":29,"AC_NAME":"Kabi Lungchuk(BL)","PC_NO":1,"PC_NAME":"SIKKIM","district":"GANGTOK"}},{"type":"Feature","geometry":{"type":"Polygon","coordinates":[[[88.3511,27.4055],[88.2946,27.3244],[88.2942,27.2953],[88.3013,27.237],[88.3221,27.2152],[88.367,27.2265],[88.3498,27.2674],[88.361,27.3056],[88.3773,27.3889],[88.3511,27.4055]]]},"properties":{"AC_NO":9,"AC_NAME":"Barfung(BL)","PC_NO":1,"PC_NAME":"SIKKIM","district":"NAMCHI"}},{"type":"Feature","geometry":{"type":"Polygon","coordinates":[[[88.177,27.361],[88.2752,27.3243],[88.2856,27.2998],[88.2942,27.2953],[88.2946,27.3244],[88.3511,27.4055],[88.2829,27.4003],[88.177,27.361]]]},"properties":{"AC_NO":1,"AC_NAME":"Yoksam-Tashiding(BL)","PC_NO":1,"PC_NAME":"SIKKIM","district":"GYALSHING"}},{"type":"Feature","geometry":{"type":"Polygon","coordinates":[[[88.4829,27.3758],[88.4365,27.4013],[88.4413,27.3535],[88.4761,27.3547],[88.4437,27.2916],[88.4876,27.2788],[88.5401,27.2946],[88.5501,27.3425],[88.541,27.3727],[88.5201,27.4019],[88.4829,27.3758]]]},"properties":{"AC_NO":16,"AC_NAME":"Tumen-Lingi(BL)","PC_NO":1,"PC_NAME":"SIKKIM","district":"GANGTOK"}},{"type":"Feature","geometry":{"type":"Polygon","coordinates":[[[88.6347,27.3658],[88.541,27.3727],[88.5501,27.3425],[88.5985,27.3316],[88.6077,27.3301],[88.6087,27.3307],[88.629,27.3503],[88.6336,27.3622],[88.6347,27.3658]]]},"properties":{"AC_NO":28,"AC_NAME":"Upper Burtuk","PC_NO":1,"PC_NAME":"SIKKIM","district":"GANGTOK"}},{"type":"Feature","geometry":{"type":"Polygon","coordinates":[[[88.6336,27.3622],[88.629,27.3503],[88.6126,27.3278],[88.6041,27.3028],[88.6489,27.3033],[88.6336,27.3622]]]},"properties":{"AC_NO":23,"AC_NAME":"Shyari(BL)","PC_NO":1,"PC_NAME":"SIKKIM","district":"GANGTOK"}},{"type":"Feature","geometry":{"type":"Polygon","coordinates":[[[88.2008,27.3049],[88.1951,27.2656],[88.2856,27.2998],[88.2752,27.3243],[88.177,27.361],[88.2008,27.3049]]]},"properties":{"AC_NO":2,"AC_NAME":"Yangthang","PC_NO":1,"PC_NAME":"SIKKIM","district":"GYALSHING"}},{"type":"Feature","geometry":{"type":"Polygon","coordinates":[[[88.6087,27.3307],[88.6126,27.3278],[88.629,27.3503],[88.6087,27.3307]]]},"properties":{"AC_NO":27,"AC_NAME":"Gangtok(BL)","PC_NO":1,"PC_NAME":"SIKKIM","district":"GANGTOK"}},{"type":"Feature","geometry":{"type":"Polygon","coordinates":[[[88.361,27.3056],[88.3498,27.2674],[88.4404,27.272],[88.4437,27.2916],[88.4761,27.3547],[88.4413,27.3535],[88.3857,27.2939],[88.361,27.3056]]]},"properties":{"AC_NO":15,"AC_NAME":"Rangang-Yangang","PC_NO":1,"PC_NAME":"SIKKIM","district":"NAMCHI"}},{"type":"Feature","geometry":{"type":"Polygon","coordinates":[[[88.4876,27.2788],[88.5201,27.2418],[88.591,27.2676],[88.5875,27.3082],[88.5985,27.3316],[88.5501,27.3425],[88.5401,27.2946],[88.4876,27.2788]]]},"properties":{"AC_NO":24,"AC_NAME":"Martam-Rumtek (BL)","PC_NO":1,"PC_NAME":"SIKKIM","district":"GANGTOK"}},{"type":"Feature","geometry":{"type":"Polygon","coordinates":[[[88.5985,27.3316],[88.5875,27.3082],[88.6025,27.308],[88.6077,27.3301],[88.5985,27.3316]]]},"properties":{"AC_NO":25,"AC_NAME":"Upper Tadong","PC_NO":1,"PC_NAME":"SIKKIM","district":"GANGTOK"}},{"type":"Feature","geometry":{"type":"Polygon","coordinates":[[[88.6077,27.3301],[88.6025,27.308],[88.6041,27.3028],[88.6126,27.3278],[88.6087,27.3307],[88.6077,27.3301]]]},"properties":{"AC_NO":26,"AC_NAME":"Arithang","PC_NO":1,"PC_NAME":"SIKKIM","district":"GANGTOK"}},{"type":"Feature","geometry":{"type":"Polygon","coordinates":[[[88.4437,27.2916],[88.4404,27.272],[88.4919,27.2308],[88.5044,27.2314],[88.5201,27.2418],[88.4876,27.2788],[88.4437,27.2916]]]},"properties":{"AC_NO":17,"AC_NAME":"Khamdong-Singtam","PC_NO":1,"PC_NAME":"SIKKIM","district":"NAMCHI"}},{"type":"Feature","geometry":{"type":"Polygon","coordinates":[[[88.6508,27.2685],[88.6718,27.2979],[88.6489,27.3033],[88.6041,27.3028],[88.6025,27.308],[88.5875,27.3082],[88.591,27.2676],[88.5201,27.2418],[88.5044,27.2314],[88.5572,27.2206],[88.5756,27.2268],[88.6261,27.2475],[88.6508,27.2685]]]},"properties":{"AC_NO":22,"AC_NAME":"Namcheybung","PC_NO":1,"PC_NAME":"SIKKIM","district":"PAKYONG"}},{"type":"Feature","geometry":{"type":"Polygon","coordinates":[[[88.6261,27.2475],[88.5756,27.2268],[88.6439,27.2242],[88.7472,27.2418],[88.6261,27.2475]]]},"properties":{"AC_NO":21,"AC_NAME":"Gnathang-Machong(BL)","PC_NO":1,"PC_NAME":"SIKKIM","district":"PAKYONG"}},{"type":"Feature","geometry":{"type":"Polygon","coordinates":[[[88.1629,27.2329],[88.1951,27.2656],[88.2008,27.3049],[88.0598,27.2796],[88.1119,27.2356],[88.1629,27.2329]]]},"properties":{"AC_NO":3,"AC_NAME":"Maneybung-Dentam","PC_NO":1,"PC_NAME":"SIKKIM","district":"GYALSHING"}},{"type":"Feature","geometry":{"type":"Polygon","coordinates":[[[88.2303,27.2365],[88.3013,27.237],[88.2942,27.2953],[88.2856,27.2998],[88.1951,27.2656],[88.1629,27.2329],[88.2303,27.2365]]]},"properties":{"AC_NO":4,"AC_NAME":"Gyalshing-Barnyak","PC_NO":1,"PC_NAME":"SIKKIM","district":"GYALSHING"}},{"type":"Feature","geometry":{"type":"Polygon","coordinates":[[[88.367,27.2265],[88.4133,27.1947],[88.4135,27.1946],[88.4653,27.2056],[88.4773,27.1933],[88.488,27.2004],[88.4919,27.2308],[88.4404,27.272],[88.3498,27.2674],[88.367,27.2265]]]},"properties":{"AC_NO":14,"AC_NAME":"Temi-Namphing","PC_NO":1,"PC_NAME":"SIKKIM","district":"NAMCHI"}},{"type":"Feature","geometry":{"type":"Polygon","coordinates":[[[88.7132,27.1621],[88.7141,27.1616],[88.7635,27.1804],[88.7472,27.2418],[88.6439,27.2242],[88.6622,27.1612],[88.6624,27.1613],[88.7132,27.1621]]]},"properties":{"AC_NO":20,"AC_NAME":"Chujachen","PC_NO":1,"PC_NAME":"SIKKIM","district":"PAKYONG"}},{"type":"Feature","geometry":{"type":"Polygon","coordinates":[[[88.2491,27.1856],[88.2721,27.1669],[88.3125,27.1811],[88.3221,27.2152],[88.3013,27.237],[88.2303,27.2365],[88.2491,27.1856]]]},"properties":{"AC_NO":5,"AC_NAME":"Rinchenpong(BL)","PC_NO":1,"PC_NAME":"SIKKIM","district":"SORENG"}},{"type":"Feature","geometry":{"type":"Polygon","coordinates":[[[88.6619,27.161],[88.6622,27.1612],[88.6439,27.2242],[88.5756,27.2268],[88.5572,27.2206],[88.5539,27.184],[88.6619,27.161]]]},"properties":{"AC_NO":19,"AC_NAME":"Rhenock","PC_NO":1,"PC_NAME":"SIKKIM","district":"PAKYONG"}},{"type":"Feature","geometry":{"type":"Polygon","coordinates":[[[88.553,27.1835],[88.5539,27.184],[88.5572,27.2206],[88.5044,27.2314],[88.4919,27.2308],[88.488,27.2004],[88.5336,27.1754],[88.5338,27.1757],[88.553,27.1835]]]},"properties":{"AC_NO":18,"AC_NAME":"West Pendam(SC)","PC_NO":1,"PC_NAME":"SIKKIM","district":"PAKYONG"}},{"type":"Feature","geometry":{"type":"Polygon","coordinates":[[[88.3238,27.1104],[88.3467,27.1056],[88.347,27.1051],[88.3492,27.1266],[88.3766,27.1902],[88.3889,27.1852],[88.3857,27.1974],[88.4133,27.1947],[88.367,27.2265],[88.3221,27.2152],[88.3125,27.1811],[88.2886,27.1503],[88.3153,27.1263],[88.3155,27.1263],[88.3238,27.1104]]]},"properties":{"AC_NO":10,"AC_NAME":"Poklok-Kamrang","PC_NO":1,"PC_NAME":"SIKKIM","district":"NAMCHI"}},{"type":"Feature","geometry":{"type":"Polygon","coordinates":[[[88.4653,27.2056],[88.4135,27.1946],[88.4157,27.1617],[88.4684,27.1154],[88.4688,27.1158],[88.5334,27.1749],[88.5336,27.1754],[88.488,27.2004],[88.4773,27.1933],[88.4653,27.2056]]]},"properties":{"AC_NO":13,"AC_NAME":"Namthang-Rateypani","PC_NO":1,"PC_NAME":"SIKKIM","district":"NAMCHI"}},{"type":"Feature","geometry":{"type":"Polygon","coordinates":[[[88.4133,27.1947],[88.3857,27.1974],[88.3889,27.1852],[88.3766,27.1902],[88.3492,27.1266],[88.3568,27.1257],[88.3737,27.1188],[88.4157,27.1617],[88.4135,27.1946],[88.4133,27.1947]]]},"properties":{"AC_NO":11,"AC_NAME":"Namchi-Singhithang","PC_NO":1,"PC_NAME":"SIKKIM","district":"NAMCHI"}},{"type":"Feature","geometry":{"type":"Polygon","coordinates":[[[88.2721,27.1669],[88.2775,27.1378],[88.2792,27.1322],[88.3153,27.1263],[88.2886,27.1503],[88.3125,27.1811],[88.2721,27.1669]]]},"properties":{"AC_NO":8,"AC_NAME":"Salghari-Zoom (SC)","PC_NO":1,"PC_NAME":"SIKKIM","district":"SORENG"}},{"type":"Feature","geometry":{"type":"Polygon","coordinates":[[[88.2792,27.1322],[88.2775,27.1378],[88.2721,27.1669],[88.2491,27.1856],[88.1832,27.1698],[88.1811,27.1332],[88.1812,27.1333],[88.2792,27.1322]]]},"properties":{"AC_NO":7,"AC_NAME":"Soreong-Chakung","PC_NO":1,"PC_NAME":"SIKKIM","district":"SORENG"}},{"type":"Feature","geometry":{"type":"Polygon","coordinates":[[[88.1806,27.1329],[88.1811,27.1332],[88.1832,27.1698],[88.1578,27.1789],[88.1247,27.1525],[88.0767,27.1946],[88.0763,27.1945],[88.0965,27.1331],[88.1524,27.1101],[88.1806,27.1329]]]},"properties":{"AC_NO":6,"AC_NAME":"Daramdin(BL)","PC_NO":1,"PC_NAME":"SIKKIM","district":"SORENG"}},{"type":"Feature","geometry":{"type":"Polygon","coordinates":[[[88.4683,27.1152],[88.4684,27.1154],[88.4157,27.1617],[88.3737,27.1188],[88.3568,27.1257],[88.3492,27.1266],[88.347,27.1051],[88.3471,27.1049],[88.4358,27.0807],[88.4683,27.1152]]]},"properties":{"AC_NO":12,"AC_NAME":"Melli","PC_NO":1,"PC_NAME":"SIKKIM","district":"NAMCHI"}}]}