{"type":"FeatureCollection", "features": [
{"type":"Feature","geometry":{"type":"Polygon","coordinates":[[[88.5722,27.5503],[88.4414,27.5774],[88.496,27.5068],[88.4827,27.4197],[88.4365,27.4013],[88.4829,27.3758],[88.5201,27.4019],[88.5489,27.4331],[88.5567,27.4705],[88.5713,27.507],[88.6691,27.5446],[88.6347,27.5744],[88.5722,27.5503]]]},"properties":{"district":"MANGAN"}},
{"type":"Feature","geometry":{"type":"Polygon","coordinates":[[[88.5201,27.4019],[88.4829,27.3758],[88.4365,27.4013],[88.4413,27.3535],[88.4437,27.2916],[88.4876,27.2788],[88.5201,27.2418],[88.591,27.2676],[88.5875,27.3082],[88.6025,27.308],[88.6041,27.3028],[88.6489,27.3033],[88.6336,27.3622],[88.6347,27.3658],[88.6482,27.4425],[88.6079,27.4639],[88.5489,27.4331],[88.5201,27.4019]]]},"properties":{"district":"GANGTOK"}},
{"type":"Feature","geometry":{"type":"Polygon","coordinates":[[[88.3511,27.4055],[88.2946,27.3244],[88.2942,27.2953],[88.3013,27.237],[88.3221,27.2152],[88.3125,27.1811],[88.3153,27.1263],[88.347,27.1051],[88.4358,27.0807],[88.4684,27.1154],[88.5336,27.1754],[88.488,27.2004],[88.4919,27.2308],[88.5044,27.2314],[88.5201,27.2418],[88.4876,27.2788],[88.4437,27.2916],[88.4413,27.3535],[88.3857,27.2939],[88.361,27.3056],[88.3472,27.331],[88.3773,27.3889],[88.3511,27.4055]]]},"properties":{"district":"NAMCHI"}},
{"type":"Feature","geometry":{"type":"Polygon","coordinates":[[[88.3511,27.4055],[88.3047,27.4126],[88.2833,27.3667],[88.177,27.361],[88.2008,27.3049],[88.0598,27.2796],[88.1119,27.2356],[88.1629,27.2329],[88.2303,27.2365],[88.3013,27.237],[88.2942,27.2953],[88.2946,27.3244],[88.3511,27.4055]]]},"properties":{"district":"GYALSHING"}},
{"type":"Feature","geometry":{"type":"Polygon","coordinates":[[[88.6041,27.3028],[88.6025,27.308],[88.5875,27.3082],[88.591,27.2676],[88.5201,27.2418],[88.5044,27.2314],[88.4919,27.2308],[88.488,27.2004],[88.5336,27.1754],[88.5539,27.184],[88.586,27.1904],[88.6622,27.1612],[88.7477,27.1718],[88.7963,27.2206],[88.7472,27.2418],[88.7096,27.2929],[88.6766,27.2531],[88.6261,27.2475],[88.6508,27.2685],[88.6718,27.2979],[88.6489,27.3033],[88.6041,27.3028]]]},"properties":{"district":"PAKYONG"}},
{"type":"Feature","geometry":{"type":"Polygon","coordinates":[[[88.3013,27.237],[88.2303,27.2365],[88.2491,27.1856],[88.1832,27.1698],[88.1313,27.1987],[88.1247,27.1525],[88.1811,27.1332],[88.2792,27.1322],[88.3153,27.1263],[88.3125,27.1811],[88.3221,27.2152],[88.3013,27.237]]]},"properties":{"district":"SORENG"}}
]}