{"type":"FeatureCollection","features":[{"type":"Feature","geometry":{"type":"Polygon","coordinates":[[[91.8198,26.116],[91.7314,26.0596],[91.7203,25.9539],[91.5709,26.0256],[91.5177,25.9497],[91.4779,25.8581],[91.3819,25.8456],[91.3422,25.8366],[91.4708,25.7903],[91.6105,25.8096],[91.7702,25.8088],[91.7895,25.8196],[91.7749,25.9673],[91.8983,26.0234],[91.8198,26.116]]]},"properties":{"AC_NO":10,"AC_NAME":"Jirang (ST)","PC_NO":1,"PC_NAME":"SHILLONG (ST)","district":"RI-BHOI"}},{"type":"Feature","geometry":{"type":"Polygon","coordinates":[[[92.2735,26.0659],[92.1755,26.0778],[92.1279,26.0456],[92.0705,25.8908],[92.0003,25.8613],[91.9081,25.8046],[91.9979,25.717],[92.0649,25.7754],[92.1539,25.7074],[92.1774,25.8729],[92.1647,25.9709],[92.2735,26.0659]]]},"properties":{"AC_NO":8,"AC_NAME":"Mawhati (ST)","PC_NO":1,"PC_NAME":"SHILLONG (ST)","district":"RI-BHOI"}},{"type":"Feature","geometry":{"type":"Polygon","coordinates":[[[92.1279,26.0456],[91.8983,26.0234],[91.7749,25.9673],[91.7895,25.8196],[91.9539,25.9029],[92.0003,25.8613],[92.0705,25.8908],[92.1279,26.0456]]]},"properties":{"AC_NO":9,"AC_NAME":"Nongpoh (ST)","PC_NO":1,"PC_NAME":"SHILLONG (ST)","district":"RI-BHOI"}},{"type":"Feature","geometry":{"type":"Polygon","coordinates":[[[90.4772,26.013],[90.3328,25.987],[90.2129,25.9527],[90.1191,25.9581],[90.1128,25.9541],[90.1916,25.9068],[90.4228,25.9532],[90.3394,25.8076],[90.4025,25.761],[90.4891,25.777],[90.5137,25.8973],[90.5337,25.9596],[90.4772,26.013]]]},"properties":{"AC_NO":40,"AC_NAME":"Bajengdoba (ST)","PC_NO":2,"PC_NAME":"TURA (ST)","district":"NORTH G>RO HILLS"}},{"type":"Feature","geometry":{"type":"Polygon","coordinates":[[[91.7895,25.8196],[91.7702,25.8088],[91.8285,25.6739],[91.8341,25.6441],[91.9059,25.646],[91.9979,25.717],[91.9081,25.8046],[92.0003,25.8613],[91.9539,25.9029],[91.7895,25.8196]]]},"properties":{"AC_NO":11,"AC_NAME":"Umsning (ST)","PC_NO":1,"PC_NAME":"SHILLONG (ST)","district":"RI-BHOI"}},{"type":"Feature","geometry":{"type":"Polygon","coordinates":[[[91.0303,25.886],[90.9567,25.9363],[90.795,25.9392],[90.7881,25.7707],[90.8852,25.7233],[90.9686,25.7263],[91.0013,25.8249],[91.0303,25.886]]]},"properties":{"AC_NO":37,"AC_NAME":"Kharkutta (ST)","PC_NO":2,"PC_NAME":"TURA (ST)","district":"NORTH G>RO HILLS"}},{"type":"Feature","geometry":{"type":"Polygon","coordinates":[[[90.795,25.9392],[90.7177,25.9551],[90.6238,25.898],[90.7132,25.7828],[90.7881,25.7707],[90.795,25.9392]]]},"properties":{"AC_NO":38,"AC_NAME":"Mendipathar (ST)","PC_NO":2,"PC_NAME":"TURA (ST)","district":"NORTH G>RO HILLS"}},{"type":"Feature","geometry":{"type":"Polygon","coordinates":[[[90.6006,25.9516],[90.5137,25.8973],[90.4891,25.777],[90.7001,25.7817],[90.7132,25.7828],[90.6238,25.898],[90.6006,25.9516]]]},"properties":{"AC_NO":39,"AC_NAME":"Resubelpara (ST)","PC_NO":2,"PC_NAME":"TURA (ST)","district":"NORTH G>RO HILLS"}},{"type":"Feature","geometry":{"type":"Polygon","coordinates":[[[90.3394,25.8076],[90.4228,25.9532],[90.1916,25.9068],[90.244,25.9024],[90.2971,25.8066],[90.3394,25.8076]]]},"properties":{"AC_NO":44,"AC_NAME":"Raksamgre (ST)","PC_NO":2,"PC_NAME":"TURA (ST)","district":"WEST G>RO HILLS"}},{"type":"Feature","geometry":{"type":"Polygon","coordinates":[[[90.1128,25.9541],[90.0625,25.9109],[90.2185,25.7932],[90.2971,25.8066],[90.244,25.9024],[90.1916,25.9068],[90.1128,25.9541]]]},"properties":{"AC_NO":45,"AC_NAME":"Tikrikila (ST)","PC_NO":2,"PC_NAME":"TURA (ST)","district":"WEST G>RO HILLS"}},{"type":"Feature","geometry":{"type":"Polygon","coordinates":[[[91.6105,25.8096],[91.5749,25.7181],[91.6718,25.665],[91.6482,25.5508],[91.6585,25.5281],[91.7998,25.6096],[91.8285,25.6739],[91.7702,25.8088],[91.6105,25.8096]]]},"properties":{"AC_NO":30,"AC_NAME":"Mairang (ST)","PC_NO":1,"PC_NAME":"SHILLONG (ST)","district":"EASTERN WEST KHASI HILLS"}},{"type":"Feature","geometry":{"type":"Polygon","coordinates":[[[91.2572,25.748],[91.178,25.778],[91.204,25.8436],[91.0013,25.8249],[90.9686,25.7263],[90.9594,25.7144],[91.0724,25.7212],[91.227,25.6764],[91.2586,25.5966],[91.3469,25.5696],[91.4337,25.6089],[91.5071,25.6938],[91.4708,25.7903],[91.3422,25.8366],[91.2572,25.748]]]},"properties":{"AC_NO":33,"AC_NAME":"Rambrai Jyrngam (ST","PC_NO":1,"PC_NAME":"SHILLONG (ST)","district":"WEST KHASI HILLS"}},{"type":"Feature","geometry":{"type":"Polygon","coordinates":[[[90.0235,25.8687],[90.0753,25.7609],[90.1185,25.7024],[90.2185,25.7932],[90.0625,25.9109],[90.0235,25.8687]]]},"properties":{"AC_NO":46,"AC_NAME":"Phulbari","PC_NO":2,"PC_NAME":"TURA (ST)","district":"WEST G>RO HILLS"}},{"type":"Feature","geometry":{"type":"Polygon","coordinates":[[[92.1539,25.7074],[92.0649,25.7754],[91.9979,25.717],[91.9059,25.646],[91.9569,25.6467],[92.1326,25.6412],[92.1562,25.6723],[92.1539,25.7074]]]},"properties":{"AC_NO":12,"AC_NAME":"Umroi (ST)","PC_NO":1,"PC_NAME":"SHILLONG (ST)","district":"RI-BHOI"}},{"type":"Feature","geometry":{"type":"Polygon","coordinates":[[[91.4708,25.7903],[91.5071,25.6938],[91.4337,25.6089],[91.4768,25.4783],[91.5466,25.4929],[91.6227,25.5382],[91.6482,25.5508],[91.6718,25.665],[91.5749,25.7181],[91.6105,25.8096],[91.4708,25.7903]]]},"properties":{"AC_NO":31,"AC_NAME":"Mawthadraishan (ST)","PC_NO":1,"PC_NAME":"SHILLONG (ST)","district":"EASTERN WEST KHASI HILLS"}},{"type":"Feature","geometry":{"type":"Polygon","coordinates":[[[92.4855,25.6466],[92.4308,25.7324],[92.3686,25.747],[92.1562,25.6723],[92.1326,25.6412],[92.1004,25.5173],[92.0987,25.5029],[92.1945,25.5587],[92.3295,25.6233],[92.4176,25.617],[92.4855,25.6466]]]},"properties":{"AC_NO":1,"AC_NAME":"Nartiang (ST)","PC_NO":1,"PC_NAME":"SHILLONG (ST)","district":"WEST JAINTIA HILLS"}},{"type":"Feature","geometry":{"type":"Polygon","coordinates":[[[90.0235,25.8687],[89.9592,25.7833],[89.9515,25.763],[90.0753,25.7609],[90.0235,25.8687]]]},"properties":{"AC_NO":47,"AC_NAME":"Rajabala","PC_NO":2,"PC_NAME":"TURA (ST)","district":"WEST G>RO HILLS"}},{"type":"Feature","geometry":{"type":"Polygon","coordinates":[[[90.9594,25.7144],[90.8717,25.6041],[90.7694,25.568],[90.7632,25.5534],[90.7897,25.4858],[90.7637,25.3675],[90.8604,25.2936],[91.0107,25.2987],[91.1759,25.3494],[91.1826,25.4242],[91.2508,25.4398],[91.2028,25.5216],[91.0898,25.5345],[91.227,25.6764],[91.0724,25.7212],[90.9594,25.7144]]]},"properties":{"AC_NO":34,"AC_NAME":"Mawshynrut (ST)","PC_NO":1,"PC_NAME":"SHILLONG (ST)","district":"WEST KHASI HILLS"}},{"type":"Feature","geometry":{"type":"Polygon","coordinates":[[[90.4891,25.777],[90.4025,25.761],[90.3849,25.5967],[90.5759,25.536],[90.7046,25.5666],[90.7428,25.5426],[90.7632,25.5534],[90.7694,25.568],[90.7572,25.6798],[90.7001,25.7817],[90.4891,25.777]]]},"properties":{"AC_NO":41,"AC_NAME":"Songsak (ST)","PC_NO":2,"PC_NAME":"TURA (ST)","district":"EAST G>RO HILLS"}},{"type":"Feature","geometry":{"type":"Polygon","coordinates":[[[90.2971,25.8066],[90.2185,25.7932],[90.1185,25.7024],[90.1139,25.6288],[90.3473,25.5132],[90.3849,25.5967],[90.4025,25.761],[90.3394,25.8076],[90.2971,25.8066]]]},"properties":{"AC_NO":49,"AC_NAME":"Dadenggre (ST)","PC_NO":2,"PC_NAME":"TURA (ST)","district":"WEST G>RO HILLS"}},{"type":"Feature","geometry":{"type":"Polygon","coordinates":[[[90.7132,25.7828],[90.7001,25.7817],[90.7572,25.6798],[90.7694,25.568],[90.8717,25.6041],[90.9594,25.7144],[90.9686,25.7263],[90.8852,25.7233],[90.7881,25.7707],[90.7132,25.7828]]]},"properties":{"AC_NO":42,"AC_NAME":"Rongjeng (ST)","PC_NO":2,"PC_NAME":"TURA (ST)","district":"EAST G>RO HILLS"}},{"type":"Feature","geometry":{"type":"Polygon","coordinates":[[[91.8341,25.6441],[91.8285,25.6739],[91.7998,25.6096],[91.6585,25.5281],[91.698,25.4736],[91.7959,25.5688],[91.8291,25.6011],[91.8341,25.6441]]]},"properties":{"AC_NO":23,"AC_NAME":"Sohing (ST)","PC_NO":1,"PC_NAME":"SHILLONG (ST)","district":"EAST KH>SI HILLS"}},{"type":"Feature","geometry":{"type":"Polygon","coordinates":[[[92.1326,25.6412],[91.9569,25.6467],[91.9315,25.6423],[91.928,25.6071],[91.9288,25.5848],[91.9351,25.5574],[91.9507,25.5457],[92.1004,25.5173],[92.1326,25.6412]]]},"properties":{"AC_NO":13,"AC_NAME":"Mawryngkneng(ST)","PC_NO":1,"PC_NAME":"SHILLONG (ST)","district":"EAST KH>SI HILLS"}},{"type":"Feature","geometry":{"type":"Polygon","coordinates":[[[89.9515,25.763],[89.8959,25.7302],[90.0283,25.6052],[90.0935,25.5974],[90.1139,25.6288],[90.1185,25.7024],[90.0753,25.7609],[89.9515,25.763]]]},"properties":{"AC_NO":48,"AC_NAME":"Selsella (ST)","PC_NO":2,"PC_NAME":"TURA (ST)","district":"WEST G>RO HILLS"}},{"type":"Feature","geometry":{"type":"Polygon","coordinates":[[[92.4176,25.617],[92.3295,25.6233],[92.1945,25.5587],[92.2796,25.5317],[92.3113,25.4404],[92.4554,25.4576],[92.4842,25.4539],[92.4176,25.617]]]},"properties":{"AC_NO":3,"AC_NAME":"Raliang (ST)","PC_NO":1,"PC_NAME":"SHILLONG (ST)","district":"WEST JAINTIA HILLS"}},{"type":"Feature","geometry":{"type":"Polygon","coordinates":[[[91.9569,25.6467],[91.9059,25.646],[91.8341,25.6441],[91.8291,25.6011],[91.8424,25.5903],[91.8653,25.5999],[91.9058,25.6151],[91.9315,25.6423],[91.9569,25.6467]]]},"properties":{"AC_NO":15,"AC_NAME":"Mawlai (ST)","PC_NO":1,"PC_NAME":"SHILLONG (ST)","district":"EAST KH>SI HILLS"}},{"type":"Feature","geometry":{"type":"Polygon","coordinates":[[[91.9058,25.6151],[91.9169,25.6129],[91.928,25.6071],[91.9315,25.6423],[91.9058,25.6151]]]},"properties":{"AC_NO":14,"AC_NAME":"Pynthorumkhrah","PC_NO":1,"PC_NAME":"SHILLONG (ST)","district":"EAST KH>SI HILLS"}},{"type":"Feature","geometry":{"type":"Polygon","coordinates":[[[91.227,25.6764],[91.0898,25.5345],[91.2028,25.5216],[91.2508,25.4398],[91.2912,25.4396],[91.4768,25.4783],[91.4337,25.6089],[91.3469,25.5696],[91.2586,25.5966],[91.227,25.6764]]]},"properties":{"AC_NO":32,"AC_NAME":"Nongstoin (ST)","PC_NO":1,"PC_NAME":"SHILLONG (ST)","district":"WEST KHASI HILLS"}},{"type":"Feature","geometry":{"type":"Polygon","coordinates":[[[91.9169,25.6129],[91.9058,25.6151],[91.8653,25.5999],[91.8809,25.5919],[91.8949,25.5954],[91.9169,25.6129]]]},"properties":{"AC_NO":17,"AC_NAME":"North Shillong (ST)","PC_NO":1,"PC_NAME":"SHILLONG (ST)","district":"EAST KH>SI HILLS"}},{"type":"Feature","geometry":{"type":"Polygon","coordinates":[[[91.928,25.6071],[91.9169,25.6129],[91.8949,25.5954],[91.9155,25.5714],[91.9288,25.5848],[91.928,25.6071]]]},"properties":{"AC_NO":16,"AC_NAME":"East Shillong (ST)","PC_NO":1,"PC_NAME":"SHILLONG (ST)","district":"EAST KH>SI HILLS"}},{"type":"Feature","geometry":{"type":"Polygon","coordinates":[[[91.8653,25.5999],[91.8424,25.5903],[91.8523,25.5636],[91.8809,25.5919],[91.8653,25.5999]]]},"properties":{"AC_NO":18,"AC_NAME":"West Shillong","PC_NO":1,"PC_NAME":"SHILLONG (ST)","district":"EAST KH>SI HILLS"}},{"type":"Feature","geometry":{"type":"Polygon","coordinates":[[[91.8424,25.5903],[91.8291,25.6011],[91.7959,25.5688],[91.7812,25.4558],[91.8692,25.4708],[91.8553,25.5539],[91.8523,25.5636],[91.8424,25.5903]]]},"properties":{"AC_NO":20,"AC_NAME":"Mylliem (ST)","PC_NO":1,"PC_NAME":"SHILLONG (ST)","district":"EAST KH>SI HILLS"}},{"type":"Feature","geometry":{"type":"Polygon","coordinates":[[[91.8809,25.5919],[91.8523,25.5636],[91.8553,25.5539],[91.8688,25.553],[91.9155,25.5714],[91.8949,25.5954],[91.8809,25.5919]]]},"properties":{"AC_NO":19,"AC_NAME":"South Shillong","PC_NO":1,"PC_NAME":"SHILLONG (ST)","district":"EAST KH>SI HILLS"}},{"type":"Feature","geometry":{"type":"Polygon","coordinates":[[[91.9155,25.5714],[91.8688,25.553],[91.9351,25.5574],[91.9288,25.5848],[91.9155,25.5714]]]},"properties":{"AC_NO":21,"AC_NAME":"Nongthymmai (ST)","PC_NO":1,"PC_NAME":"SHILLONG (ST)","district":"EAST KH>SI HILLS"}},{"type":"Feature","geometry":{"type":"Polygon","coordinates":[[[92.1945,25.5587],[92.0987,25.5029],[92.1021,25.4451],[92.2799,25.4335],[92.3113,25.4404],[92.2796,25.5317],[92.1945,25.5587]]]},"properties":{"AC_NO":2,"AC_NAME":"Jowai (ST)","PC_NO":1,"PC_NAME":"SHILLONG (ST)","district":"WEST JAINTIA HILLS"}},{"type":"Feature","geometry":{"type":"Polygon","coordinates":[[[91.6482,25.5508],[91.6227,25.5382],[91.6118,25.4205],[91.6612,25.3763],[91.7812,25.4558],[91.7959,25.5688],[91.698,25.4736],[91.6585,25.5281],[91.6482,25.5508]]]},"properties":{"AC_NO":24,"AC_NAME":"Mawphlang (ST)","PC_NO":1,"PC_NAME":"SHILLONG (ST)","district":"EAST KH>SI HILLS"}},{"type":"Feature","geometry":{"type":"Polygon","coordinates":[[[91.8688,25.553],[91.8553,25.5539],[91.8692,25.4708],[91.8936,25.479],[91.9507,25.5457],[91.9351,25.5574],[91.8688,25.553]]]},"properties":{"AC_NO":22,"AC_NAME":"Nongkrem (ST)","PC_NO":1,"PC_NAME":"SHILLONG (ST)","district":"EAST KH>SI HILLS"}},{"type":"Feature","geometry":{"type":"Polygon","coordinates":[[[91.9507,25.5457],[91.8936,25.479],[91.8938,25.4305],[91.8986,25.3801],[92.0035,25.2991],[92.1009,25.3056],[92.1021,25.4451],[92.0987,25.5029],[92.1004,25.5173],[91.9507,25.5457]]]},"properties":{"AC_NO":29,"AC_NAME":"Mawkynrew (ST)","PC_NO":1,"PC_NAME":"SHILLONG (ST)","district":"EAST KH>SI HILLS"}},{"type":"Feature","geometry":{"type":"Polygon","coordinates":[[[90.0935,25.5974],[90.1747,25.4922],[90.2163,25.493],[90.2379,25.512],[90.2597,25.49],[90.3211,25.4772],[90.3473,25.5132],[90.1139,25.6288],[90.0935,25.5974]]]},"properties":{"AC_NO":50,"AC_NAME":"North Tura (ST)","PC_NO":2,"PC_NAME":"TURA (ST)","district":"WEST G>RO HILLS"}},{"type":"Feature","geometry":{"type":"Polygon","coordinates":[[[91.6227,25.5382],[91.5466,25.4929],[91.525,25.3444],[91.5436,25.2795],[91.4382,25.273],[91.3543,25.2342],[91.3881,25.1703],[91.4931,25.1347],[91.6029,25.1737],[91.6608,25.1294],[91.6219,25.162],[91.6559,25.3545],[91.6612,25.3763],[91.6118,25.4205],[91.6227,25.5382]]]},"properties":{"AC_NO":25,"AC_NAME":"Mawsynram (ST)","PC_NO":1,"PC_NAME":"SHILLONG (ST)","district":"EAST KH>SI HILLS"}},{"type":"Feature","geometry":{"type":"Polygon","coordinates":[[[92.4554,25.4576],[92.4161,25.3103],[92.3458,25.2423],[92.2077,25.2318],[92.1918,25.1347],[92.2293,25.0972],[92.4222,25.0301],[92.4817,25.1065],[92.5393,25.0988],[92.7428,25.2067],[92.7818,25.3331],[92.5724,25.4657],[92.4842,25.4539],[92.4554,25.4576]]]},"properties":{"AC_NO":5,"AC_NAME":"Sutnga-Saipung (ST)","PC_NO":1,"PC_NAME":"SHILLONG (ST)","district":"EAST JAINTIA HILLS"}},{"type":"Feature","geometry":{"type":"Polygon","coordinates":[[[90.7428,25.5426],[90.7046,25.5666],[90.5759,25.536],[90.3849,25.5967],[90.3473,25.5132],[90.3211,25.4772],[90.3194,25.4644],[90.442,25.4607],[90.6187,25.4218],[90.7428,25.5426]]]},"properties":{"AC_NO":43,"AC_NAME":"William Nagar (ST)","PC_NO":2,"PC_NAME":"TURA (ST)","district":"EAST G>RO HILLS"}},{"type":"Feature","geometry":{"type":"Polygon","coordinates":[[[90.0283,25.6052],[89.9746,25.5752],[89.9943,25.5094],[90.0892,25.4658],[90.1747,25.4922],[90.0935,25.5974],[90.0283,25.6052]]]},"properties":{"AC_NO":52,"AC_NAME":"Rangsakona (ST)","PC_NO":2,"PC_NAME":"TURA (ST)","district":"SOUTH WEST G>RO HILLS"}},{"type":"Feature","geometry":{"type":"Polygon","coordinates":[[[92.3113,25.4404],[92.2799,25.4335],[92.1699,25.3391],[92.2077,25.2318],[92.3458,25.2423],[92.4161,25.3103],[92.4554,25.4576],[92.3113,25.4404]]]},"properties":{"AC_NO":6,"AC_NAME":"Khliehriat (ST)","PC_NO":1,"PC_NAME":"SHILLONG (ST)","district":"EAST JAINTIA HILLS"}},{"type":"Feature","geometry":{"type":"Polygon","coordinates":[[[90.7632,25.5534],[90.7428,25.5426],[90.6187,25.4218],[90.6172,25.3346],[90.6369,25.1783],[90.6935,25.1598],[90.9696,25.1726],[90.9536,25.2556],[90.8604,25.2936],[90.7637,25.3675],[90.7897,25.4858],[90.7632,25.5534]]]},"properties":{"AC_NO":58,"AC_NAME":"Rongara-Siju (ST)","PC_NO":2,"PC_NAME":"TURA (ST)","district":"SOUTH G>RO HILLS"}},{"type":"Feature","geometry":{"type":"Polygon","coordinates":[[[91.8936,25.479],[91.8692,25.4708],[91.7812,25.4558],[91.6612,25.3763],[91.6559,25.3545],[91.7816,25.2998],[91.8113,25.3426],[91.8938,25.4305],[91.8936,25.479]]]},"properties":{"AC_NO":28,"AC_NAME":"Sohra (ST)","PC_NO":1,"PC_NAME":"SHILLONG (ST)","district":"EAST KH>SI HILLS"}},{"type":"Feature","geometry":{"type":"Polygon","coordinates":[[[91.5466,25.4929],[91.4768,25.4783],[91.2912,25.4396],[91.2954,25.3367],[91.4138,25.3548],[91.4382,25.273],[91.5436,25.2795],[91.525,25.3444],[91.5466,25.4929]]]},"properties":{"AC_NO":36,"AC_NAME":"Mawkyrwat (ST)","PC_NO":1,"PC_NAME":"SHILLONG (ST)","district":"SOUTH WEST KH>SI HILLS"}},{"type":"Feature","geometry":{"type":"Polygon","coordinates":[[[92.1021,25.4451],[92.1009,25.3056],[92.0035,25.2991],[92.0161,25.1877],[92.1918,25.1347],[92.2077,25.2318],[92.1699,25.3391],[92.2799,25.4335],[92.1021,25.4451]]]},"properties":{"AC_NO":7,"AC_NAME":"Amlarem (ST)","PC_NO":1,"PC_NAME":"SHILLONG (ST)","district":"WEST JAINTIA HILLS"}},{"type":"Feature","geometry":{"type":"Polygon","coordinates":[[[89.9746,25.5752],[89.8815,25.5529],[89.8702,25.4844],[89.9238,25.4113],[90.0903,25.4409],[90.0892,25.4658],[89.9943,25.5094],[89.9746,25.5752]]]},"properties":{"AC_NO":53,"AC_NAME":"Ampathi (ST)","PC_NO":2,"PC_NAME":"TURA (ST)","district":"SOUTH WEST G>RO HILLS"}},{"type":"Feature","geometry":{"type":"Polygon","coordinates":[[[90.2163,25.493],[90.2597,25.49],[90.2379,25.512],[90.2163,25.493]]]},"properties":{"AC_NO":51,"AC_NAME":"SouthTura (ST)","PC_NO":2,"PC_NAME":"TURA (ST)","district":"WEST G>RO HILLS"}},{"type":"Feature","geometry":{"type":"Polygon","coordinates":[[[91.8113,25.3426],[91.7904,25.2439],[91.8218,25.1742],[92.0161,25.1877],[92.0035,25.2991],[91.8986,25.3801],[91.8938,25.4305],[91.8113,25.3426]]]},"properties":{"AC_NO":27,"AC_NAME":"Pynursla (ST)","PC_NO":1,"PC_NAME":"SHILLONG (ST)","district":"EAST KH>SI HILLS"}},{"type":"Feature","geometry":{"type":"Polygon","coordinates":[[[91.2912,25.4396],[91.2508,25.4398],[91.1826,25.4242],[91.1759,25.3494],[91.0107,25.2987],[90.8604,25.2936],[90.9536,25.2556],[90.9696,25.1726],[91.0815,25.2019],[91.2521,25.1975],[91.3881,25.1703],[91.3543,25.2342],[91.4382,25.273],[91.4138,25.3548],[91.2954,25.3367],[91.2912,25.4396]]]},"properties":{"AC_NO":35,"AC_NAME":"Ranikor (ST)","PC_NO":1,"PC_NAME":"SHILLONG (ST)","district":"SOUTH WEST KH>SI HILLS"}},{"type":"Feature","geometry":{"type":"Polygon","coordinates":[[[90.2163,25.493],[90.1747,25.4922],[90.0892,25.4658],[90.0903,25.4409],[90.006,25.3779],[90.0988,25.2746],[90.202,25.3442],[90.2558,25.3079],[90.3086,25.3653],[90.3194,25.4644],[90.3211,25.4772],[90.2597,25.49],[90.2163,25.493]]]},"properties":{"AC_NO":56,"AC_NAME":"Gambegre (ST)","PC_NO":2,"PC_NAME":"TURA (ST)","district":"WEST G>RO HILLS"}},{"type":"Feature","geometry":{"type":"Polygon","coordinates":[[[90.3194,25.4644],[90.3086,25.3653],[90.2558,25.3079],[90.245,25.251],[90.5027,25.2525],[90.6172,25.3346],[90.6187,25.4218],[90.442,25.4607],[90.3194,25.4644]]]},"properties":{"AC_NO":59,"AC_NAME":"Chokpot (ST)","PC_NO":2,"PC_NAME":"TURA (ST)","district":"SOUTH G>RO HILLS"}},{"type":"Feature","geometry":{"type":"Polygon","coordinates":[[[89.8702,25.4844],[89.8533,25.4772],[89.814,25.3699],[89.8839,25.291],[89.9238,25.4113],[89.8702,25.4844]]]},"properties":{"AC_NO":54,"AC_NAME":"Mahendraganj (ST)","PC_NO":2,"PC_NAME":"TURA (ST)","district":"SOUTH WEST G>RO HILLS"}},{"type":"Feature","geometry":{"type":"Polygon","coordinates":[[[91.6559,25.3545],[91.6219,25.162],[91.6608,25.1294],[91.8218,25.1742],[91.7904,25.2439],[91.8113,25.3426],[91.7816,25.2998],[91.6559,25.3545]]]},"properties":{"AC_NO":26,"AC_NAME":"Shella (ST)","PC_NO":1,"PC_NAME":"SHILLONG (ST)","district":"EAST KH>SI HILLS"}},{"type":"Feature","geometry":{"type":"Polygon","coordinates":[[[89.9238,25.4113],[89.8839,25.291],[89.9081,25.3078],[90.0874,25.2389],[90.0988,25.2746],[90.006,25.3779],[90.0903,25.4409],[89.9238,25.4113]]]},"properties":{"AC_NO":55,"AC_NAME":"Salmanpara (ST)","PC_NO":2,"PC_NAME":"TURA (ST)","district":"SOUTH WEST G>RO HILLS"}},{"type":"Feature","geometry":{"type":"Polygon","coordinates":[[[90.6172,25.3346],[90.5027,25.2525],[90.245,25.251],[90.2336,25.2038],[90.4446,25.1438],[90.6369,25.1783],[90.6172,25.3346]]]},"properties":{"AC_NO":60,"AC_NAME":"Baghmara (ST)","PC_NO":2,"PC_NAME":"TURA (ST)","district":"SOUTH G>RO HILLS"}},{"type":"Feature","geometry":{"type":"Polygon","coordinates":[[[90.0988,25.2746],[90.0874,25.2389],[90.2336,25.2038],[90.245,25.251],[90.2558,25.3079],[90.202,25.3442],[90.0988,25.2746]]]},"properties":{"AC_NO":57,"AC_NAME":"Dalu (ST)","PC_NO":2,"PC_NAME":"TURA (ST)","district":"WEST G>RO HILLS"}},{"type":"Feature","geometry":{"type":"Polygon","coordinates":[[[92.4855,25.6466],[92.4176,25.617],[92.4842,25.4539],[92.5724,25.4657],[92.6615,25.5725],[92.5838,25.5507],[92.4855,25.6466]]]},"properties":{"AC_NO":4,"AC_NAME":"Mowkaiaw (ST)","PC_NO":1,"PC_NAME":"SHILLONG (ST)","district":"WEST JAINTIA HILLS"}}]}