{"type":"FeatureCollection", "features": [
{"type":"Feature","geometry":{"type":"Polygon","coordinates":[[[91.7702,25.8088],[91.8285,25.6739],[91.8341,25.6441],[91.9059,25.646],[91.9569,25.6467],[92.1326,25.6412],[92.1562,25.6723],[92.1539,25.7074],[92.1486,25.7725],[92.1774,25.8729],[92.1647,25.9709],[92.2632,26.0332],[92.2675,26.0689],[92.1279,26.0456],[91.8983,26.0234],[91.879,26.0974],[91.8198,26.116],[91.7314,26.0596],[91.7203,25.9539],[91.6374,25.921],[91.635,26.0123],[91.5709,26.0256],[91.5181,25.9599],[91.4779,25.8581],[91.3422,25.8366],[91.3595,25.8066],[91.4708,25.7903],[91.6105,25.8096],[91.7495,25.8272],[91.7702,25.8088]]]},"properties":{"district":"RI-BHOI"}},
{"type":"Feature","geometry":{"type":"Polygon","coordinates":[[[90.4891,25.777],[90.6319,25.7968],[90.7001,25.7817],[90.7132,25.7828],[90.7881,25.7707],[90.8852,25.7233],[90.9686,25.7263],[90.9447,25.7722],[91.0013,25.8249],[90.9567,25.9363],[90.795,25.9392],[90.7177,25.9551],[90.6238,25.898],[90.5729,25.9377],[90.5137,25.8973],[90.5337,25.9596],[90.4772,26.013],[90.3978,26.0119],[90.3265,25.9739],[90.1128,25.9541],[90.1916,25.9068],[90.4228,25.9532],[90.3394,25.8076],[90.4025,25.761],[90.488,25.6805],[90.4891,25.777]]]},"properties":{"district":"NORTH G>RO HILLS"}},
{"type":"Feature","geometry":{"type":"Polygon","coordinates":[[[90.1916,25.9068],[90.1128,25.9541],[90.0625,25.9109],[90.0235,25.8687],[89.9498,25.8154],[89.9515,25.763],[89.8959,25.7302],[89.9505,25.6559],[90.0283,25.6052],[90.0935,25.5974],[90.1747,25.4922],[90.0892,25.4658],[90.0903,25.4409],[90.006,25.3779],[90.0988,25.2746],[90.0874,25.2389],[90.2336,25.2038],[90.245,25.251],[90.2558,25.3079],[90.3086,25.3653],[90.3194,25.4644],[90.3211,25.4772],[90.3473,25.5132],[90.3849,25.5967],[90.4133,25.6576],[90.4025,25.761],[90.3394,25.8076],[90.4228,25.9532],[90.1916,25.9068]]]},"properties":{"district":"WEST G>RO HILLS"}},
{"type":"Feature","geometry":{"type":"Polygon","coordinates":[[[91.6105,25.8096],[91.4708,25.7903],[91.5071,25.6938],[91.4429,25.6745],[91.4337,25.6089],[91.4111,25.5559],[91.4841,25.5384],[91.4768,25.4783],[91.5466,25.4929],[91.6227,25.5382],[91.6482,25.5508],[91.6585,25.5281],[91.7998,25.6096],[91.8285,25.6739],[91.7702,25.8088],[91.7495,25.8272],[91.6105,25.8096]]]},"properties":{"district":"EASTERN WEST KHASI HILLS"}},
{"type":"Feature","geometry":{"type":"Polygon","coordinates":[[[91.3422,25.8366],[91.2735,25.7458],[91.1919,25.7306],[91.204,25.8436],[91.0013,25.8249],[90.9447,25.7722],[90.9686,25.7263],[90.9594,25.7144],[90.8717,25.6041],[90.7694,25.568],[90.7632,25.5534],[90.7897,25.4858],[90.7554,25.43],[90.7637,25.3675],[90.8383,25.3552],[90.8604,25.2936],[91.0107,25.2987],[91.1759,25.3494],[91.1826,25.4242],[91.2508,25.4398],[91.2912,25.4396],[91.375,25.4743],[91.4768,25.4783],[91.4841,25.5384],[91.4111,25.5559],[91.4337,25.6089],[91.4429,25.6745],[91.5071,25.6938],[91.4708,25.7903],[91.3595,25.8066],[91.3422,25.8366]]]},"properties":{"district":"WEST KHASI HILLS"}},
{"type":"Feature","geometry":{"type":"Polygon","coordinates":[[[92.1326,25.6412],[92.1004,25.5173],[92.0987,25.5029],[92.1021,25.4451],[92.1009,25.3056],[92.0035,25.2991],[91.9811,25.2601],[92.0161,25.1877],[92.0814,25.1839],[92.1918,25.1347],[92.2365,25.1931],[92.2077,25.2318],[92.1699,25.3391],[92.2799,25.4335],[92.3113,25.4404],[92.4554,25.4576],[92.4842,25.4539],[92.5724,25.4657],[92.6429,25.5349],[92.5569,25.5709],[92.5538,25.6149],[92.4855,25.6466],[92.4308,25.7324],[92.3686,25.747],[92.1562,25.6723],[92.1326,25.6412]]]},"properties":{"district":"WEST JAINTIA HILLS"}},
{"type":"Feature","geometry":{"type":"Polygon","coordinates":[[[90.4025,25.761],[90.4133,25.6576],[90.3849,25.5967],[90.3473,25.5132],[90.3211,25.4772],[90.3194,25.4644],[90.442,25.4607],[90.6187,25.4218],[90.7428,25.5426],[90.7632,25.5534],[90.7694,25.568],[90.8717,25.6041],[90.9594,25.7144],[90.9686,25.7263],[90.8852,25.7233],[90.7881,25.7707],[90.7132,25.7828],[90.7001,25.7817],[90.6319,25.7968],[90.4891,25.777],[90.488,25.6805],[90.4025,25.761]]]},"properties":{"district":"EAST G>RO HILLS"}},
{"type":"Feature","geometry":{"type":"Polygon","coordinates":[[[91.8285,25.6739],[91.7998,25.6096],[91.6585,25.5281],[91.6482,25.5508],[91.6227,25.5382],[91.5466,25.4929],[91.525,25.3444],[91.5436,25.2795],[91.4382,25.273],[91.3543,25.2342],[91.3881,25.1703],[91.4931,25.1347],[91.6029,25.1737],[91.6608,25.1294],[91.8218,25.1742],[92.0161,25.1877],[91.9811,25.2601],[92.0035,25.2991],[92.1009,25.3056],[92.1021,25.4451],[92.0987,25.5029],[92.1004,25.5173],[92.1326,25.6412],[91.9569,25.6467],[91.9059,25.646],[91.8341,25.6441],[91.8285,25.6739]]]},"properties":{"district":"EAST KH>SI HILLS"}},
{"type":"Feature","geometry":{"type":"Polygon","coordinates":[[[92.4554,25.4576],[92.3113,25.4404],[92.2799,25.4335],[92.1699,25.3391],[92.2077,25.2318],[92.2365,25.1931],[92.1918,25.1347],[92.2293,25.0972],[92.4222,25.0301],[92.4817,25.1065],[92.6281,25.1379],[92.7428,25.2067],[92.7926,25.2827],[92.7818,25.3331],[92.6734,25.4141],[92.5724,25.4657],[92.4842,25.4539],[92.4554,25.4576]]]},"properties":{"district":"EAST JAINTIA HILLS"}},
{"type":"Feature","geometry":{"type":"Polygon","coordinates":[[[90.0283,25.6052],[89.9746,25.5752],[89.8815,25.5529],[89.8702,25.4844],[89.814,25.3699],[89.8839,25.291],[89.9081,25.3078],[90.0874,25.2389],[90.0988,25.2746],[90.006,25.3779],[90.0903,25.4409],[90.0892,25.4658],[90.1747,25.4922],[90.0935,25.5974],[90.0283,25.6052]]]},"properties":{"district":"SOUTH WEST G>RO HILLS"}},
{"type":"Feature","geometry":{"type":"Polygon","coordinates":[[[90.7632,25.5534],[90.7428,25.5426],[90.6187,25.4218],[90.442,25.4607],[90.3194,25.4644],[90.3086,25.3653],[90.2558,25.3079],[90.245,25.251],[90.2336,25.2038],[90.3317,25.1917],[90.4446,25.1438],[90.5104,25.1685],[90.6369,25.1783],[90.6935,25.1598],[90.8694,25.1597],[90.9696,25.1726],[90.9536,25.2556],[90.8604,25.2936],[90.8383,25.3552],[90.7637,25.3675],[90.7554,25.43],[90.7897,25.4858],[90.7632,25.5534]]]},"properties":{"district":"SOUTH G>RO HILLS"}},
{"type":"Feature","geometry":{"type":"Polygon","coordinates":[[[91.4768,25.4783],[91.375,25.4743],[91.2912,25.4396],[91.2508,25.4398],[91.1826,25.4242],[91.1759,25.3494],[91.0107,25.2987],[90.8604,25.2936],[90.9536,25.2556],[90.9696,25.1726],[91.0815,25.2019],[91.2521,25.1975],[91.3881,25.1703],[91.3543,25.2342],[91.4382,25.273],[91.5436,25.2795],[91.525,25.3444],[91.5466,25.4929],[91.4768,25.4783]]]},"properties":{"district":"SOUTH WEST KH>SI HILLS"}}
]}