{"type":"FeatureCollection", "features": [
{"type":"Feature","geometry":{"type":"Polygon","coordinates":[[[77.1335,18.2063],[77.0636,18.1508],[76.9516,18.1883],[76.9219,18.1147],[76.9528,18.0409],[76.919,17.9167],[76.7746,17.8782],[76.7398,17.9001],[76.7808,17.8034],[76.6913,17.6814],[76.7019,17.6418],[76.7326,17.6658],[76.9292,17.636],[76.9858,17.6935],[77.1498,17.6328],[77.2771,17.624],[77.4431,17.584],[77.4525,17.6947],[77.5687,17.7491],[77.515,17.8055],[77.5864,17.9086],[77.6496,17.9502],[77.6489,17.9989],[77.554,18.0358],[77.5968,18.0865],[77.5719,18.2443],[77.6004,18.2757],[77.5516,18.2921],[77.4651,18.2633],[77.4099,18.3018],[77.4132,18.3914],[77.3352,18.4507],[77.2653,18.4224],[77.2297,18.3481],[77.2119,18.316],[77.1621,18.2572],[77.1335,18.2063]]]},"properties":{"district":"B\\dar"}},
{"type":"Feature","geometry":{"type":"Polygon","coordinates":[[[76.6913,17.6814],[76.6319,17.7549],[76.4278,17.6446],[76.3308,17.5958],[76.3635,17.3774],[76.4089,17.3712],[76.3822,17.3144],[76.2719,17.3609],[76.1197,17.3706],[76.0726,17.3349],[76.1938,17.1848],[76.2409,17.1518],[76.3571,17.1886],[76.4295,17.0994],[76.4476,16.9409],[76.4391,16.7527],[76.4607,16.7115],[76.5171,16.751],[76.6795,16.7848],[76.8165,16.8735],[76.9204,16.8695],[76.9068,16.8217],[76.995,16.8345],[77.0177,16.899],[77.2116,16.9452],[77.3414,16.9339],[77.456,16.8857],[77.4669,16.916],[77.5024,17.0096],[77.4645,17.1068],[77.378,17.14],[77.3802,17.2225],[77.4587,17.2793],[77.4537,17.374],[77.5192,17.3621],[77.6145,17.4475],[77.6877,17.5118],[77.4431,17.584],[77.2771,17.624],[77.1498,17.6328],[76.9858,17.6935],[76.9292,17.636],[76.7326,17.6658],[76.7019,17.6418],[76.6913,17.6814]]]},"properties":{"district":"Kalaburagi"}},
{"type":"Feature","geometry":{"type":"Polygon","coordinates":[[[75.6766,16.9694],[75.4644,16.9909],[75.3417,16.9581],[75.3921,16.8642],[75.3839,16.7626],[75.4937,16.5928],[75.4558,16.506],[75.4899,16.419],[75.6428,16.4404],[75.8389,16.3505],[75.912,16.3208],[76.0443,16.2794],[76.0666,16.2077],[76.2386,16.1666],[76.3295,16.1944],[76.2998,16.283],[76.3339,16.4273],[76.4351,16.4365],[76.419,16.5818],[76.4049,16.6535],[76.4607,16.7115],[76.4391,16.7527],[76.4476,16.9409],[76.4295,17.0994],[76.3571,17.1886],[76.2409,17.1518],[76.1938,17.1848],[76.0726,17.3349],[75.9283,17.3227],[75.8966,17.3503],[75.8942,17.3792],[75.8066,17.368],[75.683,17.4181],[75.6342,17.478],[75.6038,17.3063],[75.6546,17.2727],[75.6282,17.162],[75.6725,17.1153],[75.6766,16.9694]]]},"properties":{"district":"Vijayapura"}},
{"type":"Feature","geometry":{"type":"Polygon","coordinates":[[[74.6854,16.6067],[74.5721,16.5534],[74.5432,16.5951],[74.4718,16.6638],[74.459,16.6567],[74.3953,16.5772],[74.2643,16.5401],[74.3327,16.4555],[74.329,16.3245],[74.3518,16.2794],[74.4966,16.2335],[74.4845,16.1426],[74.3721,16.0782],[74.4623,16.0372],[74.4305,15.9582],[74.3867,15.9044],[74.3405,15.7648],[74.2416,15.7431],[74.2091,15.7812],[74.1217,15.7205],[74.1176,15.6517],[74.2026,15.6542],[74.2505,15.6578],[74.2786,15.5228],[74.4219,15.4621],[74.4269,15.3984],[74.5365,15.4184],[74.6135,15.359],[74.7415,15.4118],[74.7447,15.4939],[74.8108,15.5208],[74.8587,15.613],[75.0191,15.6445],[75.0502,15.6828],[75.0907,15.6091],[75.1004,15.6619],[75.2785,15.6899],[75.3036,15.8096],[75.4535,15.8843],[75.4359,15.9967],[75.4114,16.1297],[75.2758,16.1204],[75.2325,16.2096],[75.2161,16.2694],[75.1296,16.3301],[75.0343,16.3679],[74.9882,16.4531],[75.0078,16.5381],[75.1044,16.5118],[75.1611,16.591],[75.2589,16.6074],[75.2651,16.6929],[75.3627,16.7144],[75.3839,16.7626],[75.3921,16.8642],[75.3417,16.9581],[75.2802,16.8783],[75.1817,16.8446],[75.09,16.9518],[75.0258,16.9441],[74.9554,16.907],[74.9197,16.7726],[74.6914,16.7163],[74.6854,16.6067]]]},"properties":{"district":"Belag"}},
{"type":"Feature","geometry":{"type":"Polygon","coordinates":[[[76.995,16.8345],[76.9068,16.8217],[76.9204,16.8695],[76.8165,16.8735],[76.6795,16.7848],[76.5171,16.751],[76.4607,16.7115],[76.4049,16.6535],[76.419,16.5818],[76.4351,16.4365],[76.3339,16.4273],[76.2998,16.283],[76.3295,16.1944],[76.4779,16.2923],[76.6524,16.3641],[76.8391,16.4297],[76.8794,16.4919],[77.0092,16.5458],[77.2241,16.4209],[77.2882,16.4088],[77.2365,16.4733],[77.369,16.4887],[77.4678,16.6098],[77.4739,16.7153],[77.456,16.8857],[77.3414,16.9339],[77.2116,16.9452],[77.0177,16.899],[76.995,16.8345]]]},"properties":{"district":"Y"}},
{"type":"Feature","geometry":{"type":"Polygon","coordinates":[[[75.3839,16.7626],[75.3627,16.7144],[75.2651,16.6929],[75.2589,16.6074],[75.1611,16.591],[75.1044,16.5118],[75.0078,16.5381],[74.9882,16.4531],[75.0343,16.3679],[75.1296,16.3301],[75.2161,16.2694],[75.2325,16.2096],[75.2758,16.1204],[75.4114,16.1297],[75.4359,15.9967],[75.4535,15.8843],[75.5326,15.8334],[75.6951,15.8239],[75.8453,15.8381],[75.8566,15.9347],[75.9744,15.8609],[75.975,15.9888],[76.0855,15.994],[76.0581,15.906],[76.145,15.8931],[76.2053,15.9421],[76.2855,15.9026],[76.3029,16.0738],[76.2386,16.1666],[76.0666,16.2077],[76.0443,16.2794],[75.912,16.3208],[75.8389,16.3505],[75.6428,16.4404],[75.4899,16.419],[75.4558,16.506],[75.4937,16.5928],[75.3839,16.7626]]]},"properties":{"district":"B"}},
{"type":"Feature","geometry":{"type":"Polygon","coordinates":[[[76.8794,16.4919],[76.8391,16.4297],[76.6524,16.3641],[76.4779,16.2923],[76.3295,16.1944],[76.2386,16.1666],[76.3029,16.0738],[76.2855,15.9026],[76.4035,15.902],[76.4485,15.8538],[76.4131,15.8041],[76.4842,15.7146],[76.5971,15.6995],[76.8109,15.5473],[76.8345,15.6277],[76.9168,15.6997],[77.0253,15.8375],[77.0316,15.8549],[77.146,15.9463],[77.2489,15.9649],[77.4237,15.9477],[77.5136,15.9271],[77.5108,15.9916],[77.4898,16.1196],[77.5049,16.2758],[77.5883,16.3328],[77.4897,16.385],[77.4195,16.3663],[77.2882,16.4088],[77.2241,16.4209],[77.0092,16.5458],[76.8794,16.4919]]]},"properties":{"district":"Raich#r"}},
{"type":"Feature","geometry":{"type":"Polygon","coordinates":[[[76.2855,15.9026],[76.2053,15.9421],[76.145,15.8931],[76.0581,15.906],[76.0855,15.994],[75.975,15.9888],[75.9744,15.8609],[75.8566,15.9347],[75.8453,15.8381],[75.9296,15.79],[75.9883,15.8014],[76.0434,15.737],[75.9679,15.6654],[75.8706,15.6733],[75.8597,15.514],[75.8189,15.4554],[75.9028,15.3596],[75.9034,15.2397],[75.9519,15.1367],[76.0915,15.162],[76.1846,15.234],[76.249,15.1905],[76.3132,15.2376],[76.3574,15.3223],[76.4304,15.3352],[76.5413,15.3796],[76.5785,15.4033],[76.6932,15.479],[76.7752,15.4922],[76.8109,15.5473],[76.5971,15.6995],[76.4842,15.7146],[76.4131,15.8041],[76.4485,15.8538],[76.4035,15.902],[76.2855,15.9026]]]},"properties":{"district":"Koppal"}},
{"type":"Feature","geometry":{"type":"Polygon","coordinates":[[[75.3036,15.8096],[75.2785,15.6899],[75.4109,15.6551],[75.4723,15.6864],[75.5543,15.6467],[75.4975,15.4193],[75.4416,15.3016],[75.4117,15.2978],[75.4322,15.1991],[75.417,15.0611],[75.5329,15.0347],[75.701,14.9487],[75.9094,15.0788],[75.9519,15.1367],[75.9034,15.2397],[75.9028,15.3596],[75.8189,15.4554],[75.8597,15.514],[75.8706,15.6733],[75.9679,15.6654],[76.0434,15.737],[75.9883,15.8014],[75.9296,15.79],[75.8453,15.8381],[75.6951,15.8239],[75.5326,15.8334],[75.4535,15.8843],[75.3036,15.8096]]]},"properties":{"district":"Gadag"}},
{"type":"Feature","geometry":{"type":"Polygon","coordinates":[[[76.8109,15.5473],[76.7752,15.4922],[76.6932,15.479],[76.5785,15.4033],[76.5413,15.3796],[76.6099,15.2681],[76.6155,15.2022],[76.4314,15.2174],[76.4093,15.194],[76.4599,15.0918],[76.3627,14.9855],[76.4821,14.8595],[76.6774,14.8947],[76.76,14.9895],[76.7998,15.0959],[76.8773,15.0306],[77.0496,15.0331],[77.0825,15.0068],[77.1573,15.1405],[77.1522,15.2758],[77.0646,15.3279],[77.0463,15.3814],[77.0326,15.6093],[77.1289,15.6656],[77.0491,15.7303],[77.0253,15.8375],[76.9168,15.6997],[76.8345,15.6277],[76.8109,15.5473]]]},"properties":{"district":"Ball"}},
{"type":"Feature","geometry":{"type":"Polygon","coordinates":[[[75.0907,15.6091],[75.0502,15.6828],[75.0191,15.6445],[74.8587,15.613],[74.8108,15.5208],[74.7447,15.4939],[74.7415,15.4118],[74.897,15.3016],[74.908,15.2488],[74.8291,15.1395],[74.9413,15.0659],[75.0818,15.0743],[75.1368,15.1606],[75.2253,15.1001],[75.3096,15.1382],[75.3674,15.0504],[75.417,15.0611],[75.4322,15.1991],[75.4117,15.2978],[75.4416,15.3016],[75.4975,15.4193],[75.5543,15.6467],[75.4723,15.6864],[75.4109,15.6551],[75.2785,15.6899],[75.1004,15.6619],[75.0907,15.6091]]]},"properties":{"district":"Dh"}},
{"type":"Feature","geometry":{"type":"Polygon","coordinates":[[[74.2786,15.5228],[74.2509,15.4933],[74.3261,15.2837],[74.2514,15.2579],[74.3167,15.1869],[74.2954,15.0456],[74.2535,14.9974],[74.0857,14.9006],[74.1181,14.7859],[74.25,14.7395],[74.2932,14.5969],[74.398,14.4074],[74.4312,14.2652],[74.4695,14.1882],[74.5012,14.0233],[74.5828,13.9254],[74.6651,13.9814],[74.6375,14.0941],[74.6653,14.1843],[74.7296,14.2639],[74.8549,14.21],[74.9208,14.2274],[74.9018,14.5291],[74.9803,14.5243],[75.0505,14.649],[75.0323,14.7076],[75.0683,14.9136],[75.0818,15.0743],[74.9413,15.0659],[74.8291,15.1395],[74.908,15.2488],[74.897,15.3016],[74.7415,15.4118],[74.6135,15.359],[74.5365,15.4184],[74.4269,15.3984],[74.4219,15.4621],[74.2786,15.5228]]]},"properties":{"district":"Uttara Kannada"}},
{"type":"Feature","geometry":{"type":"Polygon","coordinates":[[[76.4304,15.3352],[76.3574,15.3223],[76.3132,15.2376],[76.249,15.1905],[76.1846,15.234],[76.0915,15.162],[75.9519,15.1367],[75.9094,15.0788],[75.701,14.9487],[75.6656,14.7999],[75.7556,14.7385],[75.8123,14.6362],[75.9104,14.563],[75.9904,14.5188],[76.0154,14.5224],[76.0208,14.6671],[76.1843,14.7005],[76.3166,14.6925],[76.5103,14.56],[76.5706,14.5908],[76.7043,14.8179],[76.6774,14.8947],[76.4821,14.8595],[76.3627,14.9855],[76.4599,15.0918],[76.4093,15.194],[76.4314,15.2174],[76.6155,15.2022],[76.6099,15.2681],[76.5413,15.3796],[76.4304,15.3352]]]},"properties":{"district":"Vijayanagara"}},
{"type":"Feature","geometry":{"type":"MultiPolygon","coordinates":[[[[75.0818,15.0743],[75.0683,14.9136],[75.0323,14.7076],[75.0505,14.649],[75.0992,14.6525],[75.2231,14.5849],[75.2676,14.5151],[75.3458,14.4817],[75.3478,14.387],[75.5355,14.2778],[75.6239,14.3598],[75.6384,14.4053],[75.6896,14.4914],[75.7991,14.5101],[75.8123,14.6362],[75.7556,14.7385],[75.6656,14.7999],[75.701,14.9487],[75.5329,15.0347],[75.417,15.0611],[75.3674,15.0504],[75.3096,15.1382],[75.2253,15.1001],[75.1368,15.1606],[75.0818,15.0743]]],[[[76.3637,13.5473],[76.234,13.5078],[76.1375,13.4424],[76.1001,13.3928],[76.0287,13.3454],[76.0367,13.2487],[75.8952,13.2661],[75.7281,13.1827],[75.7539,13.1367],[75.728,13.0237],[75.6391,13.0236],[75.5567,12.9126],[75.565,12.8659],[75.6882,12.7014],[75.7607,12.6742],[75.854,12.7244],[75.8806,12.8345],[75.9692,12.8049],[75.9378,12.6432],[76.0181,12.5706],[76.1338,12.5287],[76.2179,12.6433],[76.3419,12.6548],[76.3371,12.7863],[76.3698,12.829],[76.5774,12.8472],[76.6326,13.0045],[76.5529,13.0766],[76.4723,13.0933],[76.4291,13.1727],[76.3705,13.2004],[76.3472,13.3601],[76.4095,13.436],[76.3637,13.5473]]]]},"properties":{"district":"H"}},
{"type":"Feature","geometry":{"type":"Polygon","coordinates":[[[76.6774,14.8947],[76.7043,14.8179],[76.5706,14.5908],[76.5103,14.56],[76.4599,14.4516],[76.3796,14.4195],[76.2744,14.4087],[76.2065,14.458],[76.1361,14.427],[76.1349,14.2563],[76.0609,14.2224],[76.0326,14.134],[76.0567,14.0712],[76.0335,13.8978],[76.1001,13.8598],[76.1438,13.7607],[76.2199,13.7132],[76.3528,13.5793],[76.4552,13.5909],[76.5608,13.6839],[76.7648,13.7828],[76.7221,13.8973],[76.8155,13.9161],[76.8234,13.9942],[76.9484,14.0921],[76.8907,14.1436],[77.0224,14.1773],[77.0055,14.2359],[76.9398,14.2449],[76.8858,14.3957],[76.9158,14.4206],[76.8325,14.5295],[76.765,14.6022],[76.7753,14.6812],[76.8366,14.7909],[76.8673,14.9696],[76.76,14.9895],[76.6774,14.8947]]]},"properties":{"district":"Chitradurga"}},
{"type":"Feature","geometry":{"type":"Polygon","coordinates":[[[76.5103,14.56],[76.3166,14.6925],[76.1843,14.7005],[76.0208,14.6671],[76.0154,14.5224],[75.9904,14.5188],[75.9104,14.563],[75.8123,14.6362],[75.7991,14.5101],[75.6896,14.4914],[75.6384,14.4053],[75.6239,14.3598],[75.5355,14.2778],[75.5065,14.2192],[75.4015,14.1261],[75.5315,14.0976],[75.5853,14.0578],[75.814,14.1045],[75.8483,13.9352],[75.8788,13.8099],[75.9201,13.8072],[76.0335,13.8978],[76.0567,14.0712],[76.0326,14.134],[76.0609,14.2224],[76.1349,14.2563],[76.1361,14.427],[76.2065,14.458],[76.2744,14.4087],[76.3796,14.4195],[76.4599,14.4516],[76.5103,14.56]]]},"properties":{"district":"D"}},
{"type":"Feature","geometry":{"type":"Polygon","coordinates":[[[74.9018,14.5291],[74.9208,14.2274],[74.8549,14.21],[74.7296,14.2639],[74.6653,14.1843],[74.6375,14.0941],[74.6651,13.9814],[74.7148,13.9134],[74.8148,13.9081],[74.8842,13.8618],[74.9423,13.7576],[75.0109,13.7249],[75.023,13.6386],[75.0766,13.5146],[75.1409,13.461],[75.2211,13.5347],[75.2222,13.6037],[75.3442,13.5805],[75.414,13.6541],[75.3942,13.7001],[75.4877,13.7584],[75.6075,13.7608],[75.6213,13.7131],[75.6703,13.7642],[75.8256,13.8187],[75.8788,13.8099],[75.8483,13.9352],[75.814,14.1045],[75.5853,14.0578],[75.5315,14.0976],[75.4015,14.1261],[75.5065,14.2192],[75.5355,14.2778],[75.3478,14.387],[75.3458,14.4817],[75.2676,14.5151],[75.2231,14.5849],[75.0992,14.6525],[75.0505,14.649],[74.9803,14.5243],[74.9018,14.5291]]]},"properties":{"district":"Shivamogga"}},
{"type":"Feature","geometry":{"type":"MultiPolygon","coordinates":[[[[77.0224,14.1773],[77.0317,14.0569],[77.1411,14.0039],[77.2751,14.0117],[77.361,13.9911],[77.4136,13.8976],[77.4259,13.9862],[77.3323,14.0307],[77.3974,14.1255],[77.3617,14.1154],[77.3937,14.1743],[77.5171,14.1844],[77.4789,14.2922],[77.4109,14.337],[77.3623,14.2761],[77.1357,14.3369],[77.1102,14.2683],[77.0055,14.2359],[77.0224,14.1773]]],[[[76.7648,13.7828],[76.5608,13.6839],[76.4552,13.5909],[76.3528,13.5793],[76.3637,13.5473],[76.4095,13.436],[76.3472,13.3601],[76.3705,13.2004],[76.4291,13.1727],[76.4723,13.0933],[76.5529,13.0766],[76.6326,13.0045],[76.6939,13.0372],[76.8298,13.0021],[76.9333,12.7997],[76.9993,12.7755],[77.0806,12.746],[77.1509,12.7922],[77.1314,12.8596],[77.1579,12.9578],[77.0699,13.0399],[77.0799,13.1335],[77.2033,13.1841],[77.2291,13.3131],[77.3385,13.3291],[77.339,13.3308],[77.3847,13.499],[77.3693,13.636],[77.4555,13.6827],[77.4515,13.8096],[77.432,13.8411],[77.1857,13.8762],[77.1575,13.8061],[77.0127,13.7398],[76.9764,13.8174],[77.0417,13.9334],[76.9312,14.0302],[76.9484,14.0921],[76.8234,13.9942],[76.8155,13.9161],[76.7221,13.8973],[76.7648,13.7828]]]]},"properties":{"district":"Tumak#ru"}},
{"type":"Feature","geometry":{"type":"Polygon","coordinates":[[[74.5828,13.9254],[74.6689,13.6369],[74.6945,13.4559],[74.7013,13.3447],[74.7763,13.0717],[74.8269,13.1296],[74.878,13.0952],[74.9942,13.1557],[75.1273,13.131],[75.2058,13.177],[75.1578,13.2486],[75.1126,13.2827],[75.1409,13.461],[75.0766,13.5146],[75.023,13.6386],[75.0109,13.7249],[74.9423,13.7576],[74.8842,13.8618],[74.8148,13.9081],[74.7148,13.9134],[74.6651,13.9814],[74.5828,13.9254]]]},"properties":{"district":"Udupi"}},
{"type":"Feature","geometry":{"type":"Polygon","coordinates":[[[76.0335,13.8978],[75.9201,13.8072],[75.8788,13.8099],[75.8256,13.8187],[75.6703,13.7642],[75.6213,13.7131],[75.6075,13.7608],[75.4877,13.7584],[75.3942,13.7001],[75.414,13.6541],[75.3442,13.5805],[75.2222,13.6037],[75.2211,13.5347],[75.1409,13.461],[75.1126,13.2827],[75.1578,13.2486],[75.2058,13.177],[75.2525,13.1287],[75.3828,13.1786],[75.5254,13.0505],[75.5139,12.979],[75.5567,12.9126],[75.6391,13.0236],[75.728,13.0237],[75.7539,13.1367],[75.7281,13.1827],[75.8952,13.2661],[76.0367,13.2487],[76.0287,13.3454],[76.1001,13.3928],[76.1375,13.4424],[76.234,13.5078],[76.3637,13.5473],[76.3528,13.5793],[76.2199,13.7132],[76.1438,13.7607],[76.1001,13.8598],[76.0335,13.8978]]]},"properties":{"district":"Chikkamagal#ru"}},
{"type":"Feature","geometry":{"type":"Polygon","coordinates":[[[77.6715,13.7605],[77.4555,13.6827],[77.3693,13.636],[77.3847,13.499],[77.5043,13.4457],[77.5483,13.4317],[77.6152,13.4184],[77.6763,13.3464],[77.791,13.3491],[77.834,13.2462],[77.9281,13.2372],[77.9383,13.2678],[78.0774,13.3025],[78.1361,13.2904],[78.1376,13.4067],[78.2044,13.4657],[78.1962,13.566],[78.2039,13.6284],[78.0993,13.6433],[78.0662,13.6769],[78.1257,13.7866],[78.1089,13.8624],[77.9921,13.8689],[77.8885,13.9395],[77.8873,13.9393],[77.8866,13.9391],[77.8138,13.9271],[77.8138,13.9269],[77.8138,13.9252],[77.8371,13.8699],[77.6715,13.7605]]]},"properties":{"district":"Chikkaball"}},
{"type":"Feature","geometry":{"type":"Polygon","coordinates":[[[78.0774,13.3025],[77.9383,13.2678],[77.9281,13.2372],[77.9374,13.1086],[77.8731,12.9956],[77.8667,12.8677],[77.9219,12.8842],[78.0085,12.8067],[78.0859,12.8321],[78.1342,12.782],[78.2307,12.7609],[78.2534,12.862],[78.3124,12.8586],[78.3558,12.9408],[78.4434,12.9215],[78.4604,13.0263],[78.567,13.201],[78.5743,13.2979],[78.4835,13.3179],[78.4012,13.3155],[78.3744,13.5091],[78.4014,13.5675],[78.3262,13.5949],[78.1962,13.566],[78.2044,13.4657],[78.1376,13.4067],[78.1361,13.2904],[78.0774,13.3025]]]},"properties":{"district":"Kol"}},
{"type":"Feature","geometry":{"type":"Polygon","coordinates":[[[77.3847,13.499],[77.339,13.3308],[77.3385,13.3291],[77.2291,13.3131],[77.2033,13.1841],[77.221,13.0478],[77.2642,12.9799],[77.3295,12.9752],[77.3791,12.9952],[77.432,13.1651],[77.4797,13.2239],[77.5592,13.2322],[77.5855,13.196],[77.7281,13.189],[77.7334,13.1156],[77.7606,13.1135],[77.7677,12.9408],[77.8356,12.8714],[77.8667,12.8677],[77.8731,12.9956],[77.9374,13.1086],[77.9281,13.2372],[77.834,13.2462],[77.791,13.3491],[77.6763,13.3464],[77.6152,13.4184],[77.5483,13.4317],[77.5043,13.4457],[77.3847,13.499]]]},"properties":{"district":"Bengal#ru (Rural)"}},
{"type":"Feature","geometry":{"type":"Polygon","coordinates":[[[75.1273,13.131],[74.9942,13.1557],[74.878,13.0952],[74.8269,13.1296],[74.7763,13.0717],[74.7847,13.0317],[74.831,12.8337],[74.8697,12.7608],[75.0014,12.7919],[75.0521,12.7133],[75.1477,12.6344],[75.2238,12.5704],[75.2789,12.6166],[75.3146,12.4985],[75.4162,12.501],[75.4639,12.4726],[75.5778,12.5124],[75.6879,12.5413],[75.6633,12.6318],[75.6882,12.7014],[75.565,12.8659],[75.5567,12.9126],[75.5139,12.979],[75.5254,13.0505],[75.3828,13.1786],[75.2525,13.1287],[75.2058,13.177],[75.1273,13.131]]]},"properties":{"district":"Dakshina Kannada"}},
{"type":"Feature","geometry":{"type":"Polygon","coordinates":[[[77.432,13.1651],[77.3791,12.9952],[77.3295,12.9752],[77.3479,12.8688],[77.4119,12.877],[77.4756,12.7553],[77.5426,12.7951],[77.5959,12.7202],[77.597,12.6581],[77.7592,12.6971],[77.8356,12.8714],[77.7677,12.9408],[77.7606,13.1135],[77.7334,13.1156],[77.7281,13.189],[77.5855,13.196],[77.5592,13.2322],[77.4797,13.2239],[77.432,13.1651]],[[77.661,12.9157],[77.6484,12.9266],[77.6255,12.949],[77.6411,12.955],[77.6579,12.9402],[77.663,12.9277],[77.6623,12.9179],[77.661,12.9157]]]},"properties":{"district":"Bengal#ru (Urban)"}},
{"type":"Feature","geometry":{"type":"Polygon","coordinates":[[[77.0799,13.1335],[77.0699,13.0399],[77.1579,12.9578],[77.1314,12.8596],[77.1509,12.7922],[77.0806,12.746],[77.0736,12.6803],[77.1277,12.553],[77.1354,12.47],[77.2378,12.4994],[77.3251,12.3082],[77.431,12.2869],[77.4734,12.2431],[77.6168,12.3683],[77.6348,12.4869],[77.5813,12.5509],[77.597,12.6581],[77.5959,12.7202],[77.5426,12.7951],[77.4756,12.7553],[77.4119,12.877],[77.3479,12.8688],[77.3295,12.9752],[77.2642,12.9799],[77.221,13.0478],[77.2033,13.1841],[77.0799,13.1335]]]},"properties":{"district":"R"}},
{"type":"Feature","geometry":{"type":"Polygon","coordinates":[[[76.6326,13.0045],[76.5774,12.8472],[76.3698,12.829],[76.3371,12.7863],[76.3419,12.6548],[76.3769,12.5765],[76.5023,12.4517],[76.513,12.4527],[76.5679,12.426],[76.655,12.3961],[76.7313,12.3167],[76.8029,12.3554],[76.9217,12.4419],[76.9767,12.353],[76.9886,12.26],[77.1238,12.2425],[77.1668,12.31],[77.3251,12.3082],[77.2378,12.4994],[77.1354,12.47],[77.1277,12.553],[77.0736,12.6803],[77.0806,12.746],[76.9993,12.7755],[76.9333,12.7997],[76.8298,13.0021],[76.6939,13.0372],[76.6326,13.0045]]]},"properties":{"district":"Mandya"}},
{"type":"Feature","geometry":{"type":"Polygon","coordinates":[[[75.6882,12.7014],[75.6633,12.6318],[75.6879,12.5413],[75.5778,12.5124],[75.4639,12.4726],[75.4162,12.501],[75.3713,12.4379],[75.4105,12.3467],[75.4144,12.2928],[75.4931,12.2742],[75.577,12.1578],[75.6358,12.1492],[75.7148,12.0705],[75.8009,12.0365],[75.8707,11.9523],[75.9403,11.9436],[76.003,11.9314],[76.1124,11.9791],[76.1829,12.0318],[76.1664,12.1244],[76.1347,12.1871],[76.0245,12.2488],[75.9823,12.3425],[75.9133,12.3859],[76.0181,12.5706],[75.9378,12.6432],[75.9692,12.8049],[75.8806,12.8345],[75.854,12.7244],[75.7607,12.6742],[75.6882,12.7014]]]},"properties":{"district":"Kodagu"}},
{"type":"Feature","geometry":{"type":"Polygon","coordinates":[[[76.3419,12.6548],[76.2179,12.6433],[76.1338,12.5287],[76.0181,12.5706],[75.9133,12.3859],[75.9823,12.3425],[76.0245,12.2488],[76.1347,12.1871],[76.1664,12.1244],[76.1829,12.0318],[76.1124,11.9791],[76.1212,11.851],[76.2075,11.8617],[76.3393,11.7391],[76.414,11.7589],[76.4893,11.857],[76.5754,11.9242],[76.5785,11.9874],[76.7886,11.986],[76.8107,12.0257],[76.8204,12.0104],[76.939,12.0251],[76.8703,12.0556],[76.87,12.1745],[76.9755,12.1343],[77.1221,12.1974],[77.1238,12.2425],[76.9886,12.26],[76.9767,12.353],[76.9217,12.4419],[76.8029,12.3554],[76.7313,12.3167],[76.655,12.3961],[76.5679,12.426],[76.513,12.4527],[76.5023,12.4517],[76.3769,12.5765],[76.3419,12.6548]]]},"properties":{"district":"Mys#ru"}},
{"type":"Feature","geometry":{"type":"Polygon","coordinates":[[[77.3251,12.3082],[77.1668,12.31],[77.1238,12.2425],[77.1221,12.1974],[76.9755,12.1343],[76.87,12.1745],[76.8703,12.0556],[76.939,12.0251],[76.8204,12.0104],[76.8107,12.0257],[76.7886,11.986],[76.5785,11.9874],[76.5754,11.9242],[76.4893,11.857],[76.414,11.7589],[76.4309,11.6665],[76.5116,11.7051],[76.6139,11.6081],[76.7491,11.6153],[76.8468,11.5951],[76.8455,11.6741],[76.907,11.7954],[77.0128,11.8148],[77.0823,11.74],[77.1888,11.7922],[77.2938,11.8091],[77.4272,11.761],[77.4616,11.9001],[77.6755,11.952],[77.6756,11.952],[77.7738,12.1206],[77.7461,12.1574],[77.6093,12.2062],[77.5187,12.1946],[77.4734,12.2431],[77.431,12.2869],[77.3251,12.3082]]]},"properties":{"district":"Ch"}}
]}