{"type":"FeatureCollection", "features": [
{"type":"Feature","geometry":{"type":"Polygon","coordinates":[[[78.8409,19.7617],[78.8259,19.7551],[78.8185,19.7616],[78.7969,19.76],[78.7863,19.7765],[78.7711,19.7794],[78.759,19.7727],[78.7379,19.7832],[78.7186,19.7668],[78.7061,19.7723],[78.699,19.7886],[78.655,19.8002],[78.6427,19.8078],[78.6255,19.8082],[78.6036,19.8184],[78.5723,19.8158],[78.5527,19.824],[78.5153,19.819],[78.5085,19.8],[78.4952,19.7926],[78.485,19.7961],[78.475,19.8155],[78.4392,19.8134],[78.423,19.8176],[78.3874,19.8446],[78.3824,19.8551],[78.3807,19.8804],[78.3369,19.883],[78.3251,19.8981],[78.3341,19.9053],[78.3264,19.9166],[78.307,19.9143],[78.2978,19.8722],[78.2853,19.8566],[78.2998,19.841],[78.3203,19.8422],[78.3364,19.8379],[78.334,19.8146],[78.3574,19.8054],[78.3647,19.7812],[78.3493,19.738],[78.3412,19.7358],[78.3431,19.7133],[78.322,19.7076],[78.3118,19.6911],[78.2878,19.688],[78.2762,19.6924],[78.2626,19.6651],[78.2905,19.646],[78.2939,19.6194],[78.3042,19.6079],[78.3037,19.5693],[78.2936,19.559],[78.2753,19.5625],[78.275,19.552],[78.2932,19.5422],[78.2915,19.5239],[78.2986,19.497],[78.3092,19.4811],[78.3043,19.4561],[78.287,19.4485],[78.2687,19.4485],[78.2445,19.4288],[78.22,19.433],[78.1924,19.4067],[78.1721,19.3597],[78.1762,19.3349],[78.1923,19.3258],[78.1932,19.3171],[78.2076,19.3073],[78.2182,19.3127],[78.2422,19.3019],[78.2479,19.2928],[78.2711,19.281],[78.2738,19.2676],[78.2995,19.2596],[78.31,19.2232],[78.3298,19.2072],[78.3472,19.2074],[78.363,19.2001],[78.3694,19.1825],[78.3876,19.1763],[78.4297,19.1743],[78.4362,19.1847],[78.4485,19.1791],[78.4566,19.1956],[78.4567,19.227],[78.4838,19.2268],[78.5095,19.2149],[78.5191,19.2264],[78.5179,19.2456],[78.5257,19.2552],[78.5474,19.2622],[78.5704,19.2867],[78.5845,19.2895],[78.6179,19.2704],[78.6511,19.3003],[78.6737,19.3162],[78.6905,19.3167],[78.7226,19.3266],[78.72,19.2967],[78.7365,19.2861],[78.7589,19.2784],[78.7675,19.2575],[78.7901,19.2407],[78.8,19.2142],[78.8122,19.2217],[78.8197,19.2469],[78.8433,19.2549],[78.8479,19.2719],[78.8688,19.2827],[78.8836,19.2747],[78.8836,19.296],[78.8921,19.3194],[78.8765,19.3207],[78.8739,19.3295],[78.8576,19.329],[78.8542,19.3687],[78.8248,19.3748],[78.815,19.381],[78.8218,19.3972],[78.8445,19.4227],[78.8414,19.4341],[78.8508,19.4456],[78.8845,19.4456],[78.9029,19.4735],[78.9146,19.4736],[78.9269,19.4623],[78.9577,19.4737],[78.9776,19.4925],[78.9422,19.514],[78.9503,19.5334],[78.9405,19.552],[78.9467,19.5617],[78.9683,19.5768],[78.972,19.5896],[78.9558,19.5997],[78.9554,19.6191],[78.9618,19.6374],[78.9555,19.6559],[78.9448,19.6616],[78.9197,19.662],[78.9023,19.67],[78.8877,19.6554],[78.8518,19.6586],[78.8599,19.6895],[78.8494,19.722],[78.8522,19.7275],[78.8409,19.7617]]]},"properties":{"district":"ADILABAD"}},
{"type":"Feature","geometry":{"type":"Polygon","coordinates":[[[80.9788,18.1651],[80.979,18.1754],[80.9577,18.1735],[80.9516,18.1637],[80.921,18.1443],[80.9001,18.1371],[80.8667,18.1369],[80.8602,18.1479],[80.8585,18.1865],[80.853,18.1993],[80.8719,18.2053],[80.8659,18.2301],[80.8236,18.2361],[80.8241,18.191],[80.7991,18.1682],[80.7561,18.1683],[80.7529,18.1369],[80.7487,18.1261],[80.7486,18.0983],[80.7383,18.0907],[80.715,18.1259],[80.7035,18.1376],[80.6926,18.1631],[80.681,18.1661],[80.6734,18.1825],[80.6599,18.1614],[80.6473,18.156],[80.6571,18.1437],[80.6548,18.1349],[80.6323,18.1424],[80.6234,18.1293],[80.6427,18.1255],[80.6351,18.1094],[80.6156,18.1047],[80.6003,18.078],[80.5857,18.0624],[80.5658,18.0509],[80.5585,18.0589],[80.5437,18.054],[80.5348,18.0609],[80.4961,18.0512],[80.4812,18.06],[80.4458,18.0669],[80.431,18.0604],[80.3919,18.0817],[80.3463,18.0364],[80.3411,18.0142],[80.3162,17.996],[80.3105,17.9762],[80.2943,17.9645],[80.275,17.9664],[80.2685,17.9505],[80.2677,17.9259],[80.2778,17.9069],[80.277,17.8813],[80.2663,17.8533],[80.2478,17.8244],[80.258,17.7775],[80.2596,17.7509],[80.2499,17.7427],[80.2411,17.6922],[80.2367,17.6553],[80.2178,17.6601],[80.2068,17.6527],[80.2098,17.6137],[80.2231,17.6048],[80.2019,17.5581],[80.2302,17.5524],[80.2473,17.562],[80.281,17.5411],[80.293,17.5547],[80.2857,17.5711],[80.3049,17.5698],[80.324,17.5609],[80.3461,17.5678],[80.3685,17.5678],[80.356,17.5312],[80.3436,17.5351],[80.3397,17.5202],[80.3472,17.5092],[80.3465,17.4852],[80.3605,17.4864],[80.361,17.501],[80.3711,17.5051],[80.3968,17.5282],[80.4074,17.512],[80.4309,17.4977],[80.4018,17.4597],[80.3851,17.4147],[80.4062,17.4211],[80.4297,17.4111],[80.4474,17.4112],[80.4496,17.403],[80.4773,17.3858],[80.4795,17.3748],[80.5012,17.3666],[80.4986,17.3419],[80.5073,17.3263],[80.4998,17.3169],[80.4715,17.315],[80.4672,17.3031],[80.4787,17.2648],[80.4894,17.2582],[80.4993,17.2669],[80.5156,17.2593],[80.547,17.2753],[80.5725,17.2652],[80.5773,17.287],[80.5965,17.2882],[80.605,17.2567],[80.6281,17.2573],[80.6495,17.2501],[80.6561,17.2705],[80.6512,17.2816],[80.6606,17.2971],[80.6773,17.2964],[80.6967,17.289],[80.7224,17.3053],[80.7273,17.2884],[80.7485,17.2913],[80.761,17.3139],[80.7747,17.3085],[80.7787,17.3373],[80.8128,17.3371],[80.8286,17.3612],[80.8451,17.3673],[80.8599,17.3647],[80.8622,17.3482],[80.8722,17.3218],[80.8689,17.2832],[80.8756,17.2638],[80.8653,17.2358],[80.9009,17.2227],[80.9188,17.22],[80.939,17.2202],[80.9607,17.2042],[80.9984,17.1907],[81.0134,17.1947],[81.0377,17.1936],[81.0556,17.2198],[81.0796,17.2155],[81.1094,17.2237],[81.1711,17.2312],[81.1876,17.2551],[81.1778,17.2709],[81.1766,17.2879],[81.1904,17.3251],[81.2111,17.3261],[81.2335,17.3206],[81.2456,17.3261],[81.274,17.3175],[81.3054,17.3465],[81.3226,17.3745],[81.3134,17.4081],[81.2685,17.4183],[81.2455,17.433],[81.2118,17.4417],[81.2027,17.434],[81.183,17.4402],[81.1723,17.449],[81.1755,17.4636],[81.1483,17.4637],[81.1596,17.4843],[81.1449,17.4951],[81.1385,17.5162],[81.1245,17.5271],[81.0993,17.5044],[81.0801,17.515],[81.0148,17.5221],[81.0137,17.5366],[80.9984,17.5647],[80.9694,17.5981],[80.9434,17.602],[80.8931,17.6007],[80.8833,17.5963],[80.8554,17.6019],[80.8498,17.6228],[80.8657,17.6354],[80.885,17.6334],[80.9,17.6401],[80.9111,17.638],[80.9124,17.6578],[80.8858,17.6812],[80.8947,17.7029],[80.8855,17.7357],[80.906,17.747],[80.9171,17.748],[80.9286,17.7615],[80.9463,17.7602],[80.9659,17.7798],[80.9761,17.778],[80.9842,17.7557],[80.9913,17.7499],[81.0159,17.745],[81.0406,17.7476],[81.0582,17.7331],[81.0956,17.7622],[81.096,17.7745],[81.0856,17.798],[81.0733,17.7865],[81.0466,17.7823],[81.0094,17.7973],[81.0032,17.8306],[80.9965,17.8491],[80.9942,17.8806],[80.9983,17.9168],[80.9886,17.9412],[80.9803,18],[80.9698,18.0438],[80.9534,18.0786],[80.9518,18.0901],[80.9562,18.1302],[80.9787,18.1508],[80.9788,18.1651]]]},"properties":{"district":"BHADRADRI KOTHAGUDEM"}},
{"type":"Feature","geometry":{"type":"Polygon","coordinates":[[[79.842,18.1325],[79.8183,18.1406],[79.8092,18.1567],[79.8035,18.1831],[79.7798,18.1901],[79.7537,18.1743],[79.744,18.1773],[79.724,18.1944],[79.7238,18.2087],[79.7074,18.2452],[79.6953,18.2509],[79.7042,18.272],[79.6971,18.2777],[79.6707,18.2553],[79.6525,18.2525],[79.6351,18.2765],[79.6204,18.2624],[79.5974,18.2628],[79.5821,18.2566],[79.5631,18.2628],[79.5519,18.2678],[79.5503,18.2478],[79.5347,18.2352],[79.5214,18.2409],[79.4915,18.2294],[79.4738,18.2299],[79.4733,18.2197],[79.4611,18.1873],[79.462,18.1644],[79.4277,18.1572],[79.4192,18.1692],[79.4009,18.1611],[79.3969,18.148],[79.3794,18.1567],[79.3656,18.1398],[79.3463,18.1468],[79.3273,18.1482],[79.3139,18.1342],[79.3012,18.13],[79.2906,18.1212],[79.2909,18.0893],[79.2732,18.0511],[79.2616,18.0345],[79.2608,18.003],[79.2359,18.0034],[79.2329,17.9945],[79.2353,17.9858],[79.2633,17.9836],[79.2711,17.9786],[79.2733,17.9546],[79.3078,17.9492],[79.336,17.9384],[79.3428,17.9212],[79.3536,17.9208],[79.3904,17.9005],[79.4201,17.896],[79.4374,17.9132],[79.4486,17.9087],[79.4491,17.879],[79.464,17.8752],[79.478,17.8928],[79.4875,17.8877],[79.4928,17.8686],[79.5051,17.8597],[79.4928,17.8414],[79.4909,17.8211],[79.5146,17.8189],[79.5142,17.7949],[79.5542,17.7872],[79.5646,17.7954],[79.5592,17.8078],[79.5863,17.8156],[79.5941,17.8232],[79.6136,17.8211],[79.6216,17.8288],[79.6145,17.85],[79.6172,17.8685],[79.5898,17.8831],[79.5936,17.8974],[79.5829,17.9002],[79.5591,17.9177],[79.5543,17.9295],[79.5663,17.9387],[79.569,17.9607],[79.5753,17.9752],[79.5882,17.9854],[79.5949,17.9999],[79.5945,18.0298],[79.6208,18.0397],[79.651,18.0422],[79.6717,18.0271],[79.6784,18.0076],[79.7065,17.9969],[79.7308,18.0052],[79.745,18.0233],[79.7496,18.0577],[79.777,18.0543],[79.7921,18.045],[79.7924,18.0638],[79.7856,18.0735],[79.8093,18.0763],[79.8145,18.0919],[79.8198,18.1131],[79.842,18.1325]]]},"properties":{"district":"HANUMAKONDA"}},
{"type":"Feature","geometry":{"type":"Polygon","coordinates":[[[78.5409,17.3717],[78.5268,17.3815],[78.5295,17.4371],[78.5178,17.4407],[78.5231,17.4815],[78.5004,17.4833],[78.4939,17.459],[78.4764,17.4623],[78.4638,17.4493],[78.4321,17.4513],[78.409,17.4418],[78.4003,17.4238],[78.4039,17.4085],[78.3946,17.4038],[78.3951,17.386],[78.3881,17.3711],[78.4288,17.3718],[78.4269,17.3392],[78.4401,17.3366],[78.4517,17.3239],[78.4602,17.299],[78.4774,17.318],[78.502,17.3223],[78.5074,17.3414],[78.5409,17.3717]]]},"properties":{"district":"HYDERABAD"}},
{"type":"Feature","geometry":{"type":"Polygon","coordinates":[[[79.3075,18.8154],[79.2689,18.8299],[79.2491,18.8532],[79.2343,18.8607],[79.1821,18.8687],[79.1495,18.907],[79.1305,18.9218],[79.1068,18.947],[79.1042,18.9682],[79.0923,18.9893],[79.0908,19.0092],[79.0812,19.032],[79.0639,19.0509],[79.0371,19.063],[79.022,19.0757],[78.9881,19.0721],[78.9532,19.0771],[78.9476,19.0728],[78.9314,19.0571],[78.9176,19.0342],[78.8999,19.0354],[78.8739,19.0558],[78.8452,19.0703],[78.8355,19.0684],[78.8211,19.0489],[78.7982,19.048],[78.7705,19.0291],[78.7678,19.0154],[78.7576,19.0111],[78.701,19.0361],[78.6668,19.0159],[78.6562,18.9979],[78.6357,18.9779],[78.6064,18.9855],[78.588,19.0051],[78.5672,18.9887],[78.5544,18.9737],[78.5475,18.946],[78.537,18.946],[78.528,18.9427],[78.5142,18.8925],[78.536,18.8846],[78.5413,18.8609],[78.54,18.8458],[78.5481,18.8307],[78.5419,18.8181],[78.5636,18.7789],[78.5544,18.7653],[78.5528,18.7427],[78.5712,18.7385],[78.5817,18.723],[78.6175,18.7298],[78.6372,18.7233],[78.6408,18.7019],[78.6334,18.6835],[78.6528,18.6387],[78.6699,18.6233],[78.7061,18.6411],[78.7186,18.6337],[78.7487,18.6314],[78.7599,18.6194],[78.7916,18.6208],[78.8124,18.6046],[78.8552,18.5874],[78.8737,18.5867],[78.8933,18.5971],[78.9015,18.5777],[78.9163,18.5753],[78.9288,18.5662],[78.9388,18.5837],[78.9571,18.5767],[78.9894,18.5739],[78.9677,18.609],[78.9808,18.6434],[78.982,18.6612],[78.9892,18.6728],[79.0123,18.6748],[79.018,18.6588],[79.0359,18.6446],[79.0641,18.6548],[79.0863,18.6459],[79.104,18.6504],[79.1184,18.663],[79.1254,18.6862],[79.1134,18.7071],[79.1345,18.7133],[79.1503,18.7256],[79.1629,18.7557],[79.23,18.7494],[79.2566,18.7647],[79.2815,18.7432],[79.2948,18.7448],[79.2899,18.7634],[79.3075,18.8154]]]},"properties":{"district":"JAGTIAL"}},
{"type":"Feature","geometry":{"type":"Polygon","coordinates":[[[79.2329,17.9945],[79.1891,17.9995],[79.1842,17.9939],[79.1535,17.992],[79.139,17.9781],[79.1435,17.9656],[79.1315,17.9468],[79.1218,17.9416],[79.1023,17.9139],[79.1133,17.906],[79.1033,17.8857],[79.0921,17.8732],[79.0727,17.8754],[79.0554,17.8696],[79.0202,17.8761],[79.002,17.8563],[78.9601,17.8659],[78.9456,17.8794],[78.9211,17.8731],[78.9165,17.8546],[78.9056,17.8446],[78.8887,17.8416],[78.8784,17.8264],[78.8677,17.8254],[78.8681,17.8086],[78.8997,17.8051],[78.9071,17.8125],[78.9213,17.8024],[78.9379,17.798],[78.9468,17.7887],[78.9761,17.7946],[78.9906,17.7938],[79.0013,17.7708],[78.9959,17.7509],[79.0048,17.7371],[79.0334,17.7082],[79.0458,17.7258],[79.0706,17.7184],[79.0826,17.7107],[79.1015,17.6765],[79.1233,17.6686],[79.1348,17.6431],[79.1537,17.6136],[79.1556,17.5865],[79.1674,17.5754],[79.1778,17.5835],[79.2054,17.6239],[79.2195,17.6075],[79.2129,17.5942],[79.2234,17.5833],[79.2312,17.5632],[79.2565,17.559],[79.2755,17.5798],[79.2891,17.5692],[79.2971,17.5549],[79.3128,17.5507],[79.3227,17.528],[79.3417,17.5213],[79.363,17.5205],[79.3789,17.5114],[79.4125,17.4988],[79.4246,17.5027],[79.4302,17.5169],[79.4534,17.5117],[79.4724,17.5146],[79.4851,17.5101],[79.5009,17.4962],[79.5168,17.4942],[79.5235,17.5072],[79.5416,17.527],[79.5357,17.5348],[79.5321,17.5578],[79.5164,17.5598],[79.5107,17.5865],[79.5385,17.5997],[79.5541,17.5973],[79.5632,17.6187],[79.5458,17.6301],[79.5243,17.6336],[79.5222,17.6614],[79.4986,17.6614],[79.4813,17.6748],[79.4895,17.6989],[79.481,17.7053],[79.5042,17.7242],[79.4972,17.736],[79.481,17.7452],[79.4887,17.754],[79.5054,17.7509],[79.5146,17.7741],[79.5142,17.7949],[79.5146,17.8189],[79.4909,17.8211],[79.4928,17.8414],[79.5051,17.8597],[79.4928,17.8686],[79.4875,17.8877],[79.478,17.8928],[79.464,17.8752],[79.4491,17.879],[79.4486,17.9087],[79.4374,17.9132],[79.4201,17.896],[79.3904,17.9005],[79.3536,17.9208],[79.3428,17.9212],[79.336,17.9384],[79.3078,17.9492],[79.2733,17.9546],[79.2711,17.9786],[79.2633,17.9836],[79.2353,17.9858],[79.2329,17.9945]]]},"properties":{"district":"JANGOAN"}},
{"type":"Feature","geometry":{"type":"Polygon","coordinates":[[[79.914,18.8259],[79.8896,18.8257],[79.8702,18.8331],[79.8587,18.8592],[79.8502,18.8689],[79.8344,18.8666],[79.8268,18.8522],[79.8273,18.8242],[79.848,18.7988],[79.8423,18.7793],[79.8202,18.7591],[79.8244,18.7244],[79.8072,18.7049],[79.8302,18.6811],[79.8308,18.6559],[79.8042,18.6213],[79.8018,18.606],[79.7834,18.5687],[79.7519,18.5736],[79.7248,18.5736],[79.712,18.5608],[79.7057,18.5207],[79.6681,18.4793],[79.6422,18.4755],[79.6229,18.4864],[79.6121,18.4636],[79.6026,18.4745],[79.591,18.462],[79.5905,18.45],[79.5671,18.4239],[79.5783,18.409],[79.5755,18.3591],[79.5795,18.3487],[79.5739,18.317],[79.5598,18.3],[79.5672,18.2749],[79.5631,18.2628],[79.5821,18.2566],[79.5974,18.2628],[79.6204,18.2624],[79.6351,18.2765],[79.6525,18.2525],[79.6707,18.2553],[79.6971,18.2777],[79.7042,18.272],[79.6953,18.2509],[79.7074,18.2452],[79.7238,18.2087],[79.724,18.1944],[79.744,18.1773],[79.7537,18.1743],[79.7798,18.1901],[79.8035,18.1831],[79.8092,18.1567],[79.8183,18.1406],[79.842,18.1325],[79.8587,18.1502],[79.8445,18.158],[79.8364,18.1858],[79.8631,18.2029],[79.8445,18.2128],[79.8432,18.2221],[79.8723,18.2774],[79.8876,18.2889],[79.8951,18.3184],[79.9446,18.3184],[79.9539,18.3395],[79.9492,18.3446],[79.9561,18.3688],[79.9674,18.3792],[79.9688,18.3908],[79.9902,18.3865],[80.0423,18.4043],[80.0573,18.4016],[80.0736,18.3883],[80.0841,18.3947],[80.098,18.385],[80.1124,18.3925],[80.1274,18.388],[80.1352,18.3775],[80.1726,18.3494],[80.2167,18.3895],[80.2244,18.4273],[80.2295,18.5533],[80.2692,18.589],[80.3043,18.588],[80.3446,18.5972],[80.3342,18.6134],[80.3272,18.6357],[80.3189,18.6418],[80.306,18.6825],[80.2808,18.7203],[80.2724,18.7235],[80.2522,18.7068],[80.2304,18.7018],[80.2185,18.7079],[80.1994,18.6909],[80.1966,18.6808],[80.1787,18.6833],[80.1705,18.6973],[80.1558,18.7006],[80.1251,18.6819],[80.1122,18.6829],[80.0878,18.7077],[80.074,18.711],[80.0553,18.7236],[80.0361,18.7547],[80.0268,18.7543],[80.0188,18.7701],[79.9732,18.7718],[79.9214,18.8097],[79.914,18.8259]]]},"properties":{"district":"JAYASHANKAR BHUPALPALLI"}},
{"type":"Feature","geometry":{"type":"Polygon","coordinates":[[[77.6648,16.364],[77.6426,16.3639],[77.5952,16.3425],[77.5882,16.3328],[77.5956,16.3168],[77.582,16.2913],[77.5688,16.3033],[77.5451,16.2917],[77.5384,16.2709],[77.5219,16.278],[77.5048,16.2758],[77.5012,16.2616],[77.4901,16.2553],[77.4923,16.2293],[77.4998,16.2178],[77.4993,16.1978],[77.4921,16.1865],[77.4898,16.1196],[77.5009,16.1062],[77.4938,16.0872],[77.5069,16.079],[77.494,16.037],[77.5141,16.0081],[77.5096,15.9803],[77.5198,15.9669],[77.5134,15.9268],[77.5491,15.9194],[77.5818,15.9186],[77.5985,15.9127],[77.6129,15.9178],[77.6376,15.8958],[77.6575,15.8862],[77.6946,15.884],[77.7128,15.8948],[77.7314,15.894],[77.7477,15.8856],[77.7696,15.8858],[77.7824,15.8765],[77.8036,15.8745],[77.8375,15.8851],[77.8606,15.885],[77.8783,15.9055],[77.8904,15.9061],[77.9388,15.8834],[77.9754,15.8837],[77.997,15.8666],[78.0089,15.8651],[78.0256,15.9027],[78.045,15.9045],[78.0469,15.8752],[78.0716,15.8621],[78.0714,15.8507],[78.0836,15.8412],[78.1341,15.8366],[78.1407,15.8543],[78.1679,15.8553],[78.1754,15.8584],[78.1766,15.8763],[78.1897,15.8931],[78.1795,15.9023],[78.1871,15.912],[78.2267,15.9225],[78.251,15.9348],[78.2537,15.9429],[78.2513,15.9754],[78.2404,15.9553],[78.2215,15.9442],[78.2005,15.9437],[78.1598,15.9486],[78.1467,15.9626],[78.1396,15.9932],[78.1251,16.0023],[78.1136,16.0023],[78.0695,16.0146],[78.0466,16.0329],[78.0265,16.0626],[77.9939,16.0876],[77.9728,16.0962],[77.9467,16.1196],[77.9412,16.1371],[77.9426,16.1526],[77.9312,16.1751],[77.93,16.1964],[77.9124,16.2131],[77.8933,16.2238],[77.8569,16.251],[77.8432,16.2583],[77.8124,16.2833],[77.7765,16.3062],[77.7288,16.332],[77.7033,16.3376],[77.6852,16.3485],[77.6776,16.3608],[77.6648,16.364]]]},"properties":{"district":"JOGULAMBA GADWAL"}},
{"type":"Feature","geometry":{"type":"Polygon","coordinates":[[[77.7385,18.5568],[77.7233,18.5533],[77.7016,18.5552],[77.6649,18.536],[77.6514,18.5323],[77.6521,18.5518],[77.6396,18.5549],[77.5964,18.5489],[77.6004,18.5273],[77.5859,18.504],[77.6047,18.4964],[77.5923,18.4847],[77.5764,18.4868],[77.5729,18.4698],[77.5836,18.4562],[77.5836,18.4451],[77.5602,18.4373],[77.548,18.4432],[77.5285,18.4434],[77.5282,18.4289],[77.5567,18.4192],[77.5516,18.3889],[77.5255,18.3727],[77.5203,18.3579],[77.5316,18.3387],[77.558,18.3314],[77.5705,18.3181],[77.571,18.3085],[77.5514,18.2919],[77.5516,18.2919],[77.555,18.29],[77.5571,18.2877],[77.5589,18.2864],[77.5594,18.2861],[77.56,18.2858],[77.5613,18.2849],[77.5621,18.2848],[77.5626,18.2849],[77.5633,18.2852],[77.5647,18.2859],[77.5669,18.2873],[77.5693,18.2903],[77.5715,18.2931],[77.5726,18.2933],[77.5734,18.2927],[77.5751,18.29],[77.5762,18.2887],[77.5778,18.2877],[77.5784,18.2875],[77.5786,18.2874],[77.5804,18.2863],[77.5818,18.2854],[77.5864,18.2846],[77.589,18.2841],[77.5939,18.2834],[77.5963,18.2828],[77.6054,18.2813],[77.6049,18.2796],[77.6047,18.2793],[77.6041,18.2787],[77.6037,18.2786],[77.6025,18.2785],[77.6018,18.2782],[77.6012,18.2776],[77.601,18.2774],[77.6009,18.2768],[77.6005,18.2759],[77.6014,18.2759],[77.6196,18.2748],[77.6252,18.2838],[77.6651,18.2837],[77.6882,18.2604],[77.7197,18.2604],[77.7294,18.25],[77.7289,18.2355],[77.7432,18.2239],[77.7421,18.2055],[77.7585,18.2022],[77.7694,18.1889],[77.7966,18.2049],[77.8146,18.196],[77.853,18.2073],[77.8635,18.1932],[77.882,18.1871],[77.8965,18.1894],[77.9003,18.1733],[77.901,18.1653],[77.9043,18.1526],[77.9059,18.1444],[77.9244,18.1329],[77.9103,18.1219],[77.9225,18.1139],[77.9184,18.0994],[77.9271,18.0977],[77.9398,18.112],[77.9739,18.1151],[77.9952,18.1072],[78.002,18.0876],[78.0537,18.0792],[78.0677,18.0704],[78.0917,18.068],[78.1012,18.0907],[78.1157,18.0876],[78.1163,18.0736],[78.1452,18.0698],[78.1516,18.0831],[78.1797,18.0978],[78.177,18.1185],[78.1799,18.1351],[78.1693,18.1533],[78.1689,18.1675],[78.1807,18.2048],[78.1933,18.2065],[78.2066,18.2177],[78.2153,18.2125],[78.2219,18.1828],[78.2296,18.1709],[78.2487,18.1556],[78.257,18.1398],[78.2779,18.1434],[78.3139,18.1793],[78.3128,18.2026],[78.3325,18.1964],[78.3379,18.1803],[78.3579,18.1721],[78.3745,18.1449],[78.3831,18.1247],[78.4119,18.1309],[78.4226,18.1521],[78.4332,18.1631],[78.4463,18.1408],[78.4416,18.1303],[78.4582,18.1209],[78.4799,18.1263],[78.4834,18.1419],[78.5015,18.1748],[78.5197,18.1723],[78.522,18.1826],[78.5359,18.1868],[78.5445,18.18],[78.5661,18.1763],[78.5689,18.1852],[78.5615,18.2067],[78.5676,18.2228],[78.5522,18.2597],[78.5213,18.2791],[78.5239,18.2881],[78.5412,18.3001],[78.5373,18.3178],[78.5495,18.3364],[78.5337,18.3604],[78.5316,18.3877],[78.563,18.3857],[78.5447,18.4077],[78.5419,18.4207],[78.5534,18.4287],[78.5434,18.46],[78.5302,18.4657],[78.5083,18.4529],[78.4921,18.438],[78.4678,18.4477],[78.4644,18.4606],[78.4436,18.4788],[78.4247,18.4752],[78.3989,18.4822],[78.3838,18.4542],[78.3632,18.4547],[78.3434,18.464],[78.3167,18.4654],[78.3073,18.4542],[78.2598,18.4529],[78.2495,18.487],[78.225,18.4911],[78.2169,18.4992],[78.186,18.5074],[78.1729,18.498],[78.1597,18.4775],[78.135,18.4825],[78.1081,18.4926],[78.1024,18.5052],[78.075,18.5148],[78.0396,18.5176],[78.0379,18.4651],[78.0222,18.4364],[77.9749,18.4465],[77.9815,18.4587],[77.9709,18.4745],[77.9376,18.4917],[77.8907,18.4928],[77.8641,18.5082],[77.8512,18.5034],[77.8375,18.5067],[77.7998,18.5012],[77.7834,18.5044],[77.7568,18.5027],[77.762,18.524],[77.7569,18.5363],[77.7385,18.5568]]]},"properties":{"district":"KAMAREDDY"}},
{"type":"Feature","geometry":{"type":"Polygon","coordinates":[[[79.1184,18.663],[79.104,18.6504],[79.0863,18.6459],[79.0641,18.6548],[79.0359,18.6446],[79.018,18.6588],[79.0123,18.6748],[78.9892,18.6728],[78.982,18.6612],[78.9808,18.6434],[78.9677,18.609],[78.9894,18.5739],[78.9571,18.5767],[78.949,18.5539],[78.9606,18.5349],[78.9541,18.5134],[78.9818,18.4968],[78.9915,18.4409],[78.9802,18.4416],[78.9741,18.4274],[78.9864,18.4172],[79.0054,18.3868],[79.0247,18.3662],[79.0113,18.3456],[79.0204,18.3307],[79.0366,18.3444],[79.053,18.3429],[79.072,18.3162],[79.0615,18.302],[79.0704,18.285],[79.1173,18.2887],[79.1198,18.277],[79.1337,18.2713],[79.1203,18.2554],[79.1233,18.2431],[79.1085,18.2373],[79.1134,18.2149],[79.1285,18.2146],[79.1372,18.2063],[79.1466,18.1707],[79.1625,18.1572],[79.1878,18.1702],[79.2123,18.1616],[79.2106,18.1749],[79.2291,18.1814],[79.2422,18.1786],[79.2509,18.1542],[79.2874,18.1535],[79.3012,18.13],[79.3139,18.1342],[79.3273,18.1482],[79.3463,18.1468],[79.3656,18.1398],[79.3794,18.1567],[79.3969,18.148],[79.4009,18.1611],[79.4192,18.1692],[79.4277,18.1572],[79.462,18.1644],[79.4611,18.1873],[79.4733,18.2197],[79.4738,18.2299],[79.4915,18.2294],[79.5214,18.2409],[79.5347,18.2352],[79.5503,18.2478],[79.5519,18.2678],[79.5631,18.2628],[79.5672,18.2749],[79.5598,18.3],[79.5739,18.317],[79.5795,18.3487],[79.5755,18.3591],[79.5783,18.409],[79.5671,18.4239],[79.5337,18.3999],[79.5066,18.3992],[79.4828,18.3854],[79.4601,18.3929],[79.4439,18.4081],[79.4187,18.4201],[79.3733,18.4351],[79.327,18.4715],[79.2978,18.4824],[79.28,18.479],[79.2486,18.4533],[79.2366,18.4476],[79.2289,18.4569],[79.2158,18.4911],[79.2155,18.5347],[79.2278,18.5466],[79.2303,18.5662],[79.2053,18.5779],[79.2044,18.5952],[79.1862,18.6087],[79.1762,18.6544],[79.1598,18.6469],[79.1467,18.6635],[79.1184,18.663]]]},"properties":{"district":"KARIMNAGAR"}},
{"type":"Feature","geometry":{"type":"Polygon","coordinates":[[[80.9188,17.22],[80.9009,17.2227],[80.8653,17.2358],[80.8756,17.2638],[80.8689,17.2832],[80.8722,17.3218],[80.8622,17.3482],[80.8599,17.3647],[80.8451,17.3673],[80.8286,17.3612],[80.8128,17.3371],[80.7787,17.3373],[80.7747,17.3085],[80.761,17.3139],[80.7485,17.2913],[80.7273,17.2884],[80.7224,17.3053],[80.6967,17.289],[80.6773,17.2964],[80.6606,17.2971],[80.6512,17.2816],[80.6561,17.2705],[80.6495,17.2501],[80.6281,17.2573],[80.605,17.2567],[80.5965,17.2882],[80.5773,17.287],[80.5725,17.2652],[80.547,17.2753],[80.5156,17.2593],[80.4993,17.2669],[80.4894,17.2582],[80.4787,17.2648],[80.4672,17.3031],[80.4715,17.315],[80.4998,17.3169],[80.5073,17.3263],[80.4986,17.3419],[80.5012,17.3666],[80.4795,17.3748],[80.4773,17.3858],[80.4496,17.403],[80.4474,17.4112],[80.4297,17.4111],[80.4062,17.4211],[80.3851,17.4147],[80.4018,17.4597],[80.4309,17.4977],[80.4074,17.512],[80.3968,17.5282],[80.3711,17.5051],[80.361,17.501],[80.3605,17.4864],[80.3465,17.4852],[80.3472,17.5092],[80.3397,17.5202],[80.3436,17.5351],[80.356,17.5312],[80.3685,17.5678],[80.3461,17.5678],[80.324,17.5609],[80.3049,17.5698],[80.2857,17.5711],[80.293,17.5547],[80.281,17.5411],[80.2473,17.562],[80.2302,17.5524],[80.2019,17.5581],[80.2049,17.5456],[80.2283,17.5306],[80.2249,17.4963],[80.2166,17.4753],[80.1953,17.4708],[80.2032,17.442],[80.1702,17.4376],[80.1625,17.4203],[80.1607,17.3768],[80.1437,17.3939],[80.129,17.3804],[80.1127,17.3735],[80.1084,17.3587],[80.0858,17.3671],[80.0573,17.3465],[79.9925,17.3641],[79.9926,17.3973],[79.98,17.4059],[79.9565,17.3959],[79.9366,17.3951],[79.9404,17.3822],[79.9302,17.3725],[79.9031,17.3759],[79.8913,17.3533],[79.8819,17.357],[79.8754,17.3305],[79.8315,17.3359],[79.8037,17.3245],[79.8015,17.313],[79.8305,17.2705],[79.8392,17.2792],[79.8681,17.2623],[79.8895,17.2596],[79.9022,17.2466],[79.8959,17.2296],[79.9019,17.2118],[79.8862,17.2094],[79.8766,17.1939],[79.8811,17.1739],[79.8989,17.1556],[79.9125,17.1489],[79.9182,17.1299],[79.9327,17.1285],[79.9462,17.1353],[79.9621,17.1247],[79.9857,17.0965],[79.9954,17.0773],[80.0407,17.0484],[80.0369,17.0244],[80.0529,17.0103],[80.0606,16.9844],[80.0554,16.9714],[80.0915,16.9684],[80.0952,16.9907],[80.1088,16.9873],[80.1402,16.9906],[80.1533,17.0069],[80.1678,17.0056],[80.1702,17.0168],[80.1873,17.02],[80.1965,17.044],[80.2041,17.0383],[80.202,17.0173],[80.2153,17.0091],[80.2288,17.0147],[80.2404,17.0024],[80.2649,16.9975],[80.2836,17.0075],[80.2945,16.9953],[80.2903,16.9814],[80.3066,16.9741],[80.305,16.954],[80.3132,16.941],[80.3156,16.9158],[80.325,16.9003],[80.3217,16.8796],[80.344,16.8744],[80.3409,16.86],[80.3741,16.8524],[80.3737,16.8307],[80.3789,16.8191],[80.3997,16.8338],[80.4078,16.849],[80.3835,16.85],[80.3803,16.8639],[80.4273,16.8499],[80.4347,16.8373],[80.4661,16.8166],[80.4645,16.7954],[80.4868,16.7909],[80.5044,16.7787],[80.5266,16.7746],[80.5516,16.775],[80.5702,16.768],[80.6053,16.798],[80.594,16.8032],[80.5774,16.8236],[80.5628,16.8331],[80.5702,16.8495],[80.5682,16.8696],[80.5767,16.8786],[80.5956,16.8845],[80.5946,16.8996],[80.6021,16.9187],[80.58,16.9371],[80.5347,16.9617],[80.5261,16.9479],[80.4985,16.9557],[80.4934,16.9277],[80.4497,16.955],[80.4077,16.964],[80.3714,16.9758],[80.3879,17.0093],[80.407,17.0158],[80.4075,17.0258],[80.3958,17.0357],[80.3872,17.0716],[80.4094,17.0918],[80.4171,17.0737],[80.432,17.0552],[80.4386,17.0379],[80.4648,17.0303],[80.4714,17.0506],[80.4909,17.0512],[80.5054,17.0687],[80.5141,17.1223],[80.5276,17.1192],[80.5495,17.1316],[80.5639,17.134],[80.58,17.1533],[80.6066,17.1353],[80.6369,17.1284],[80.6419,17.116],[80.6706,17.1012],[80.6571,17.0896],[80.6499,17.0716],[80.6664,17.0678],[80.6949,17.0744],[80.6994,17.0838],[80.7368,17.0777],[80.765,17.0666],[80.7971,17.0618],[80.8288,17.0528],[80.8453,17.04],[80.8569,17.0478],[80.8715,17.0698],[80.8683,17.0837],[80.8763,17.1049],[80.8683,17.1205],[80.8783,17.1351],[80.8794,17.1608],[80.9047,17.1546],[80.924,17.1585],[80.9262,17.1843],[80.9189,17.1905],[80.9188,17.22]]]},"properties":{"district":"KHAMMAM"}},
{"type":"Feature","geometry":{"type":"Polygon","coordinates":[[[78.9405,19.552],[78.9503,19.5334],[78.9422,19.514],[78.9776,19.4925],[78.9577,19.4737],[78.9269,19.4623],[78.9146,19.4736],[78.9029,19.4735],[78.8845,19.4456],[78.8508,19.4456],[78.8414,19.4341],[78.8445,19.4227],[78.8218,19.3972],[78.815,19.381],[78.8248,19.3748],[78.8542,19.3687],[78.8576,19.329],[78.8739,19.3295],[78.8765,19.3207],[78.8921,19.3194],[78.8836,19.296],[78.8836,19.2747],[78.898,19.2855],[78.9276,19.2657],[78.9425,19.2521],[78.9533,19.2499],[78.9667,19.2443],[78.9788,19.2301],[78.991,19.2361],[78.9986,19.2206],[79.0144,19.2143],[79.0578,19.2088],[79.07,19.1875],[79.0928,19.1789],[79.1365,19.1286],[79.1352,19.1116],[79.1528,19.0912],[79.1903,19.0842],[79.2031,19.0669],[79.2238,19.0495],[79.2261,19.0333],[79.2443,19.0301],[79.2624,19.042],[79.2738,19.0601],[79.2769,19.1169],[79.3039,19.0953],[79.3161,19.0926],[79.3171,19.1261],[79.3262,19.1442],[79.3205,19.165],[79.3347,19.1691],[79.351,19.1926],[79.3488,19.2192],[79.3694,19.2072],[79.3873,19.2065],[79.4196,19.1963],[79.438,19.1799],[79.4623,19.1718],[79.478,19.1837],[79.4807,19.2016],[79.504,19.2034],[79.5478,19.2025],[79.5489,19.2133],[79.5303,19.2349],[79.5321,19.2535],[79.5424,19.2634],[79.5605,19.2587],[79.5792,19.2688],[79.5991,19.274],[79.6184,19.2719],[79.6226,19.2559],[79.6379,19.2608],[79.6504,19.2306],[79.6629,19.2183],[79.6792,19.2257],[79.6761,19.1992],[79.6991,19.2003],[79.7097,19.2077],[79.7295,19.1889],[79.7516,19.1824],[79.7608,19.19],[79.7873,19.1841],[79.7838,19.1618],[79.7992,19.1518],[79.8148,19.1515],[79.8335,19.1585],[79.8387,19.1689],[79.8743,19.1734],[79.8845,19.1645],[79.9095,19.1614],[79.9246,19.1651],[79.9311,19.1556],[79.9446,19.1671],[79.9424,19.1842],[79.9242,19.2155],[79.9248,19.2277],[79.9364,19.2641],[79.9659,19.311],[79.9591,19.3359],[79.9772,19.3942],[79.9747,19.411],[79.9476,19.4497],[79.9439,19.4707],[79.9336,19.4755],[79.9171,19.4938],[79.9055,19.5],[79.8809,19.5036],[79.8638,19.5112],[79.8441,19.5337],[79.8322,19.539],[79.8163,19.574],[79.8045,19.5799],[79.7786,19.5997],[79.7534,19.6075],[79.7352,19.605],[79.7144,19.5869],[79.6753,19.5797],[79.6322,19.5751],[79.6148,19.5608],[79.6005,19.5095],[79.584,19.5091],[79.5508,19.5267],[79.5455,19.5504],[79.5399,19.5547],[79.5186,19.5431],[79.5186,19.5202],[79.5008,19.5074],[79.469,19.5096],[79.4333,19.5373],[79.42,19.5299],[79.4055,19.5355],[79.386,19.558],[79.3728,19.561],[79.3657,19.5763],[79.3183,19.5767],[79.3068,19.5966],[79.2729,19.5988],[79.2511,19.6159],[79.2386,19.6062],[79.2531,19.5933],[79.251,19.5775],[79.2371,19.5571],[79.24,19.5352],[79.2337,19.52],[79.2212,19.521],[79.2075,19.5061],[79.2044,19.4905],[79.2224,19.4676],[79.1897,19.4591],[79.1675,19.4728],[79.1618,19.4878],[79.1357,19.5062],[79.1054,19.5224],[79.096,19.5327],[79.0769,19.5324],[79.046,19.5483],[79.024,19.5418],[78.998,19.5401],[78.9976,19.5492],[78.9813,19.5608],[78.9724,19.5503],[78.9405,19.552]]]},"properties":{"district":"KOMARRAM BHEEM"}},
{"type":"Feature","geometry":{"type":"Polygon","coordinates":[[[80.3162,17.996],[80.3046,18],[80.284,17.9977],[80.2588,18.0159],[80.233,18.0399],[80.1858,18.0625],[80.1642,18.0807],[80.1495,18.0838],[80.1449,18.0949],[80.1132,18.0828],[80.1007,18.0819],[80.0813,18.0707],[80.055,18.0851],[80.0362,18.1154],[80.0181,18.117],[79.9919,18.1075],[79.9812,18.0606],[79.9849,18.0538],[79.9794,18.0202],[79.9922,17.9996],[79.9864,17.9917],[79.988,17.9694],[79.9835,17.942],[79.9944,17.9158],[79.9887,17.9048],[79.994,17.8917],[79.9754,17.8614],[79.9526,17.8604],[79.9516,17.8441],[79.9394,17.841],[79.9307,17.8184],[79.9089,17.8125],[79.8756,17.8085],[79.8834,17.7794],[79.9029,17.7641],[79.9037,17.7469],[79.8934,17.7301],[79.8721,17.7393],[79.8636,17.7196],[79.8236,17.7132],[79.819,17.6993],[79.8054,17.7002],[79.791,17.7088],[79.7713,17.6972],[79.7714,17.6891],[79.7498,17.6879],[79.7158,17.6982],[79.7141,17.6838],[79.6899,17.6839],[79.6777,17.6493],[79.6614,17.6495],[79.6538,17.6261],[79.6163,17.6211],[79.6139,17.6362],[79.5777,17.6285],[79.5632,17.6187],[79.5541,17.5973],[79.5385,17.5997],[79.5107,17.5865],[79.5164,17.5598],[79.5321,17.5578],[79.5357,17.5348],[79.5416,17.527],[79.5539,17.5085],[79.57,17.5022],[79.6208,17.5005],[79.6392,17.4866],[79.6587,17.488],[79.6565,17.471],[79.711,17.4451],[79.7304,17.4284],[79.7436,17.4291],[79.752,17.4398],[79.762,17.4299],[79.7621,17.4082],[79.7931,17.3969],[79.7914,17.3839],[79.7777,17.3692],[79.7962,17.3542],[79.7928,17.3263],[79.8037,17.3245],[79.8315,17.3359],[79.8754,17.3305],[79.8819,17.357],[79.8913,17.3533],[79.9031,17.3759],[79.9302,17.3725],[79.9404,17.3822],[79.9366,17.3951],[79.9565,17.3959],[79.98,17.4059],[79.9926,17.3973],[79.9925,17.3641],[80.0573,17.3465],[80.0858,17.3671],[80.1084,17.3587],[80.1127,17.3735],[80.129,17.3804],[80.1437,17.3939],[80.1607,17.3768],[80.1625,17.4203],[80.1702,17.4376],[80.2032,17.442],[80.1953,17.4708],[80.2166,17.4753],[80.2249,17.4963],[80.2283,17.5306],[80.2049,17.5456],[80.2019,17.5581],[80.2231,17.6048],[80.2098,17.6137],[80.2068,17.6527],[80.2178,17.6601],[80.2367,17.6553],[80.2411,17.6922],[80.2499,17.7427],[80.2596,17.7509],[80.258,17.7775],[80.2478,17.8244],[80.2663,17.8533],[80.277,17.8813],[80.2778,17.9069],[80.2677,17.9259],[80.2685,17.9505],[80.275,17.9664],[80.2943,17.9645],[80.3105,17.9762],[80.3162,17.996]]]},"properties":{"district":"MAHABUBABAD"}},
{"type":"Feature","geometry":{"type":"Polygon","coordinates":[[[78.3486,16.786],[78.3333,16.7982],[78.3348,16.8062],[78.3229,16.8253],[78.3284,16.8517],[78.3163,16.8746],[78.3031,16.8802],[78.3016,16.9193],[78.2757,16.9235],[78.2719,16.9331],[78.2771,16.9564],[78.2406,16.9638],[78.2331,16.9406],[78.2195,16.9391],[78.1813,16.9737],[78.1859,16.9886],[78.1742,17.0084],[78.144,17.0127],[78.1364,16.9933],[78.1248,16.9867],[78.1003,16.9827],[78.0684,17.0057],[78.0578,17.0013],[78.0347,17.0106],[78.0099,17.001],[78.0106,16.9786],[77.9998,16.98],[77.987,16.9546],[78.0109,16.9499],[78.0057,16.9365],[78.0101,16.9239],[78.0087,16.9027],[77.9855,16.8982],[77.9802,16.8798],[77.989,16.864],[77.9775,16.8471],[77.967,16.8504],[77.937,16.8878],[77.9319,16.9071],[77.9033,16.9265],[77.8719,16.9285],[77.8843,16.959],[77.8696,16.9666],[77.8657,16.9533],[77.848,16.9518],[77.8436,16.9609],[77.8268,16.9659],[77.8252,16.9872],[77.7985,16.9992],[77.7629,17.003],[77.7575,16.9915],[77.7607,16.9742],[77.7404,16.9387],[77.7402,16.9207],[77.7461,16.911],[77.7397,16.8837],[77.7316,16.8737],[77.7343,16.8603],[77.7276,16.8517],[77.7438,16.8277],[77.7296,16.8114],[77.7354,16.7896],[77.7112,16.7931],[77.6796,16.7928],[77.6745,16.777],[77.6776,16.7581],[77.6969,16.7485],[77.7267,16.7517],[77.7453,16.7398],[77.7545,16.724],[77.749,16.694],[77.7677,16.6821],[77.774,16.6545],[77.7971,16.6334],[77.7988,16.6159],[77.7812,16.616],[77.7881,16.5785],[77.7786,16.565],[77.7493,16.5667],[77.7493,16.5515],[77.7646,16.5263],[77.7599,16.4807],[77.7395,16.4666],[77.7488,16.4434],[77.7463,16.4239],[77.7511,16.4039],[77.7543,16.4216],[77.7935,16.4222],[77.7908,16.4128],[77.8022,16.3979],[77.8172,16.3917],[77.8235,16.4076],[77.868,16.4266],[77.8639,16.4468],[77.9006,16.45],[77.9165,16.4427],[77.9242,16.4537],[77.9206,16.4638],[77.9311,16.4748],[77.9411,16.5018],[77.9859,16.5043],[77.9988,16.5318],[78.0202,16.5334],[78.014,16.5455],[77.9988,16.5534],[78.0039,16.5678],[78.022,16.5889],[78.0004,16.5947],[78.0013,16.6079],[78.0121,16.6171],[78.0255,16.6165],[78.0389,16.6257],[78.0689,16.6182],[78.0769,16.6091],[78.1252,16.5917],[78.1309,16.6271],[78.1503,16.6462],[78.1401,16.6611],[78.1447,16.6882],[78.1532,16.6995],[78.163,16.7292],[78.1832,16.7311],[78.1815,16.7108],[78.1983,16.7013],[78.2116,16.711],[78.2238,16.7413],[78.2379,16.7406],[78.2595,16.722],[78.2672,16.7098],[78.2794,16.7072],[78.2983,16.6904],[78.3184,16.683],[78.3498,16.6825],[78.3561,16.697],[78.3505,16.7087],[78.3619,16.727],[78.3714,16.7531],[78.3464,16.7732],[78.3486,16.786]]]},"properties":{"district":"MAHABUBNAGAR"}},
{"type":"Feature","geometry":{"type":"Polygon","coordinates":[[[79.9311,19.1556],[79.9246,19.1651],[79.9095,19.1614],[79.8845,19.1645],[79.8743,19.1734],[79.8387,19.1689],[79.8335,19.1585],[79.8148,19.1515],[79.7992,19.1518],[79.7838,19.1618],[79.7873,19.1841],[79.7608,19.19],[79.7516,19.1824],[79.7295,19.1889],[79.7097,19.2077],[79.6991,19.2003],[79.6761,19.1992],[79.6792,19.2257],[79.6629,19.2183],[79.6504,19.2306],[79.6379,19.2608],[79.6226,19.2559],[79.6184,19.2719],[79.5991,19.274],[79.5792,19.2688],[79.5605,19.2587],[79.5424,19.2634],[79.5321,19.2535],[79.5303,19.2349],[79.5489,19.2133],[79.5478,19.2025],[79.504,19.2034],[79.4807,19.2016],[79.478,19.1837],[79.4623,19.1718],[79.438,19.1799],[79.4196,19.1963],[79.3873,19.2065],[79.3694,19.2072],[79.3488,19.2192],[79.351,19.1926],[79.3347,19.1691],[79.3205,19.165],[79.3262,19.1442],[79.3171,19.1261],[79.3161,19.0926],[79.3039,19.0953],[79.2769,19.1169],[79.2738,19.0601],[79.2624,19.042],[79.2443,19.0301],[79.2261,19.0333],[79.2238,19.0495],[79.2031,19.0669],[79.1903,19.0842],[79.1528,19.0912],[79.1352,19.1116],[79.1365,19.1286],[79.0928,19.1789],[79.07,19.1875],[79.0578,19.2088],[79.0144,19.2143],[78.9986,19.2206],[78.991,19.2361],[78.9788,19.2301],[78.9667,19.2443],[78.9533,19.2499],[78.936,19.2284],[78.9353,19.2166],[78.9179,19.2016],[78.9182,19.1882],[78.8776,19.1604],[78.8881,19.1307],[78.8803,19.1135],[78.9029,19.094],[78.9211,19.1065],[78.9307,19.1186],[78.9409,19.1092],[78.9409,19.0803],[78.9476,19.0728],[78.9532,19.0771],[78.9881,19.0721],[79.022,19.0757],[79.0371,19.063],[79.0639,19.0509],[79.0812,19.032],[79.0908,19.0092],[79.0923,18.9893],[79.1042,18.9682],[79.1068,18.947],[79.1305,18.9218],[79.1495,18.907],[79.1821,18.8687],[79.2343,18.8607],[79.2491,18.8532],[79.2689,18.8299],[79.3075,18.8154],[79.335,18.815],[79.353,18.8198],[79.3758,18.8525],[79.395,18.8573],[79.4277,18.8508],[79.4648,18.8249],[79.4805,18.8175],[79.4981,18.7923],[79.5118,18.7846],[79.5283,18.7866],[79.561,18.7712],[79.6126,18.7388],[79.6334,18.7293],[79.651,18.7159],[79.663,18.691],[79.6859,18.6709],[79.7158,18.6854],[79.747,18.6822],[79.7682,18.6961],[79.7985,18.6971],[79.8072,18.7049],[79.8244,18.7244],[79.8202,18.7591],[79.8423,18.7793],[79.848,18.7988],[79.8273,18.8242],[79.8268,18.8522],[79.8344,18.8666],[79.8502,18.8689],[79.8587,18.8592],[79.8702,18.8331],[79.8896,18.8257],[79.914,18.8259],[79.9283,18.8409],[79.9425,18.8466],[79.9616,18.8666],[79.9537,18.9027],[79.9578,18.9362],[79.9416,18.9921],[79.9423,19.0125],[79.9383,19.0406],[79.9206,19.0497],[79.9017,19.0408],[79.8698,19.0422],[79.8584,19.0959],[79.8592,19.108],[79.8742,19.1243],[79.9311,19.1556]]]},"properties":{"district":"MANCHERIAL"}},
{"type":"Feature","geometry":{"type":"Polygon","coordinates":[[[78.5689,18.1852],[78.5661,18.1763],[78.5445,18.18],[78.5359,18.1868],[78.522,18.1826],[78.5197,18.1723],[78.5015,18.1748],[78.4834,18.1419],[78.4799,18.1263],[78.4582,18.1209],[78.4416,18.1303],[78.4463,18.1408],[78.4332,18.1631],[78.4226,18.1521],[78.4119,18.1309],[78.3831,18.1247],[78.3745,18.1449],[78.3579,18.1721],[78.3379,18.1803],[78.3325,18.1964],[78.3128,18.2026],[78.3139,18.1793],[78.2779,18.1434],[78.257,18.1398],[78.2487,18.1556],[78.2296,18.1709],[78.2219,18.1828],[78.2153,18.2125],[78.2066,18.2177],[78.1933,18.2065],[78.1807,18.2048],[78.1689,18.1675],[78.1693,18.1533],[78.1799,18.1351],[78.177,18.1185],[78.1797,18.0978],[78.1516,18.0831],[78.1452,18.0698],[78.1163,18.0736],[78.1157,18.0876],[78.1012,18.0907],[78.0917,18.068],[78.0677,18.0704],[78.0537,18.0792],[78.002,18.0876],[77.9952,18.1072],[77.9739,18.1151],[77.9398,18.112],[77.9271,18.0977],[77.9272,18.0966],[77.9128,18.0905],[77.9032,18.0685],[77.8978,18.0746],[77.854,18.0734],[77.8526,18.0525],[77.865,18.0221],[77.8545,18.0171],[77.8254,17.9871],[77.8203,17.9578],[77.8016,17.9492],[77.795,17.9259],[77.8192,17.9287],[77.8319,17.9002],[77.848,17.9031],[77.8604,17.9351],[77.8719,17.9476],[77.8837,17.9343],[77.9199,17.9251],[77.9283,17.9325],[77.9414,17.9139],[77.9345,17.8932],[77.9445,17.8892],[77.9726,17.8841],[77.994,17.8842],[78.0177,17.8892],[78.0325,17.8798],[78.0475,17.8929],[78.048,17.916],[78.0709,17.9207],[78.0785,17.9073],[78.0746,17.8678],[78.0942,17.8612],[78.0938,17.8328],[78.1004,17.8133],[78.1216,17.8068],[78.1335,17.8143],[78.1388,17.8272],[78.1458,17.8351],[78.148,17.8091],[78.1607,17.8155],[78.1749,17.8245],[78.1814,17.8295],[78.1664,17.8141],[78.1662,17.7898],[78.178,17.79],[78.2037,17.8031],[78.1994,17.7814],[78.1962,17.7639],[78.2043,17.7552],[78.2015,17.7363],[78.2185,17.7323],[78.2337,17.7355],[78.2343,17.7098],[78.2307,17.6933],[78.2838,17.6865],[78.2995,17.6804],[78.3061,17.6677],[78.3197,17.6636],[78.3245,17.6968],[78.3222,17.7045],[78.3129,17.7395],[78.3206,17.7439],[78.3607,17.7399],[78.3726,17.7238],[78.3744,17.7067],[78.396,17.6994],[78.4034,17.7177],[78.416,17.7328],[78.4358,17.7286],[78.4425,17.7206],[78.449,17.709],[78.4486,17.7082],[78.4722,17.6915],[78.4944,17.6951],[78.4992,17.6859],[78.5062,17.7196],[78.5255,17.7289],[78.5253,17.7519],[78.5109,17.7555],[78.5203,17.807],[78.5266,17.8128],[78.5311,17.8342],[78.5452,17.8369],[78.5618,17.857],[78.561,17.8772],[78.5778,17.8826],[78.5735,17.9012],[78.5554,17.8907],[78.5374,17.8879],[78.5249,17.897],[78.5434,17.9111],[78.5311,17.9299],[78.5418,17.9415],[78.5319,17.9502],[78.5368,17.9878],[78.5524,18.0042],[78.5603,18.0454],[78.5786,18.034],[78.5864,18.0643],[78.5699,18.0664],[78.5738,18.1101],[78.5478,18.1123],[78.5533,18.1437],[78.581,18.1634],[78.5689,18.1852]]]},"properties":{"district":"MEDAK"}},
{"type":"Feature","geometry":{"type":"Polygon","coordinates":[[[78.4992,17.6859],[78.4944,17.6951],[78.4722,17.6915],[78.4486,17.7082],[78.445,17.7006],[78.4208,17.6717],[78.395,17.6752],[78.3813,17.6426],[78.3911,17.6234],[78.3844,17.591],[78.3812,17.5797],[78.3552,17.5606],[78.3613,17.5518],[78.3491,17.5248],[78.3477,17.5227],[78.3718,17.519],[78.3822,17.509],[78.3741,17.4927],[78.3735,17.4783],[78.3938,17.4585],[78.3949,17.4485],[78.409,17.4418],[78.4321,17.4513],[78.4638,17.4493],[78.4764,17.4623],[78.4939,17.459],[78.5004,17.4833],[78.5231,17.4815],[78.5178,17.4407],[78.5295,17.4371],[78.5268,17.3815],[78.5409,17.3717],[78.5569,17.3615],[78.5714,17.3612],[78.5717,17.3829],[78.5803,17.39],[78.6353,17.3834],[78.6477,17.3857],[78.6607,17.3785],[78.6742,17.386],[78.6764,17.4001],[78.6922,17.404],[78.6986,17.3954],[78.7199,17.3998],[78.7286,17.3857],[78.7376,17.3863],[78.7409,17.4001],[78.7548,17.405],[78.7589,17.4306],[78.752,17.4441],[78.7607,17.4605],[78.7495,17.4707],[78.7247,17.4711],[78.7092,17.4765],[78.7074,17.4882],[78.7124,17.5209],[78.7016,17.5349],[78.6891,17.5625],[78.6766,17.5762],[78.6914,17.5847],[78.6917,17.6196],[78.7113,17.6355],[78.7113,17.6523],[78.7238,17.6684],[78.7085,17.6844],[78.6853,17.6885],[78.6695,17.6984],[78.6591,17.6974],[78.6502,17.6767],[78.6341,17.6692],[78.6144,17.6796],[78.5927,17.697],[78.5749,17.6954],[78.564,17.684],[78.5359,17.6966],[78.5138,17.6951],[78.4992,17.6859]]]},"properties":{"district":"MEDCHAL_MALKAJGIRI"}},
{"type":"Feature","geometry":{"type":"Polygon","coordinates":[[[80.7561,18.1683],[80.7369,18.1772],[80.7372,18.2221],[80.7927,18.2495],[80.7942,18.2596],[80.781,18.2657],[80.7691,18.2876],[80.7494,18.3077],[80.7477,18.33],[80.7322,18.3535],[80.73,18.3752],[80.7197,18.3911],[80.7326,18.4019],[80.6964,18.4239],[80.7017,18.4446],[80.6881,18.4474],[80.6862,18.4581],[80.6565,18.4748],[80.6368,18.507],[80.6376,18.5225],[80.6185,18.5277],[80.6078,18.5462],[80.591,18.5579],[80.5714,18.5647],[80.5556,18.5803],[80.5353,18.5905],[80.5147,18.6193],[80.4874,18.6311],[80.4649,18.624],[80.4582,18.6289],[80.4279,18.613],[80.3959,18.6049],[80.3676,18.6082],[80.3556,18.5946],[80.3446,18.5972],[80.3043,18.588],[80.2692,18.589],[80.2295,18.5533],[80.2244,18.4273],[80.2167,18.3895],[80.1726,18.3494],[80.1352,18.3775],[80.1274,18.388],[80.1124,18.3925],[80.098,18.385],[80.0841,18.3947],[80.0736,18.3883],[80.0573,18.4016],[80.0423,18.4043],[79.9902,18.3865],[79.9688,18.3908],[79.9674,18.3792],[79.9561,18.3688],[79.9492,18.3446],[79.9539,18.3395],[79.9446,18.3184],[79.8951,18.3184],[79.8876,18.2889],[79.8723,18.2774],[79.8432,18.2221],[79.8445,18.2128],[79.8631,18.2029],[79.8364,18.1858],[79.8445,18.158],[79.8587,18.1502],[79.842,18.1325],[79.8198,18.1131],[79.8145,18.0919],[79.827,18.0943],[79.8638,18.0935],[79.8872,18.0982],[79.8845,18.0857],[79.9363,18.0836],[79.9578,18.0895],[79.9802,18.112],[79.9919,18.1075],[80.0181,18.117],[80.0362,18.1154],[80.055,18.0851],[80.0813,18.0707],[80.1007,18.0819],[80.1132,18.0828],[80.1449,18.0949],[80.1495,18.0838],[80.1642,18.0807],[80.1858,18.0625],[80.233,18.0399],[80.2588,18.0159],[80.284,17.9977],[80.3046,18],[80.3162,17.996],[80.3411,18.0142],[80.3463,18.0364],[80.3919,18.0817],[80.431,18.0604],[80.4458,18.0669],[80.4812,18.06],[80.4961,18.0512],[80.5348,18.0609],[80.5437,18.054],[80.5585,18.0589],[80.5658,18.0509],[80.5857,18.0624],[80.6003,18.078],[80.6156,18.1047],[80.6351,18.1094],[80.6427,18.1255],[80.6234,18.1293],[80.6323,18.1424],[80.6548,18.1349],[80.6571,18.1437],[80.6473,18.156],[80.6599,18.1614],[80.6734,18.1825],[80.681,18.1661],[80.6926,18.1631],[80.7035,18.1376],[80.715,18.1259],[80.7383,18.0907],[80.7486,18.0983],[80.7487,18.1261],[80.7529,18.1369],[80.7561,18.1683]]]},"properties":{"district":"MULUGU"}},
{"type":"Feature","geometry":{"type":"Polygon","coordinates":[[[78.7573,16.7479],[78.7385,16.7576],[78.7171,16.7517],[78.6962,16.7658],[78.6824,16.7683],[78.6646,16.7607],[78.6507,16.7727],[78.6831,16.7891],[78.6826,16.8117],[78.6762,16.8243],[78.6654,16.8252],[78.6664,16.8027],[78.6321,16.7768],[78.616,16.7842],[78.6159,16.7945],[78.5908,16.7964],[78.5706,16.8064],[78.5604,16.8184],[78.5361,16.8215],[78.4827,16.8213],[78.477,16.8139],[78.4716,16.7779],[78.4344,16.7785],[78.4133,16.7983],[78.3981,16.7992],[78.3891,16.7842],[78.3551,16.7968],[78.3486,16.786],[78.3464,16.7732],[78.3714,16.7531],[78.3619,16.727],[78.3505,16.7087],[78.3561,16.697],[78.3498,16.6825],[78.3184,16.683],[78.2983,16.6904],[78.2794,16.7072],[78.2672,16.7098],[78.2595,16.722],[78.2379,16.7406],[78.2238,16.7413],[78.2116,16.711],[78.1983,16.7013],[78.1815,16.7108],[78.1832,16.7311],[78.163,16.7292],[78.1532,16.6995],[78.1447,16.6882],[78.1401,16.6611],[78.1503,16.6462],[78.1309,16.6271],[78.1252,16.5917],[78.1162,16.5733],[78.1227,16.5525],[78.1086,16.5297],[78.1,16.4875],[78.1313,16.47],[78.1474,16.4566],[78.2008,16.4475],[78.2015,16.4095],[78.2332,16.4187],[78.2469,16.4158],[78.2624,16.4026],[78.2522,16.3911],[78.2692,16.3862],[78.2776,16.4038],[78.3097,16.3887],[78.3151,16.3705],[78.2929,16.3263],[78.2637,16.3331],[78.2565,16.2897],[78.2599,16.2732],[78.2391,16.2698],[78.2153,16.2879],[78.205,16.2686],[78.2193,16.2606],[78.2137,16.2413],[78.2003,16.2457],[78.1967,16.2089],[78.2113,16.2011],[78.2129,16.1788],[78.2273,16.1749],[78.2251,16.16],[78.2111,16.1268],[78.2061,16.1073],[78.2159,16.0953],[78.1965,16.0897],[78.1927,16.0806],[78.1761,16.0681],[78.2024,16.0546],[78.1972,16.0444],[78.2182,16.0273],[78.2133,16.0108],[78.2316,16.0076],[78.2566,16.0089],[78.2625,16.027],[78.2814,16.0231],[78.3069,16.011],[78.322,16.0174],[78.3266,16.0371],[78.3478,16.0478],[78.3655,16.0471],[78.3851,16.0653],[78.408,16.0751],[78.4412,16.0747],[78.4791,16.0677],[78.5518,16.0431],[78.5703,16.0527],[78.5924,16.0694],[78.61,16.0874],[78.6273,16.088],[78.6503,16.0791],[78.6505,16.0723],[78.6682,16.0548],[78.6812,16.0351],[78.7236,16.0204],[78.7355,16.0085],[78.751,16.0161],[78.7855,16.0215],[78.8004,16.0372],[78.8162,16.0459],[78.8371,16.0707],[78.8415,16.1021],[78.8335,16.135],[78.8347,16.1455],[78.8547,16.1491],[78.8694,16.1459],[78.8766,16.1358],[78.8896,16.085],[78.918,16.1003],[78.9227,16.1269],[78.9047,16.1749],[78.9111,16.1887],[78.9603,16.2094],[78.9866,16.2115],[79.0091,16.2403],[79.0292,16.242],[79.0563,16.2366],[79.0721,16.2274],[79.082,16.2305],[79.1035,16.2237],[79.1238,16.2313],[79.1442,16.2154],[79.1699,16.2102],[79.2152,16.2263],[79.2208,16.2347],[79.2257,16.2739],[79.2305,16.2834],[79.2338,16.3361],[79.2106,16.3565],[79.1726,16.368],[79.1541,16.382],[79.1531,16.3981],[79.1225,16.4066],[79.109,16.4213],[79.0916,16.4219],[79.0742,16.4417],[79.0623,16.4456],[79.0444,16.4601],[79.0308,16.4649],[78.9882,16.4925],[78.9676,16.4977],[78.9393,16.5106],[78.9218,16.5247],[78.9094,16.5518],[78.8656,16.5446],[78.8557,16.5512],[78.836,16.544],[78.8007,16.5143],[78.7877,16.5163],[78.7747,16.5304],[78.7565,16.5353],[78.7182,16.5401],[78.6756,16.5334],[78.6638,16.5415],[78.6677,16.5512],[78.6841,16.5548],[78.7014,16.5649],[78.7163,16.5822],[78.7071,16.5954],[78.6986,16.6191],[78.68,16.6243],[78.6674,16.6521],[78.7135,16.6508],[78.7073,16.6664],[78.7101,16.6786],[78.7256,16.6887],[78.7409,16.707],[78.7548,16.7057],[78.7596,16.7309],[78.7573,16.7479]]]},"properties":{"district":"NAGARKURNOOL"}},
{"type":"Feature","geometry":{"type":"Polygon","coordinates":[[[79.4537,17.3453],[79.4021,17.3488],[79.3659,17.3452],[79.3323,17.3595],[79.2954,17.3571],[79.2507,17.3591],[79.2397,17.3371],[79.2519,17.3253],[79.2481,17.3157],[79.2194,17.3141],[79.2159,17.289],[79.2048,17.2691],[79.1842,17.2736],[79.1818,17.2596],[79.1633,17.2568],[79.1451,17.2828],[79.117,17.278],[79.1034,17.243],[79.0823,17.2527],[79.0554,17.2574],[79.0363,17.269],[78.9822,17.2796],[78.9806,17.2645],[78.9865,17.251],[78.9746,17.2328],[78.9738,17.215],[78.9572,17.1991],[78.9724,17.1841],[78.9779,17.1687],[78.9927,17.1556],[78.9694,17.1278],[78.9538,17.1336],[78.9483,17.1105],[78.9385,17.1068],[78.9283,17.0816],[78.9149,17.091],[78.9021,17.0791],[78.892,17.0439],[78.8795,17.0578],[78.8417,17.0742],[78.8356,17.0377],[78.823,17.0308],[78.7829,17.0408],[78.7766,17.0318],[78.8251,17.0196],[78.8227,17.006],[78.799,17],[78.7891,16.9765],[78.754,16.9846],[78.7564,16.9698],[78.7325,16.9734],[78.7022,16.9648],[78.704,16.9541],[78.6959,16.9359],[78.7454,16.9152],[78.7299,16.8975],[78.7267,16.87],[78.7498,16.8549],[78.7679,16.8769],[78.7809,16.8686],[78.7757,16.8441],[78.7876,16.832],[78.8022,16.8265],[78.7918,16.8023],[78.7952,16.7856],[78.7893,16.7615],[78.7809,16.7464],[78.7573,16.7479],[78.7596,16.7309],[78.7548,16.7057],[78.7409,16.707],[78.7256,16.6887],[78.7101,16.6786],[78.7073,16.6664],[78.7135,16.6508],[78.6674,16.6521],[78.68,16.6243],[78.6986,16.6191],[78.7071,16.5954],[78.7163,16.5822],[78.7014,16.5649],[78.6841,16.5548],[78.6677,16.5512],[78.6638,16.5415],[78.6756,16.5334],[78.7182,16.5401],[78.7565,16.5353],[78.7747,16.5304],[78.7877,16.5163],[78.8007,16.5143],[78.836,16.544],[78.8557,16.5512],[78.8656,16.5446],[78.9094,16.5518],[78.9218,16.5247],[78.9393,16.5106],[78.9676,16.4977],[78.9882,16.4925],[79.0308,16.4649],[79.0444,16.4601],[79.0623,16.4456],[79.0742,16.4417],[79.0916,16.4219],[79.109,16.4213],[79.1225,16.4066],[79.1531,16.3981],[79.1541,16.382],[79.1726,16.368],[79.2106,16.3565],[79.2081,16.3805],[79.2116,16.4477],[79.2332,16.46],[79.2145,16.485],[79.2192,16.5107],[79.2273,16.5241],[79.2448,16.5321],[79.2522,16.5595],[79.2617,16.5672],[79.2775,16.5618],[79.2955,16.5633],[79.3083,16.5744],[79.3372,16.5823],[79.3561,16.5797],[79.3779,16.5831],[79.4187,16.5805],[79.4331,16.591],[79.4403,16.6151],[79.4596,16.624],[79.4789,16.6227],[79.494,16.6333],[79.5104,16.636],[79.5421,16.6325],[79.5756,16.6501],[79.5922,16.6702],[79.604,16.6726],[79.635,16.6614],[79.6622,16.6869],[79.6792,16.6937],[79.6998,16.7187],[79.6745,16.7244],[79.668,16.7355],[79.6735,16.7563],[79.6735,16.7799],[79.6665,16.8034],[79.6671,16.8444],[79.645,16.8688],[79.6418,16.888],[79.6191,16.9181],[79.6144,16.9375],[79.6166,16.9701],[79.6145,16.9877],[79.6055,17],[79.5983,17.0316],[79.5995,17.05],[79.5925,17.0617],[79.5918,17.0846],[79.5735,17.1133],[79.562,17.1416],[79.5395,17.1635],[79.5254,17.1864],[79.5243,17.2132],[79.5198,17.2336],[79.494,17.2336],[79.4972,17.2626],[79.4865,17.2948],[79.4843,17.313],[79.4748,17.3312],[79.4537,17.3453]]]},"properties":{"district":"NALGONDA"}},
{"type":"Feature","geometry":{"type":"Polygon","coordinates":[[[77.6648,16.364],[77.669,16.3858],[77.6887,16.4004],[77.7135,16.4038],[77.7236,16.4205],[77.7418,16.4014],[77.7511,16.4039],[77.7463,16.4239],[77.7488,16.4434],[77.7395,16.4666],[77.7599,16.4807],[77.7646,16.5263],[77.7493,16.5515],[77.7493,16.5667],[77.7786,16.565],[77.7881,16.5785],[77.7812,16.616],[77.7988,16.6159],[77.7971,16.6334],[77.774,16.6545],[77.7677,16.6821],[77.749,16.694],[77.7545,16.724],[77.7453,16.7398],[77.7267,16.7517],[77.6969,16.7485],[77.6776,16.7581],[77.6745,16.777],[77.6796,16.7928],[77.7112,16.7931],[77.7354,16.7896],[77.7296,16.8114],[77.7438,16.8277],[77.7276,16.8517],[77.7343,16.8603],[77.7316,16.8737],[77.7397,16.8837],[77.7461,16.911],[77.7402,16.9207],[77.7404,16.9387],[77.7607,16.9742],[77.7575,16.9915],[77.7629,17.003],[77.7519,17.0244],[77.7276,17.0387],[77.6857,17.021],[77.6672,17.0348],[77.6519,17.0181],[77.6519,17.001],[77.6442,16.9906],[77.6241,16.9846],[77.6232,16.9532],[77.6037,16.9469],[77.5951,16.9288],[77.5966,16.9146],[77.5789,16.9061],[77.5538,16.9032],[77.5378,16.9306],[77.525,16.9258],[77.5159,16.9337],[77.5241,16.9472],[77.4724,16.9574],[77.4659,16.9589],[77.4642,16.9299],[77.4694,16.9192],[77.4579,16.9095],[77.4559,16.8855],[77.4641,16.8506],[77.4576,16.8282],[77.466,16.8056],[77.4743,16.8023],[77.4745,16.7812],[77.4411,16.7862],[77.4431,16.7625],[77.4269,16.7285],[77.4391,16.7117],[77.4472,16.7207],[77.474,16.7166],[77.47,16.6877],[77.4639,16.6763],[77.4477,16.6793],[77.4426,16.6698],[77.4189,16.6686],[77.4441,16.6392],[77.4624,16.6543],[77.4747,16.6521],[77.4642,16.6286],[77.4553,16.622],[77.4678,16.6098],[77.4611,16.5849],[77.4397,16.5871],[77.4238,16.5689],[77.4036,16.5718],[77.3975,16.5648],[77.4038,16.5512],[77.419,16.5489],[77.4169,16.5173],[77.4042,16.5214],[77.3814,16.5157],[77.3701,16.5046],[77.369,16.4887],[77.3296,16.4859],[77.2988,16.4961],[77.2941,16.4767],[77.2641,16.4726],[77.2398,16.4762],[77.2444,16.4633],[77.2621,16.4518],[77.269,16.4305],[77.2882,16.4087],[77.317,16.3973],[77.3366,16.3939],[77.3497,16.3836],[77.3787,16.3854],[77.401,16.3716],[77.4226,16.3664],[77.4391,16.3801],[77.4897,16.385],[77.5144,16.375],[77.5537,16.3496],[77.5734,16.3407],[77.5952,16.3425],[77.6426,16.3639],[77.6648,16.364]]]},"properties":{"district":"NARAYANPET"}},
{"type":"Feature","geometry":{"type":"Polygon","coordinates":[[[78.1932,19.3171],[78.1831,19.2852],[78.1767,19.2778],[78.1753,19.2376],[78.1429,19.2301],[78.117,19.2486],[78.1132,19.2444],[78.0824,19.2432],[78.0791,19.2548],[78.0557,19.2371],[78.0359,19.2506],[78.0425,19.2706],[78.0148,19.279],[78.0143,19.2938],[77.986,19.309],[77.9774,19.3228],[77.9616,19.3358],[77.9435,19.3427],[77.9117,19.3163],[77.8953,19.3206],[77.89,19.3133],[77.8634,19.3041],[77.8656,19.2838],[77.9035,19.278],[77.9027,19.2564],[77.8822,19.2605],[77.8713,19.2538],[77.866,19.2264],[77.8477,19.1896],[77.8605,19.1804],[77.8525,19.1547],[77.8379,19.1377],[77.8477,19.116],[77.8486,19.0865],[77.8295,19.0871],[77.8173,19.1055],[77.8049,19.1012],[77.8017,19.0762],[77.7968,19.0709],[77.8003,19.0511],[77.7752,19.056],[77.7648,19.0627],[77.7628,19.029],[77.7693,19.02],[77.7742,18.9974],[77.7715,18.9792],[77.7876,18.9726],[77.7911,18.9828],[77.8218,18.9785],[77.8162,18.9473],[77.8325,18.9416],[77.8419,18.9499],[77.8586,18.9491],[77.8433,18.9087],[77.8557,18.9026],[77.8843,18.9048],[77.8916,18.8814],[77.9039,18.8812],[77.9032,18.8666],[77.9301,18.8587],[77.9489,18.8433],[77.9683,18.8707],[77.9881,18.8799],[78.019,18.8831],[78.0325,18.876],[78.0408,18.8974],[78.0468,18.9363],[78.0586,18.9423],[78.0893,18.9401],[78.1102,18.9598],[78.1469,18.9657],[78.1607,18.9796],[78.1673,18.9978],[78.1905,18.9974],[78.2487,19.0149],[78.2747,18.9947],[78.2809,18.9858],[78.2762,18.9735],[78.278,18.9482],[78.2848,18.9429],[78.3141,18.9517],[78.3358,18.966],[78.355,18.9847],[78.376,18.9982],[78.4105,19.0041],[78.418,18.9982],[78.4264,18.9772],[78.4563,18.9563],[78.4755,18.9574],[78.4926,18.9732],[78.5083,18.9725],[78.5255,18.951],[78.537,18.946],[78.5475,18.946],[78.5544,18.9737],[78.5672,18.9887],[78.588,19.0051],[78.6064,18.9855],[78.6357,18.9779],[78.6562,18.9979],[78.6668,19.0159],[78.701,19.0361],[78.7576,19.0111],[78.7678,19.0154],[78.7705,19.0291],[78.7982,19.048],[78.8211,19.0489],[78.8355,19.0684],[78.8452,19.0703],[78.8739,19.0558],[78.8999,19.0354],[78.9176,19.0342],[78.9314,19.0571],[78.9476,19.0728],[78.9409,19.0803],[78.9409,19.1092],[78.9307,19.1186],[78.9211,19.1065],[78.9029,19.094],[78.8803,19.1135],[78.8881,19.1307],[78.8776,19.1604],[78.9182,19.1882],[78.9179,19.2016],[78.9353,19.2166],[78.936,19.2284],[78.9533,19.2499],[78.9425,19.2521],[78.9276,19.2657],[78.898,19.2855],[78.8836,19.2747],[78.8688,19.2827],[78.8479,19.2719],[78.8433,19.2549],[78.8197,19.2469],[78.8122,19.2217],[78.8,19.2142],[78.7901,19.2407],[78.7675,19.2575],[78.7589,19.2784],[78.7365,19.2861],[78.72,19.2967],[78.7226,19.3266],[78.6905,19.3167],[78.6737,19.3162],[78.6511,19.3003],[78.6179,19.2704],[78.5845,19.2895],[78.5704,19.2867],[78.5474,19.2622],[78.5257,19.2552],[78.5179,19.2456],[78.5191,19.2264],[78.5095,19.2149],[78.4838,19.2268],[78.4567,19.227],[78.4566,19.1956],[78.4485,19.1791],[78.4362,19.1847],[78.4297,19.1743],[78.3876,19.1763],[78.3694,19.1825],[78.363,19.2001],[78.3472,19.2074],[78.3298,19.2072],[78.31,19.2232],[78.2995,19.2596],[78.2738,19.2676],[78.2711,19.281],[78.2479,19.2928],[78.2422,19.3019],[78.2182,19.3127],[78.2076,19.3073],[78.1932,19.3171]]]},"properties":{"district":"NIRMAL"}},
{"type":"Feature","geometry":{"type":"Polygon","coordinates":[[[78.537,18.946],[78.5255,18.951],[78.5083,18.9725],[78.4926,18.9732],[78.4755,18.9574],[78.4563,18.9563],[78.4264,18.9772],[78.418,18.9982],[78.4105,19.0041],[78.376,18.9982],[78.355,18.9847],[78.3358,18.966],[78.3141,18.9517],[78.2848,18.9429],[78.278,18.9482],[78.2762,18.9735],[78.2809,18.9858],[78.2747,18.9947],[78.2487,19.0149],[78.1905,18.9974],[78.1673,18.9978],[78.1607,18.9796],[78.1469,18.9657],[78.1102,18.9598],[78.0893,18.9401],[78.0586,18.9423],[78.0468,18.9363],[78.0408,18.8974],[78.0325,18.876],[78.019,18.8831],[77.9881,18.8799],[77.9683,18.8707],[77.9489,18.8433],[77.9483,18.8291],[77.9303,18.8225],[77.9067,18.8267],[77.8909,18.8199],[77.8705,18.8178],[77.8584,18.8085],[77.84,18.8048],[77.8268,18.7698],[77.804,18.7262],[77.8042,18.7132],[77.7897,18.695],[77.7873,18.6826],[77.7718,18.6891],[77.7732,18.7014],[77.7596,18.7067],[77.7435,18.6813],[77.7301,18.6672],[77.7305,18.6451],[77.7457,18.6213],[77.7503,18.5889],[77.7404,18.5752],[77.7385,18.5568],[77.7569,18.5363],[77.762,18.524],[77.7568,18.5027],[77.7834,18.5044],[77.7998,18.5012],[77.8375,18.5067],[77.8512,18.5034],[77.8641,18.5082],[77.8907,18.4928],[77.9376,18.4917],[77.9709,18.4745],[77.9815,18.4587],[77.9749,18.4465],[78.0222,18.4364],[78.0379,18.4651],[78.0396,18.5176],[78.075,18.5148],[78.1024,18.5052],[78.1081,18.4926],[78.135,18.4825],[78.1597,18.4775],[78.1729,18.498],[78.186,18.5074],[78.2169,18.4992],[78.225,18.4911],[78.2495,18.487],[78.2598,18.4529],[78.3073,18.4542],[78.3167,18.4654],[78.3434,18.464],[78.3632,18.4547],[78.3838,18.4542],[78.3989,18.4822],[78.4247,18.4752],[78.4436,18.4788],[78.4644,18.4606],[78.4678,18.4477],[78.4921,18.438],[78.5083,18.4529],[78.5302,18.4657],[78.5399,18.4967],[78.5517,18.5041],[78.5496,18.5227],[78.5695,18.5438],[78.5685,18.5519],[78.5975,18.551],[78.6,18.5736],[78.6145,18.5924],[78.5863,18.5988],[78.5966,18.6233],[78.597,18.6453],[78.6036,18.6673],[78.5883,18.6774],[78.6168,18.6902],[78.6334,18.6835],[78.6408,18.7019],[78.6372,18.7233],[78.6175,18.7298],[78.5817,18.723],[78.5712,18.7385],[78.5528,18.7427],[78.5544,18.7653],[78.5636,18.7789],[78.5419,18.8181],[78.5481,18.8307],[78.54,18.8458],[78.5413,18.8609],[78.536,18.8846],[78.5142,18.8925],[78.528,18.9427],[78.537,18.946]]]},"properties":{"district":"NIZAMABAD"}},
{"type":"Feature","geometry":{"type":"Polygon","coordinates":[[[79.8072,18.7049],[79.7985,18.6971],[79.7682,18.6961],[79.747,18.6822],[79.7158,18.6854],[79.6859,18.6709],[79.663,18.691],[79.651,18.7159],[79.6334,18.7293],[79.6126,18.7388],[79.561,18.7712],[79.5283,18.7866],[79.5118,18.7846],[79.4981,18.7923],[79.4805,18.8175],[79.4648,18.8249],[79.4277,18.8508],[79.395,18.8573],[79.3758,18.8525],[79.353,18.8198],[79.335,18.815],[79.3075,18.8154],[79.2899,18.7634],[79.2948,18.7448],[79.2815,18.7432],[79.2566,18.7647],[79.23,18.7494],[79.1629,18.7557],[79.1503,18.7256],[79.1345,18.7133],[79.1134,18.7071],[79.1254,18.6862],[79.1184,18.663],[79.1467,18.6635],[79.1598,18.6469],[79.1762,18.6544],[79.1862,18.6087],[79.2044,18.5952],[79.2053,18.5779],[79.2303,18.5662],[79.2278,18.5466],[79.2155,18.5347],[79.2158,18.4911],[79.2289,18.4569],[79.2366,18.4476],[79.2486,18.4533],[79.28,18.479],[79.2978,18.4824],[79.327,18.4715],[79.3733,18.4351],[79.4187,18.4201],[79.4439,18.4081],[79.4601,18.3929],[79.4828,18.3854],[79.5066,18.3992],[79.5337,18.3999],[79.5671,18.4239],[79.5905,18.45],[79.591,18.462],[79.6026,18.4745],[79.6121,18.4636],[79.6229,18.4864],[79.6422,18.4755],[79.6681,18.4793],[79.7057,18.5207],[79.712,18.5608],[79.7248,18.5736],[79.7519,18.5736],[79.7834,18.5687],[79.8018,18.606],[79.8042,18.6213],[79.8308,18.6559],[79.8302,18.6811],[79.8072,18.7049]]]},"properties":{"district":"PEDDAPALLI"}},
{"type":"Feature","geometry":{"type":"Polygon","coordinates":[[[78.6334,18.6835],[78.6168,18.6902],[78.5883,18.6774],[78.6036,18.6673],[78.597,18.6453],[78.5966,18.6233],[78.5863,18.5988],[78.6145,18.5924],[78.6,18.5736],[78.5975,18.551],[78.5685,18.5519],[78.5695,18.5438],[78.5496,18.5227],[78.5517,18.5041],[78.5399,18.4967],[78.5302,18.4657],[78.5434,18.46],[78.5534,18.4287],[78.5419,18.4207],[78.5447,18.4077],[78.563,18.3857],[78.5316,18.3877],[78.5337,18.3604],[78.5495,18.3364],[78.5373,18.3178],[78.5412,18.3001],[78.5239,18.2881],[78.5213,18.2791],[78.5522,18.2597],[78.5676,18.2228],[78.5749,18.2237],[78.5886,18.2487],[78.6286,18.2468],[78.6395,18.2567],[78.69,18.2299],[78.7115,18.2343],[78.7266,18.2277],[78.7242,18.2152],[78.75,18.2212],[78.7615,18.2406],[78.7691,18.2627],[78.7927,18.2537],[78.8257,18.2537],[78.844,18.2479],[78.8557,18.2347],[78.8913,18.2446],[78.9145,18.2556],[78.9571,18.2524],[78.9889,18.2603],[78.9872,18.2895],[79.0197,18.3167],[79.0204,18.3307],[79.0113,18.3456],[79.0247,18.3662],[79.0054,18.3868],[78.9864,18.4172],[78.9741,18.4274],[78.9802,18.4416],[78.9915,18.4409],[78.9818,18.4968],[78.9541,18.5134],[78.9606,18.5349],[78.949,18.5539],[78.9571,18.5767],[78.9388,18.5837],[78.9288,18.5662],[78.9163,18.5753],[78.9015,18.5777],[78.8933,18.5971],[78.8737,18.5867],[78.8552,18.5874],[78.8124,18.6046],[78.7916,18.6208],[78.7599,18.6194],[78.7487,18.6314],[78.7186,18.6337],[78.7061,18.6411],[78.6699,18.6233],[78.6528,18.6387],[78.6334,18.6835]]]},"properties":{"district":"RAJANNA SIRCILLA"}},
{"type":"Feature","geometry":{"type":"Polygon","coordinates":[[[78.3477,17.5227],[78.3378,17.5048],[78.337,17.504],[78.3379,17.5065],[78.336,17.5068],[78.3172,17.5087],[78.3104,17.5107],[78.3098,17.5108],[78.3095,17.5108],[78.309,17.511],[78.3087,17.511],[78.3083,17.5109],[78.308,17.5104],[78.3078,17.5103],[78.3077,17.51],[78.3079,17.5081],[78.3084,17.5076],[78.3087,17.5075],[78.3091,17.5074],[78.3096,17.5071],[78.3102,17.5065],[78.3106,17.5056],[78.3108,17.5055],[78.3112,17.5054],[78.3115,17.5052],[78.3127,17.5045],[78.3132,17.5042],[78.3135,17.5041],[78.314,17.5038],[78.3144,17.5028],[78.3143,17.5027],[78.3144,17.5025],[78.3145,17.5024],[78.3148,17.5022],[78.3143,17.5012],[78.3144,17.5012],[78.3146,17.501],[78.3178,17.4961],[78.3165,17.4939],[78.3093,17.4905],[78.3017,17.4907],[78.2956,17.4911],[78.2877,17.4913],[78.2831,17.4909],[78.2961,17.4801],[78.2981,17.4799],[78.3003,17.476],[78.3011,17.4674],[78.3013,17.4596],[78.297,17.4564],[78.2927,17.4495],[78.2917,17.446],[78.2893,17.4339],[78.2882,17.4315],[78.2857,17.4323],[78.2823,17.4333],[78.2784,17.4343],[78.2748,17.4344],[78.2629,17.4282],[78.25,17.428],[78.2436,17.4293],[78.2398,17.4291],[78.2345,17.4287],[78.2332,17.4287],[78.2331,17.4304],[78.2325,17.4324],[78.2319,17.4342],[78.2303,17.436],[78.2295,17.437],[78.2291,17.4379],[78.2282,17.4391],[78.2234,17.439],[78.222,17.4389],[78.2187,17.4485],[78.2187,17.449],[78.2191,17.4563],[78.2183,17.4582],[78.2161,17.4618],[78.2154,17.4628],[78.2152,17.4638],[78.2151,17.4643],[78.2153,17.4696],[78.2155,17.4765],[78.2149,17.4776],[78.2141,17.4812],[78.214,17.4816],[78.2138,17.4822],[78.2138,17.4863],[78.2134,17.4865],[78.2103,17.4878],[78.2079,17.489],[78.2078,17.4891],[78.2034,17.4897],[78.2031,17.4892],[78.2027,17.4887],[78.2001,17.4884],[78.1984,17.4886],[78.1957,17.4885],[78.1912,17.4859],[78.1913,17.4859],[78.1927,17.4842],[78.193,17.4839],[78.1937,17.4822],[78.1933,17.4812],[78.1931,17.4806],[78.1929,17.4794],[78.1892,17.4764],[78.1822,17.4727],[78.1812,17.4714],[78.1811,17.4706],[78.1811,17.4703],[78.1793,17.4706],[78.1778,17.4689],[78.174,17.4674],[78.1709,17.4645],[78.1636,17.4641],[78.1506,17.4679],[78.1483,17.4688],[78.1445,17.4703],[78.1447,17.4849],[78.1409,17.4874],[78.139,17.4882],[78.1339,17.49],[78.1328,17.4902],[78.1301,17.4903],[78.1291,17.4893],[78.1287,17.4883],[78.1281,17.4882],[78.1279,17.488],[78.1277,17.4876],[78.1276,17.4867],[78.1264,17.4863],[78.1252,17.4862],[78.1228,17.4865],[78.12,17.4851],[78.118,17.4839],[78.1178,17.484],[78.1167,17.4854],[78.1158,17.4857],[78.1155,17.4857],[78.1139,17.4852],[78.1107,17.4844],[78.1106,17.4845],[78.1106,17.4846],[78.1042,17.494],[78.1038,17.4942],[78.1005,17.4951],[78.0991,17.4953],[78.0969,17.4959],[78.0964,17.4961],[78.0932,17.4973],[78.093,17.4973],[78.0916,17.4973],[78.091,17.4973],[78.0881,17.4971],[78.0862,17.498],[78.0843,17.4985],[78.0834,17.4999],[78.0835,17.5009],[78.0836,17.5014],[78.0835,17.5021],[78.082,17.5021],[78.0807,17.502],[78.0827,17.5108],[78.0822,17.5167],[78.071,17.5177],[78.0714,17.5158],[78.0716,17.5144],[78.0716,17.514],[78.0694,17.5109],[78.0687,17.51],[78.0669,17.5078],[78.0655,17.508],[78.063,17.5084],[78.0597,17.5089],[78.0582,17.5091],[78.0584,17.5074],[78.0587,17.5051],[78.0605,17.5041],[78.0655,17.5023],[78.0655,17.5001],[78.0658,17.4993],[78.0659,17.4968],[78.066,17.4954],[78.066,17.4945],[78.0654,17.4927],[78.0638,17.4861],[78.0633,17.4854],[78.063,17.4853],[78.0607,17.485],[78.0545,17.4832],[78.0541,17.4832],[78.0534,17.4834],[78.0508,17.4791],[78.0503,17.4783],[78.0524,17.475],[78.0534,17.4743],[78.0532,17.4737],[78.0531,17.4729],[78.0532,17.4727],[78.0533,17.4726],[78.0537,17.4723],[78.0539,17.4721],[78.0553,17.4721],[78.0558,17.4722],[78.0564,17.4727],[78.0597,17.4728],[78.061,17.4723],[78.0615,17.4715],[78.062,17.4695],[78.0622,17.4691],[78.0634,17.4674],[78.0635,17.4632],[78.0637,17.4607],[78.0641,17.4593],[78.0645,17.459],[78.0654,17.4588],[78.0662,17.4582],[78.0669,17.4572],[78.0677,17.4563],[78.0679,17.4563],[78.0679,17.4568],[78.0686,17.4573],[78.0698,17.4566],[78.0681,17.4546],[78.0676,17.4543],[78.0671,17.4541],[78.063,17.449],[78.0723,17.4378],[78.0722,17.4136],[78.0516,17.4124],[78.0215,17.3631],[78.0172,17.3445],[78.0057,17.3381],[78.0136,17.3136],[78.0473,17.2952],[78.0435,17.2751],[78.0595,17.2519],[78.0444,17.2344],[78.052,17.2128],[78.0415,17.188],[78.0443,17.1689],[78.0164,17.166],[78.0041,17.1477],[77.9934,17.1227],[77.9901,17.1036],[77.9542,17.0995],[77.9242,17.0663],[77.9349,17.0285],[77.9484,17.0171],[77.9783,17.0104],[77.9838,16.9964],[77.9998,16.98],[78.0106,16.9786],[78.0099,17.001],[78.0347,17.0106],[78.0578,17.0013],[78.0684,17.0057],[78.1003,16.9827],[78.1248,16.9867],[78.1364,16.9933],[78.144,17.0127],[78.1742,17.0084],[78.1859,16.9886],[78.1813,16.9737],[78.2195,16.9391],[78.2331,16.9406],[78.2406,16.9638],[78.2771,16.9564],[78.2719,16.9331],[78.2757,16.9235],[78.3016,16.9193],[78.3031,16.8802],[78.3163,16.8746],[78.3284,16.8517],[78.3229,16.8253],[78.3348,16.8062],[78.3333,16.7982],[78.3486,16.786],[78.3551,16.7968],[78.3891,16.7842],[78.3981,16.7992],[78.4133,16.7983],[78.4344,16.7785],[78.4716,16.7779],[78.477,16.8139],[78.4827,16.8213],[78.5361,16.8215],[78.5604,16.8184],[78.5706,16.8064],[78.5908,16.7964],[78.6159,16.7945],[78.616,16.7842],[78.6321,16.7768],[78.6664,16.8027],[78.6654,16.8252],[78.6762,16.8243],[78.6826,16.8117],[78.6831,16.7891],[78.6507,16.7727],[78.6646,16.7607],[78.6824,16.7683],[78.6962,16.7658],[78.7171,16.7517],[78.7385,16.7576],[78.7573,16.7479],[78.7809,16.7464],[78.7893,16.7615],[78.7952,16.7856],[78.7918,16.8023],[78.8022,16.8265],[78.7876,16.832],[78.7757,16.8441],[78.7809,16.8686],[78.7679,16.8769],[78.7498,16.8549],[78.7267,16.87],[78.7299,16.8975],[78.7454,16.9152],[78.6959,16.9359],[78.704,16.9541],[78.7022,16.9648],[78.7325,16.9734],[78.7564,16.9698],[78.754,16.9846],[78.7891,16.9765],[78.799,17],[78.8227,17.006],[78.8251,17.0196],[78.7766,17.0318],[78.7829,17.0408],[78.823,17.0308],[78.8356,17.0377],[78.8417,17.0742],[78.8282,17.0923],[78.8154,17.0965],[78.8192,17.1093],[78.8335,17.1128],[78.7854,17.1376],[78.7737,17.1556],[78.7893,17.1651],[78.7809,17.1866],[78.7593,17.2142],[78.794,17.2036],[78.8163,17.2124],[78.8166,17.2256],[78.8066,17.2407],[78.778,17.246],[78.7533,17.2612],[78.752,17.3024],[78.7622,17.3041],[78.7532,17.3295],[78.7201,17.3287],[78.7071,17.3466],[78.7168,17.3585],[78.73,17.3583],[78.7376,17.3863],[78.7286,17.3857],[78.7199,17.3998],[78.6986,17.3954],[78.6922,17.404],[78.6764,17.4001],[78.6742,17.386],[78.6607,17.3785],[78.6477,17.3857],[78.6353,17.3834],[78.5803,17.39],[78.5717,17.3829],[78.5714,17.3612],[78.5569,17.3615],[78.5409,17.3717],[78.5074,17.3414],[78.502,17.3223],[78.4774,17.318],[78.4602,17.299],[78.4517,17.3239],[78.4401,17.3366],[78.4269,17.3392],[78.4288,17.3718],[78.3881,17.3711],[78.3951,17.386],[78.3946,17.4038],[78.4039,17.4085],[78.4003,17.4238],[78.409,17.4418],[78.3949,17.4485],[78.3938,17.4585],[78.3735,17.4783],[78.3741,17.4927],[78.3822,17.509],[78.3718,17.519],[78.3477,17.5227]]]},"properties":{"district":"RANGA REDDY"}},
{"type":"Feature","geometry":{"type":"Polygon","coordinates":[[[77.7294,18.25],[77.7197,18.2604],[77.6882,18.2604],[77.6651,18.2837],[77.6252,18.2838],[77.6196,18.2748],[77.6014,18.2759],[77.6005,18.2758],[77.5949,18.2653],[77.5793,18.2559],[77.573,18.2394],[77.5852,18.2196],[77.5748,18.2016],[77.5747,18.1765],[77.5842,18.1592],[77.5968,18.1559],[77.5946,18.1305],[77.6016,18.1059],[77.597,18.0868],[77.5483,18.0652],[77.5538,18.0358],[77.5832,18.0283],[77.5869,18.0135],[77.6016,18.0198],[77.6072,18.0104],[77.6278,17.9968],[77.6476,17.9995],[77.6482,17.9803],[77.6556,17.9698],[77.6495,17.95],[77.637,17.9528],[77.6229,17.9455],[77.619,17.9041],[77.5863,17.9086],[77.586,17.8938],[77.5958,17.8814],[77.57,17.8676],[77.5674,17.8454],[77.5467,17.8285],[77.5324,17.8291],[77.5294,17.8172],[77.5149,17.8035],[77.509,17.7878],[77.5264,17.7816],[77.5598,17.7634],[77.5686,17.7492],[77.547,17.7285],[77.5217,17.7259],[77.4932,17.7087],[77.4646,17.7018],[77.4524,17.6947],[77.4548,17.6752],[77.4482,17.6511],[77.4559,17.6342],[77.4511,17.6232],[77.4431,17.584],[77.45,17.5824],[77.4568,17.5813],[77.4578,17.5803],[77.4706,17.5734],[77.4722,17.572],[77.4747,17.5717],[77.4839,17.5667],[77.4854,17.5675],[77.486,17.5675],[77.4945,17.5649],[77.4948,17.5632],[77.4962,17.5596],[77.5004,17.5562],[77.4999,17.5534],[77.4995,17.5513],[77.4999,17.5485],[77.5022,17.5444],[77.5069,17.5423],[77.5109,17.5468],[77.5165,17.5591],[77.5215,17.5651],[77.5262,17.5724],[77.5303,17.5754],[77.5375,17.5754],[77.5415,17.5702],[77.55,17.5532],[77.5507,17.5518],[77.5542,17.5538],[77.5564,17.5534],[77.5588,17.5526],[77.5608,17.5526],[77.562,17.5529],[77.5653,17.5556],[77.5674,17.5564],[77.5678,17.5565],[77.5707,17.5566],[77.5736,17.5573],[77.5752,17.5578],[77.5771,17.5584],[77.5881,17.56],[77.589,17.5644],[77.5925,17.5646],[77.5946,17.5621],[77.5959,17.5581],[77.5972,17.5534],[77.5971,17.5533],[77.5957,17.5487],[77.5956,17.5465],[77.5956,17.5449],[77.5969,17.5343],[77.5989,17.5352],[77.6009,17.5358],[77.6013,17.5357],[77.6019,17.5353],[77.6022,17.5353],[77.6028,17.5357],[77.6031,17.5358],[77.6062,17.533],[77.6066,17.5327],[77.6074,17.5323],[77.6089,17.5325],[77.6092,17.5325],[77.6121,17.5348],[77.6141,17.5326],[77.615,17.5326],[77.6163,17.5314],[77.6169,17.5311],[77.618,17.5305],[77.6183,17.5301],[77.621,17.5304],[77.6216,17.529],[77.623,17.5262],[77.6311,17.525],[77.6313,17.5248],[77.6317,17.5239],[77.6354,17.5251],[77.637,17.5257],[77.64,17.5249],[77.641,17.524],[77.6453,17.5224],[77.6468,17.5224],[77.6479,17.5225],[77.6499,17.5222],[77.6512,17.5226],[77.6552,17.5224],[77.6559,17.5222],[77.6576,17.5222],[77.6591,17.5221],[77.6597,17.5224],[77.6608,17.523],[77.6627,17.5216],[77.6649,17.5196],[77.6671,17.5142],[77.6686,17.5116],[77.6703,17.5109],[77.6718,17.5101],[77.6755,17.5086],[77.6808,17.5087],[77.6809,17.5087],[77.682,17.5085],[77.6834,17.5082],[77.685,17.5087],[77.6868,17.5109],[77.6875,17.5117],[77.6877,17.5118],[77.69,17.5258],[77.7102,17.5282],[77.7353,17.544],[77.7517,17.5528],[77.7602,17.5578],[77.7626,17.5816],[77.7712,17.5876],[77.7695,17.6093],[77.7619,17.6135],[77.7496,17.6138],[77.7469,17.6246],[77.7746,17.627],[77.7862,17.6387],[77.7915,17.6328],[77.7998,17.6257],[77.8228,17.6323],[77.8556,17.6131],[77.8675,17.6119],[77.8746,17.5819],[77.8974,17.5824],[77.9306,17.5711],[77.9354,17.5582],[77.9387,17.5388],[77.9649,17.5328],[77.9718,17.5227],[77.967,17.4984],[77.9656,17.4868],[77.9795,17.4841],[77.9916,17.5063],[78.0074,17.4957],[78.004,17.4758],[78.0239,17.4656],[78.0368,17.4715],[78.0474,17.4519],[78.0609,17.449],[78.0671,17.4541],[78.0676,17.4543],[78.0681,17.4546],[78.0698,17.4566],[78.0686,17.4573],[78.0679,17.4568],[78.0679,17.4563],[78.0677,17.4563],[78.0669,17.4572],[78.0662,17.4582],[78.0654,17.4588],[78.0645,17.459],[78.0641,17.4593],[78.0637,17.4607],[78.0635,17.4632],[78.0634,17.4674],[78.0622,17.4691],[78.062,17.4695],[78.0615,17.4715],[78.061,17.4723],[78.0597,17.4728],[78.0564,17.4727],[78.0558,17.4722],[78.0553,17.4721],[78.0539,17.4721],[78.0537,17.4723],[78.0533,17.4726],[78.0532,17.4727],[78.0531,17.4729],[78.0532,17.4737],[78.0534,17.4743],[78.0524,17.475],[78.0503,17.4783],[78.0508,17.4791],[78.0534,17.4834],[78.0541,17.4832],[78.0545,17.4832],[78.0607,17.485],[78.063,17.4853],[78.0633,17.4854],[78.0638,17.4861],[78.0654,17.4927],[78.066,17.4945],[78.066,17.4954],[78.0659,17.4968],[78.0658,17.4993],[78.0655,17.5001],[78.0655,17.5023],[78.0605,17.5041],[78.0587,17.5051],[78.0584,17.5074],[78.0582,17.5091],[78.0597,17.5089],[78.063,17.5084],[78.0655,17.508],[78.0669,17.5078],[78.0687,17.51],[78.0694,17.5109],[78.0716,17.514],[78.0716,17.5144],[78.0714,17.5158],[78.071,17.5177],[78.0822,17.5167],[78.0827,17.5108],[78.0807,17.502],[78.082,17.5021],[78.0835,17.5021],[78.0836,17.5014],[78.0835,17.5009],[78.0834,17.4999],[78.0843,17.4985],[78.0862,17.498],[78.0881,17.4971],[78.091,17.4973],[78.0916,17.4973],[78.093,17.4973],[78.0932,17.4973],[78.0964,17.4961],[78.0969,17.4959],[78.0991,17.4953],[78.1005,17.4951],[78.1038,17.4942],[78.1042,17.494],[78.1106,17.4846],[78.1106,17.4845],[78.1107,17.4844],[78.1139,17.4852],[78.1155,17.4857],[78.1158,17.4857],[78.1167,17.4854],[78.1178,17.484],[78.118,17.4839],[78.12,17.4851],[78.1228,17.4865],[78.1252,17.4862],[78.1264,17.4863],[78.1276,17.4867],[78.1277,17.4876],[78.1279,17.488],[78.1281,17.4882],[78.1287,17.4883],[78.1291,17.4893],[78.1301,17.4903],[78.1328,17.4902],[78.1339,17.49],[78.139,17.4882],[78.1409,17.4874],[78.1447,17.4849],[78.1445,17.4703],[78.1483,17.4688],[78.1506,17.4679],[78.1636,17.4641],[78.1709,17.4645],[78.174,17.4674],[78.1778,17.4689],[78.1793,17.4706],[78.1811,17.4703],[78.1811,17.4706],[78.1812,17.4714],[78.1822,17.4727],[78.1892,17.4764],[78.1929,17.4794],[78.1931,17.4806],[78.1933,17.4812],[78.1937,17.4822],[78.193,17.4839],[78.1927,17.4842],[78.1913,17.4859],[78.1912,17.4859],[78.1957,17.4885],[78.1984,17.4886],[78.2001,17.4884],[78.2027,17.4887],[78.2031,17.4892],[78.2034,17.4897],[78.2078,17.4891],[78.2079,17.489],[78.2103,17.4878],[78.2134,17.4865],[78.2138,17.4863],[78.2138,17.4822],[78.214,17.4816],[78.2141,17.4812],[78.2149,17.4776],[78.2155,17.4765],[78.2153,17.4696],[78.2151,17.4643],[78.2152,17.4638],[78.2154,17.4628],[78.2161,17.4618],[78.2183,17.4582],[78.2191,17.4563],[78.2187,17.449],[78.2187,17.4485],[78.222,17.4389],[78.2234,17.439],[78.2282,17.4391],[78.2291,17.4379],[78.2295,17.437],[78.2303,17.436],[78.2319,17.4342],[78.2325,17.4324],[78.2331,17.4304],[78.2332,17.4287],[78.2345,17.4287],[78.2398,17.4291],[78.2436,17.4293],[78.25,17.428],[78.2629,17.4282],[78.2748,17.4344],[78.2784,17.4343],[78.2823,17.4333],[78.2857,17.4323],[78.2882,17.4315],[78.2893,17.4339],[78.2917,17.446],[78.2927,17.4495],[78.297,17.4564],[78.3013,17.4596],[78.3011,17.4674],[78.3003,17.476],[78.2981,17.4799],[78.2961,17.4801],[78.2831,17.4909],[78.2877,17.4913],[78.2956,17.4911],[78.3017,17.4907],[78.3093,17.4905],[78.3165,17.4939],[78.3178,17.4961],[78.3146,17.501],[78.3144,17.5012],[78.3143,17.5012],[78.3148,17.5022],[78.3145,17.5024],[78.3144,17.5025],[78.3143,17.5027],[78.3144,17.5028],[78.314,17.5038],[78.3135,17.5041],[78.3132,17.5042],[78.3127,17.5045],[78.3115,17.5052],[78.3112,17.5054],[78.3108,17.5055],[78.3106,17.5056],[78.3102,17.5065],[78.3096,17.5071],[78.3091,17.5074],[78.3087,17.5075],[78.3084,17.5076],[78.3079,17.5081],[78.3077,17.51],[78.3078,17.5103],[78.308,17.5104],[78.3083,17.5109],[78.3087,17.511],[78.309,17.511],[78.3095,17.5108],[78.3098,17.5108],[78.3104,17.5107],[78.3172,17.5087],[78.336,17.5068],[78.3379,17.5065],[78.337,17.504],[78.3378,17.5048],[78.3434,17.5178],[78.3491,17.5248],[78.3613,17.5518],[78.3552,17.5606],[78.3812,17.5797],[78.3844,17.591],[78.3911,17.6234],[78.3813,17.6426],[78.395,17.6752],[78.4208,17.6717],[78.445,17.7006],[78.449,17.709],[78.4425,17.7206],[78.4358,17.7286],[78.416,17.7328],[78.4034,17.7177],[78.396,17.6994],[78.3744,17.7067],[78.3726,17.7238],[78.3607,17.7399],[78.3206,17.7439],[78.3129,17.7395],[78.3222,17.7045],[78.3245,17.6968],[78.3197,17.6636],[78.3061,17.6677],[78.2995,17.6804],[78.2838,17.6865],[78.2307,17.6933],[78.2343,17.7098],[78.2337,17.7355],[78.2185,17.7323],[78.2015,17.7363],[78.2043,17.7552],[78.1962,17.7639],[78.1994,17.7814],[78.2037,17.8031],[78.178,17.79],[78.1662,17.7898],[78.1664,17.8141],[78.1814,17.8295],[78.1749,17.8245],[78.1607,17.8155],[78.148,17.8091],[78.1458,17.8351],[78.1388,17.8272],[78.1335,17.8143],[78.1216,17.8068],[78.1004,17.8133],[78.0938,17.8328],[78.0942,17.8612],[78.0746,17.8678],[78.0785,17.9073],[78.0709,17.9207],[78.048,17.916],[78.0475,17.8929],[78.0325,17.8798],[78.0177,17.8892],[77.994,17.8842],[77.9726,17.8841],[77.9445,17.8892],[77.9345,17.8932],[77.9414,17.9139],[77.9283,17.9325],[77.9199,17.9251],[77.8837,17.9343],[77.8719,17.9476],[77.8604,17.9351],[77.848,17.9031],[77.8319,17.9002],[77.8192,17.9287],[77.795,17.9259],[77.8016,17.9492],[77.8203,17.9578],[77.8254,17.9871],[77.8545,18.0171],[77.865,18.0221],[77.8526,18.0525],[77.854,18.0734],[77.8978,18.0746],[77.9032,18.0685],[77.9128,18.0905],[77.9272,18.0966],[77.9184,18.0994],[77.9225,18.1139],[77.9103,18.1219],[77.9244,18.1329],[77.9059,18.1444],[77.9043,18.1526],[77.901,18.1653],[77.9003,18.1733],[77.8965,18.1894],[77.882,18.1871],[77.8635,18.1932],[77.853,18.2073],[77.8146,18.196],[77.7966,18.2049],[77.7694,18.1889],[77.7585,18.2022],[77.7421,18.2055],[77.7432,18.2239],[77.7289,18.2355],[77.7294,18.25]]]},"properties":{"district":"SANGAREDDY"}},
{"type":"Feature","geometry":{"type":"Polygon","coordinates":[[[79.3012,18.13],[79.2874,18.1535],[79.2509,18.1542],[79.2422,18.1786],[79.2291,18.1814],[79.2106,18.1749],[79.2123,18.1616],[79.1878,18.1702],[79.1625,18.1572],[79.1466,18.1707],[79.1372,18.2063],[79.1285,18.2146],[79.1134,18.2149],[79.1085,18.2373],[79.1233,18.2431],[79.1203,18.2554],[79.1337,18.2713],[79.1198,18.277],[79.1173,18.2887],[79.0704,18.285],[79.0615,18.302],[79.072,18.3162],[79.053,18.3429],[79.0366,18.3444],[79.0204,18.3307],[79.0197,18.3167],[78.9872,18.2895],[78.9889,18.2603],[78.9571,18.2524],[78.9145,18.2556],[78.8913,18.2446],[78.8557,18.2347],[78.844,18.2479],[78.8257,18.2537],[78.7927,18.2537],[78.7691,18.2627],[78.7615,18.2406],[78.75,18.2212],[78.7242,18.2152],[78.7266,18.2277],[78.7115,18.2343],[78.69,18.2299],[78.6395,18.2567],[78.6286,18.2468],[78.5886,18.2487],[78.5749,18.2237],[78.5676,18.2228],[78.5615,18.2067],[78.5689,18.1852],[78.581,18.1634],[78.5533,18.1437],[78.5478,18.1123],[78.5738,18.1101],[78.5699,18.0664],[78.5864,18.0643],[78.5786,18.034],[78.5603,18.0454],[78.5524,18.0042],[78.5368,17.9878],[78.5319,17.9502],[78.5418,17.9415],[78.5311,17.9299],[78.5434,17.9111],[78.5249,17.897],[78.5374,17.8879],[78.5554,17.8907],[78.5735,17.9012],[78.5778,17.8826],[78.561,17.8772],[78.5618,17.857],[78.5452,17.8369],[78.5311,17.8342],[78.5266,17.8128],[78.5203,17.807],[78.5109,17.7555],[78.5253,17.7519],[78.5255,17.7289],[78.5062,17.7196],[78.4992,17.6859],[78.5138,17.6951],[78.5359,17.6966],[78.564,17.684],[78.5749,17.6954],[78.5927,17.697],[78.6144,17.6796],[78.6341,17.6692],[78.6502,17.6767],[78.6591,17.6974],[78.6695,17.6984],[78.6853,17.6885],[78.7085,17.6844],[78.7238,17.6684],[78.7381,17.6732],[78.7452,17.6838],[78.7681,17.6868],[78.7852,17.7013],[78.7853,17.7112],[78.8149,17.7043],[78.8156,17.7226],[78.8413,17.7527],[78.8581,17.7485],[78.8697,17.7852],[78.8681,17.8086],[78.8677,17.8254],[78.8784,17.8264],[78.8887,17.8416],[78.9056,17.8446],[78.9165,17.8546],[78.9211,17.8731],[78.9456,17.8794],[78.9601,17.8659],[79.002,17.8563],[79.0202,17.8761],[79.0554,17.8696],[79.0727,17.8754],[79.0921,17.8732],[79.1033,17.8857],[79.1133,17.906],[79.1023,17.9139],[79.1218,17.9416],[79.1315,17.9468],[79.1435,17.9656],[79.139,17.9781],[79.1535,17.992],[79.1842,17.9939],[79.1891,17.9995],[79.2329,17.9945],[79.2359,18.0034],[79.2608,18.003],[79.2616,18.0345],[79.2732,18.0511],[79.2909,18.0893],[79.2906,18.1212],[79.3012,18.13]]]},"properties":{"district":"SIDDIPET"}},
{"type":"Feature","geometry":{"type":"Polygon","coordinates":[[[79.8037,17.3245],[79.7928,17.3263],[79.7962,17.3542],[79.7777,17.3692],[79.7914,17.3839],[79.7931,17.3969],[79.7621,17.4082],[79.762,17.4299],[79.752,17.4398],[79.7436,17.4291],[79.7304,17.4284],[79.711,17.4451],[79.6565,17.471],[79.6587,17.488],[79.6392,17.4866],[79.6208,17.5005],[79.57,17.5022],[79.5539,17.5085],[79.5416,17.527],[79.5235,17.5072],[79.5168,17.4942],[79.5009,17.4962],[79.4851,17.5101],[79.4724,17.5146],[79.4534,17.5117],[79.4302,17.5169],[79.4246,17.5027],[79.4125,17.4988],[79.3789,17.5114],[79.3662,17.4865],[79.3761,17.4748],[79.4073,17.4513],[79.4247,17.4188],[79.4124,17.4],[79.4219,17.3765],[79.4414,17.3645],[79.4537,17.3453],[79.4748,17.3312],[79.4843,17.313],[79.4865,17.2948],[79.4972,17.2626],[79.494,17.2336],[79.5198,17.2336],[79.5243,17.2132],[79.5254,17.1864],[79.5395,17.1635],[79.562,17.1416],[79.5735,17.1133],[79.5918,17.0846],[79.5925,17.0617],[79.5995,17.05],[79.5983,17.0316],[79.6055,17],[79.6145,16.9877],[79.6166,16.9701],[79.6144,16.9375],[79.6191,16.9181],[79.6418,16.888],[79.645,16.8688],[79.6671,16.8444],[79.6665,16.8034],[79.6735,16.7799],[79.6735,16.7563],[79.668,16.7355],[79.6745,16.7244],[79.6998,16.7187],[79.6792,16.6937],[79.7157,16.6894],[79.7293,16.6958],[79.7446,16.7194],[79.7728,16.7309],[79.7841,16.7308],[79.8124,16.6948],[79.8282,16.6941],[79.8445,16.7035],[79.8589,16.7049],[79.8775,16.6976],[79.8855,16.6876],[79.8918,16.6549],[79.9078,16.6355],[79.9324,16.6316],[79.9648,16.6452],[79.9794,16.6656],[79.9958,16.7003],[80.0082,16.7093],[80.0305,16.7151],[80.0388,16.7304],[80.055,16.7449],[80.0535,16.7635],[80.0664,16.7867],[80.0733,16.8175],[80.0478,16.834],[80.0468,16.8536],[80.017,16.8545],[80.0038,16.8622],[80.0043,16.8803],[80.0124,16.893],[80.0174,16.9153],[80.0396,16.9174],[80.0519,16.9419],[80.0482,16.9477],[80.0554,16.9714],[80.0606,16.9844],[80.0529,17.0103],[80.0369,17.0244],[80.0407,17.0484],[79.9954,17.0773],[79.9857,17.0965],[79.9621,17.1247],[79.9462,17.1353],[79.9327,17.1285],[79.9182,17.1299],[79.9125,17.1489],[79.8989,17.1556],[79.8811,17.1739],[79.8766,17.1939],[79.8862,17.2094],[79.9019,17.2118],[79.8959,17.2296],[79.9022,17.2466],[79.8895,17.2596],[79.8681,17.2623],[79.8392,17.2792],[79.8305,17.2705],[79.8015,17.313],[79.8037,17.3245]]]},"properties":{"district":"SURIYAPET"}},
{"type":"Feature","geometry":{"type":"Polygon","coordinates":[[[77.6877,17.5118],[77.6921,17.5018],[77.6886,17.4753],[77.6524,17.4827],[77.6382,17.4735],[77.6148,17.4722],[77.6143,17.4459],[77.6041,17.4439],[77.5762,17.4562],[77.5751,17.431],[77.5373,17.4437],[77.513,17.4309],[77.5142,17.4142],[77.5374,17.4028],[77.5254,17.3885],[77.5322,17.375],[77.5248,17.3647],[77.503,17.3572],[77.4764,17.3608],[77.476,17.3684],[77.4536,17.374],[77.4517,17.3527],[77.4559,17.331],[77.4477,17.3075],[77.4379,17.2919],[77.4584,17.2812],[77.4352,17.2597],[77.426,17.2561],[77.4204,17.2376],[77.4049,17.2365],[77.3802,17.2225],[77.3964,17.2075],[77.3946,17.1959],[77.376,17.197],[77.3624,17.1638],[77.3782,17.1526],[77.3777,17.1401],[77.4038,17.1329],[77.4067,17.1245],[77.436,17.115],[77.4458,17.118],[77.4647,17.1078],[77.4664,17.0872],[77.4819,17.0758],[77.4831,17.0597],[77.4967,17.0427],[77.4949,17.0271],[77.5022,17.0094],[77.4791,16.9945],[77.4813,16.9704],[77.4724,16.9574],[77.5241,16.9472],[77.5159,16.9337],[77.525,16.9258],[77.5378,16.9306],[77.5538,16.9032],[77.5789,16.9061],[77.5966,16.9146],[77.5951,16.9288],[77.6037,16.9469],[77.6232,16.9532],[77.6241,16.9846],[77.6442,16.9906],[77.6519,17.001],[77.6519,17.0181],[77.6672,17.0348],[77.6857,17.021],[77.7276,17.0387],[77.7519,17.0244],[77.7629,17.003],[77.7985,16.9992],[77.8252,16.9872],[77.8268,16.9659],[77.8436,16.9609],[77.848,16.9518],[77.8657,16.9533],[77.8696,16.9666],[77.8843,16.959],[77.8719,16.9285],[77.9033,16.9265],[77.9319,16.9071],[77.937,16.8878],[77.967,16.8504],[77.9775,16.8471],[77.989,16.864],[77.9802,16.8798],[77.9855,16.8982],[78.0087,16.9027],[78.0101,16.9239],[78.0057,16.9365],[78.0109,16.9499],[77.987,16.9546],[77.9998,16.98],[77.9838,16.9964],[77.9783,17.0104],[77.9484,17.0171],[77.9349,17.0285],[77.9242,17.0663],[77.9542,17.0995],[77.9901,17.1036],[77.9934,17.1227],[78.0041,17.1477],[78.0164,17.166],[78.0443,17.1689],[78.0415,17.188],[78.052,17.2128],[78.0444,17.2344],[78.0595,17.2519],[78.0435,17.2751],[78.0473,17.2952],[78.0136,17.3136],[78.0057,17.3381],[78.0172,17.3445],[78.0215,17.3631],[78.0516,17.4124],[78.0722,17.4136],[78.0723,17.4378],[78.063,17.449],[78.0609,17.449],[78.0474,17.4519],[78.0368,17.4715],[78.0239,17.4656],[78.004,17.4758],[78.0074,17.4957],[77.9916,17.5063],[77.9795,17.4841],[77.9656,17.4868],[77.967,17.4984],[77.9718,17.5227],[77.9649,17.5328],[77.9387,17.5388],[77.9354,17.5582],[77.9306,17.5711],[77.8974,17.5824],[77.8746,17.5819],[77.8675,17.6119],[77.8556,17.6131],[77.8228,17.6323],[77.7998,17.6257],[77.7915,17.6328],[77.7862,17.6387],[77.7746,17.627],[77.7469,17.6246],[77.7496,17.6138],[77.7619,17.6135],[77.7695,17.6093],[77.7712,17.5876],[77.7626,17.5816],[77.7602,17.5578],[77.7517,17.5528],[77.7353,17.544],[77.7102,17.5282],[77.69,17.5258],[77.6877,17.5118]]]},"properties":{"district":"VIKARABAD"}},
{"type":"Feature","geometry":{"type":"Polygon","coordinates":[[[78.1252,16.5917],[78.0769,16.6091],[78.0689,16.6182],[78.0389,16.6257],[78.0255,16.6165],[78.0121,16.6171],[78.0013,16.6079],[78.0004,16.5947],[78.022,16.5889],[78.0039,16.5678],[77.9988,16.5534],[78.014,16.5455],[78.0202,16.5334],[77.9988,16.5318],[77.9859,16.5043],[77.9411,16.5018],[77.9311,16.4748],[77.9206,16.4638],[77.9242,16.4537],[77.9165,16.4427],[77.9006,16.45],[77.8639,16.4468],[77.868,16.4266],[77.8235,16.4076],[77.8172,16.3917],[77.8022,16.3979],[77.7908,16.4128],[77.7935,16.4222],[77.7543,16.4216],[77.7511,16.4039],[77.7418,16.4014],[77.7236,16.4205],[77.7135,16.4038],[77.6887,16.4004],[77.669,16.3858],[77.6648,16.364],[77.6776,16.3608],[77.6852,16.3485],[77.7033,16.3376],[77.7288,16.332],[77.7765,16.3062],[77.8124,16.2833],[77.8432,16.2583],[77.8569,16.251],[77.8933,16.2238],[77.9124,16.2131],[77.93,16.1964],[77.9312,16.1751],[77.9426,16.1526],[77.9412,16.1371],[77.9467,16.1196],[77.9728,16.0962],[77.9939,16.0876],[78.0265,16.0626],[78.0466,16.0329],[78.0695,16.0146],[78.1136,16.0023],[78.1251,16.0023],[78.1396,15.9932],[78.1467,15.9626],[78.1598,15.9486],[78.2005,15.9437],[78.2215,15.9442],[78.2404,15.9553],[78.2513,15.9754],[78.26,15.9991],[78.2566,16.0089],[78.2316,16.0076],[78.2133,16.0108],[78.2182,16.0273],[78.1972,16.0444],[78.2024,16.0546],[78.1761,16.0681],[78.1927,16.0806],[78.1965,16.0897],[78.2159,16.0953],[78.2061,16.1073],[78.2111,16.1268],[78.2251,16.16],[78.2273,16.1749],[78.2129,16.1788],[78.2113,16.2011],[78.1967,16.2089],[78.2003,16.2457],[78.2137,16.2413],[78.2193,16.2606],[78.205,16.2686],[78.2153,16.2879],[78.2391,16.2698],[78.2599,16.2732],[78.2565,16.2897],[78.2637,16.3331],[78.2929,16.3263],[78.3151,16.3705],[78.3097,16.3887],[78.2776,16.4038],[78.2692,16.3862],[78.2522,16.3911],[78.2624,16.4026],[78.2469,16.4158],[78.2332,16.4187],[78.2015,16.4095],[78.2008,16.4475],[78.1474,16.4566],[78.1313,16.47],[78.1,16.4875],[78.1086,16.5297],[78.1227,16.5525],[78.1162,16.5733],[78.1252,16.5917]]]},"properties":{"district":"WANPARTI"}},
{"type":"Feature","geometry":{"type":"Polygon","coordinates":[[[79.5632,17.6187],[79.5777,17.6285],[79.6139,17.6362],[79.6163,17.6211],[79.6538,17.6261],[79.6614,17.6495],[79.6777,17.6493],[79.6899,17.6839],[79.7141,17.6838],[79.7158,17.6982],[79.7498,17.6879],[79.7714,17.6891],[79.7713,17.6972],[79.791,17.7088],[79.8054,17.7002],[79.819,17.6993],[79.8236,17.7132],[79.8636,17.7196],[79.8721,17.7393],[79.8934,17.7301],[79.9037,17.7469],[79.9029,17.7641],[79.8834,17.7794],[79.8756,17.8085],[79.9089,17.8125],[79.9307,17.8184],[79.9394,17.841],[79.9516,17.8441],[79.9526,17.8604],[79.9754,17.8614],[79.994,17.8917],[79.9887,17.9048],[79.9944,17.9158],[79.9835,17.942],[79.988,17.9694],[79.9864,17.9917],[79.9922,17.9996],[79.9794,18.0202],[79.9849,18.0538],[79.9812,18.0606],[79.9919,18.1075],[79.9802,18.112],[79.9578,18.0895],[79.9363,18.0836],[79.8845,18.0857],[79.8872,18.0982],[79.8638,18.0935],[79.827,18.0943],[79.8145,18.0919],[79.8093,18.0763],[79.7856,18.0735],[79.7924,18.0638],[79.7921,18.045],[79.777,18.0543],[79.7496,18.0577],[79.745,18.0233],[79.7308,18.0052],[79.7065,17.9969],[79.6784,18.0076],[79.6717,18.0271],[79.651,18.0422],[79.6208,18.0397],[79.5945,18.0298],[79.5949,17.9999],[79.5882,17.9854],[79.5753,17.9752],[79.569,17.9607],[79.5663,17.9387],[79.5543,17.9295],[79.5591,17.9177],[79.5829,17.9002],[79.5936,17.8974],[79.5898,17.8831],[79.6172,17.8685],[79.6145,17.85],[79.6216,17.8288],[79.6136,17.8211],[79.5941,17.8232],[79.5863,17.8156],[79.5592,17.8078],[79.5646,17.7954],[79.5542,17.7872],[79.5142,17.7949],[79.5146,17.7741],[79.5054,17.7509],[79.4887,17.754],[79.481,17.7452],[79.4972,17.736],[79.5042,17.7242],[79.481,17.7053],[79.4895,17.6989],[79.4813,17.6748],[79.4986,17.6614],[79.5222,17.6614],[79.5243,17.6336],[79.5458,17.6301],[79.5632,17.6187]]]},"properties":{"district":"WARANGAL"}},
{"type":"Feature","geometry":{"type":"Polygon","coordinates":[[[79.3789,17.5114],[79.363,17.5205],[79.3417,17.5213],[79.3227,17.528],[79.3128,17.5507],[79.2971,17.5549],[79.2891,17.5692],[79.2755,17.5798],[79.2565,17.559],[79.2312,17.5632],[79.2234,17.5833],[79.2129,17.5942],[79.2195,17.6075],[79.2054,17.6239],[79.1778,17.5835],[79.1674,17.5754],[79.1556,17.5865],[79.1537,17.6136],[79.1348,17.6431],[79.1233,17.6686],[79.1015,17.6765],[79.0826,17.7107],[79.0706,17.7184],[79.0458,17.7258],[79.0334,17.7082],[79.0048,17.7371],[78.9959,17.7509],[79.0013,17.7708],[78.9906,17.7938],[78.9761,17.7946],[78.9468,17.7887],[78.9379,17.798],[78.9213,17.8024],[78.9071,17.8125],[78.8997,17.8051],[78.8681,17.8086],[78.8697,17.7852],[78.8581,17.7485],[78.8413,17.7527],[78.8156,17.7226],[78.8149,17.7043],[78.7853,17.7112],[78.7852,17.7013],[78.7681,17.6868],[78.7452,17.6838],[78.7381,17.6732],[78.7238,17.6684],[78.7113,17.6523],[78.7113,17.6355],[78.6917,17.6196],[78.6914,17.5847],[78.6766,17.5762],[78.6891,17.5625],[78.7016,17.5349],[78.7124,17.5209],[78.7074,17.4882],[78.7092,17.4765],[78.7247,17.4711],[78.7495,17.4707],[78.7607,17.4605],[78.752,17.4441],[78.7589,17.4306],[78.7548,17.405],[78.7409,17.4001],[78.7376,17.3863],[78.73,17.3583],[78.7168,17.3585],[78.7071,17.3466],[78.7201,17.3287],[78.7532,17.3295],[78.7622,17.3041],[78.752,17.3024],[78.7533,17.2612],[78.778,17.246],[78.8066,17.2407],[78.8166,17.2256],[78.8163,17.2124],[78.794,17.2036],[78.7593,17.2142],[78.7809,17.1866],[78.7893,17.1651],[78.7737,17.1556],[78.7854,17.1376],[78.8335,17.1128],[78.8192,17.1093],[78.8154,17.0965],[78.8282,17.0923],[78.8417,17.0742],[78.8795,17.0578],[78.892,17.0439],[78.9021,17.0791],[78.9149,17.091],[78.9283,17.0816],[78.9385,17.1068],[78.9483,17.1105],[78.9538,17.1336],[78.9694,17.1278],[78.9927,17.1556],[78.9779,17.1687],[78.9724,17.1841],[78.9572,17.1991],[78.9738,17.215],[78.9746,17.2328],[78.9865,17.251],[78.9806,17.2645],[78.9822,17.2796],[79.0363,17.269],[79.0554,17.2574],[79.0823,17.2527],[79.1034,17.243],[79.117,17.278],[79.1451,17.2828],[79.1633,17.2568],[79.1818,17.2596],[79.1842,17.2736],[79.2048,17.2691],[79.2159,17.289],[79.2194,17.3141],[79.2481,17.3157],[79.2519,17.3253],[79.2397,17.3371],[79.2507,17.3591],[79.2954,17.3571],[79.3323,17.3595],[79.3659,17.3452],[79.4021,17.3488],[79.4537,17.3453],[79.4414,17.3645],[79.4219,17.3765],[79.4124,17.4],[79.4247,17.4188],[79.4073,17.4513],[79.3761,17.4748],[79.3662,17.4865],[79.3789,17.5114]]]},"properties":{"district":"YADADRI BHUVANAGIRI"}}
]}