{"type":"FeatureCollection","features":[{"type":"Feature","geometry":{"type":"Polygon","coordinates":[[[86.0634,22.555],[85.9626,22.485],[86.0269,22.3863],[85.9739,22.2469],[86.0312,22.1914],[86.1304,22.1955],[86.2162,22.2768],[86.3341,22.308],[86.3287,22.3775],[86.2687,22.4421],[86.116,22.4871],[86.0634,22.555]]]},"properties":{"AC_NO":28,"AC_NAME":"RAIRANGPUR (ST)","PC_NO":5,"PC_NAME":"MAYURBHANJ (ST)","district":"MAYURBHANJ"}},{"type":"Feature","geometry":{"type":"Polygon","coordinates":[[[84.009,22.5257],[84.0181,22.4894],[84.0475,22.4699],[84.0052,22.3743],[83.9065,22.3513],[83.8023,22.2898],[83.6272,22.2038],[83.6092,22.1573],[83.7391,22.1137],[83.8234,22.119],[83.9853,22.2265],[84.0166,22.2191],[84.0878,22.0837],[84.1721,22.1229],[84.2675,22.1035],[84.355,22.1437],[84.3427,22.2526],[84.3223,22.259],[84.3591,22.3478],[84.2944,22.3416],[84.159,22.4058],[84.158,22.4065],[84.1571,22.4071],[84.1415,22.4737],[84.009,22.5257]]]},"properties":{"AC_NO":8,"AC_NAME":"TALSARA (ST)","PC_NO":2,"PC_NAME":"SUNDARGARH (ST)","district":"SUNDARGARH"}},{"type":"Feature","geometry":{"type":"Polygon","coordinates":[[[85.0669,22.4834],[84.9574,22.4565],[84.9573,22.4568],[84.9112,22.4236],[84.7955,22.4459],[84.7498,22.4193],[84.6288,22.4346],[84.4565,22.3812],[84.6252,22.3046],[84.6691,22.2392],[84.7971,22.2406],[84.828,22.2787],[84.9404,22.2258],[85.0322,22.1651],[85.1031,22.2951],[85.0669,22.4834]]]},"properties":{"AC_NO":10,"AC_NAME":"BIRAMITRAPUR (ST)","PC_NO":2,"PC_NAME":"SUNDARGARH (ST)","district":"SUNDARGARH"}},{"type":"Feature","geometry":{"type":"Polygon","coordinates":[[[86.7226,22.1468],[86.7196,22.1474],[86.7248,22.2184],[86.5427,22.3078],[86.541,22.3083],[86.4874,22.3477],[86.4872,22.3476],[86.4446,22.3124],[86.3287,22.3775],[86.3341,22.308],[86.2162,22.2768],[86.1304,22.1955],[86.2548,22.0371],[86.3363,22.1124],[86.4083,22.1057],[86.5026,22.2118],[86.5817,22.223],[86.6026,22.1372],[86.7226,22.1468]]]},"properties":{"AC_NO":27,"AC_NAME":"SARASKANA (ST)","PC_NO":5,"PC_NAME":"MAYURBHANJ (ST)","district":"MAYURBHANJ"}},{"type":"Feature","geometry":{"type":"Polygon","coordinates":[[[84.7971,22.2406],[84.6691,22.2392],[84.6252,22.3046],[84.4565,22.3812],[84.3591,22.3478],[84.3223,22.259],[84.3427,22.2526],[84.355,22.1437],[84.4765,22.1902],[84.5267,22.0478],[84.5605,22.0312],[84.8439,22.0236],[84.8666,22.0949],[84.7991,22.2356],[84.7971,22.2406]]]},"properties":{"AC_NO":13,"AC_NAME":"RAJGANGPUR (ST)","PC_NO":2,"PC_NAME":"SUNDARGARH (ST)","district":"SUNDARGARH"}},{"type":"Feature","geometry":{"type":"Polygon","coordinates":[[[84.9404,22.2258],[84.828,22.2787],[84.7971,22.2406],[84.7991,22.2356],[84.9404,22.2258]]]},"properties":{"AC_NO":12,"AC_NAME":"ROURKELA","PC_NO":2,"PC_NAME":"SUNDARGARH (ST)","district":"SUNDARGARH"}},{"type":"Feature","geometry":{"type":"Polygon","coordinates":[[[86.7226,22.1468],[86.6026,22.1372],[86.5817,22.223],[86.5026,22.2118],[86.4083,22.1057],[86.3363,22.1124],[86.2548,22.0371],[86.3163,21.932],[86.31,21.9108],[86.3342,21.8861],[86.3587,21.8068],[86.2442,21.8114],[86.2378,21.84],[86.2285,21.8214],[86.2477,21.7508],[86.3728,21.6809],[86.3379,21.5201],[86.4279,21.4886],[86.4377,21.5778],[86.525,21.7405],[86.5253,21.7856],[86.7124,21.9123],[86.7978,22.0041],[86.7903,22.0613],[86.8104,22.0922],[86.817,22.1169],[86.8159,22.1173],[86.7234,22.1467],[86.7226,22.1468]]]},"properties":{"AC_NO":29,"AC_NAME":"BANGRIPOSI (ST)","PC_NO":5,"PC_NAME":"MAYURBHANJ (ST)","district":"MAYURBHANJ"}},{"type":"Feature","geometry":{"type":"Polygon","coordinates":[[[84.9404,22.2258],[84.7991,22.2356],[84.8666,22.0949],[84.9841,22.095],[85.0322,22.1651],[84.9404,22.2258]]]},"properties":{"AC_NO":11,"AC_NAME":"RAGHUNATHPALI (SC)","PC_NO":2,"PC_NAME":"SUNDARGARH (ST)","district":"SUNDARGARH"}},{"type":"Feature","geometry":{"type":"Polygon","coordinates":[[[86.1304,22.1955],[86.0312,22.1914],[86.0071,22.117],[85.9095,21.9878],[85.8243,21.9754],[85.7601,22.0131],[85.7598,22.0867],[85.7577,22.0853],[85.6764,22.0569],[85.669,22.0142],[85.7937,21.9507],[85.788,21.909],[85.809,21.8515],[85.9101,21.8269],[86.0159,21.8622],[86.2285,21.8214],[86.2378,21.84],[86.2442,21.8114],[86.3587,21.8068],[86.3342,21.8861],[86.31,21.9108],[86.3163,21.932],[86.2548,22.0371],[86.1304,22.1955]]]},"properties":{"AC_NO":26,"AC_NAME":"JASHIPUR (ST)","PC_NO":5,"PC_NAME":"MAYURBHANJ (ST)","district":"MAYURBHANJ"}},{"type":"Feature","geometry":{"type":"Polygon","coordinates":[[[83.6092,22.1573],[83.5618,22.0987],[83.5568,21.9363],[83.5788,21.8323],[83.7188,21.786],[83.8941,21.9459],[83.9775,21.9057],[84.0774,21.9372],[84.1171,22.0127],[84.2292,21.9746],[84.2677,22.0161],[84.2675,22.1035],[84.1721,22.1229],[84.0878,22.0837],[84.0166,22.2191],[83.9853,22.2265],[83.8234,22.119],[83.7391,22.1137],[83.6092,22.1573]]]},"properties":{"AC_NO":9,"AC_NAME":"SUNDARGARH (ST)","PC_NO":2,"PC_NAME":"SUNDARGARH (ST)","district":"SUNDARGARH"}},{"type":"Feature","geometry":{"type":"Polygon","coordinates":[[[84.5267,22.0478],[84.4765,22.1902],[84.355,22.1437],[84.2675,22.1035],[84.2677,22.0161],[84.3877,22.0265],[84.3259,21.8667],[84.2571,21.765],[84.1751,21.6345],[84.2079,21.5452],[84.1417,21.5096],[84.2163,21.4044],[84.2783,21.3749],[84.4044,21.3808],[84.4074,21.4763],[84.5426,21.5838],[84.4923,21.6636],[84.6575,21.6822],[84.6769,21.7508],[84.5882,21.7578],[84.5256,21.814],[84.4954,21.9203],[84.5267,22.0478]]]},"properties":{"AC_NO":15,"AC_NAME":"KUCHINDA (ST)","PC_NO":3,"PC_NAME":"SAMBALPUR","district":"SAMBALPUR"}},{"type":"Feature","geometry":{"type":"Polygon","coordinates":[[[85.6764,22.0569],[85.4211,22.159],[85.2815,22.0908],[85.2391,22.0096],[85.2717,21.9605],[85.3759,21.9365],[85.3422,21.8262],[85.3615,21.7987],[85.474,21.8784],[85.5331,21.9988],[85.5847,21.9407],[85.6788,21.9436],[85.788,21.909],[85.7937,21.9507],[85.669,22.0142],[85.6764,22.0569]]]},"properties":{"AC_NO":25,"AC_NAME":"CHAMPUA","PC_NO":4,"PC_NAME":"KEONJHAR (ST)","district":"KEONJHAR (KENDUJHAR)"}},{"type":"Feature","geometry":{"type":"Polygon","coordinates":[[[86.817,22.1169],[86.8104,22.0922],[86.7903,22.0613],[86.7978,22.0041],[86.8838,21.9448],[86.8288,21.8594],[86.8398,21.7938],[86.9941,21.7322],[87.0007,21.6764],[87.0881,21.7271],[87.0949,21.7477],[87.1225,21.7554],[87.1762,21.8138],[87.0979,21.8666],[86.9999,21.9137],[87.0265,22.0369],[86.9657,22.0851],[86.8177,22.1166],[86.817,22.1169]]]},"properties":{"AC_NO":34,"AC_NAME":"MORADA","PC_NO":5,"PC_NAME":"MAYURBHANJ (ST)","district":"MAYURBHANJ"}},{"type":"Feature","geometry":{"type":"Polygon","coordinates":[[[84.9841,22.095],[84.8666,22.0949],[84.8439,22.0236],[84.5605,22.0312],[84.5267,22.0478],[84.4954,21.9203],[84.5256,21.814],[84.5882,21.7578],[84.6769,21.7508],[84.7468,21.6825],[84.8287,21.6603],[85.0255,21.6729],[85.0376,21.601],[85.1439,21.5953],[85.191,21.6613],[85.2001,21.7628],[85.2806,21.835],[85.3422,21.8262],[85.3759,21.9365],[85.2717,21.9605],[85.2391,22.0096],[85.2047,22.0515],[85.2036,22.0524],[85.099,22.106],[84.9841,22.095]]]},"properties":{"AC_NO":14,"AC_NAME":"BONAI (ST)","PC_NO":2,"PC_NAME":"SUNDARGARH (ST)","district":"SUNDARGARH"}},{"type":"Feature","geometry":{"type":"Polygon","coordinates":[[[86.7978,22.0041],[86.7124,21.9123],[86.5253,21.7856],[86.525,21.7405],[86.6136,21.673],[86.6847,21.74],[86.6991,21.8122],[86.8398,21.7938],[86.8288,21.8594],[86.8838,21.9448],[86.7978,22.0041]]]},"properties":{"AC_NO":33,"AC_NAME":"BARIPADA (ST)","PC_NO":5,"PC_NAME":"MAYURBHANJ (ST)","district":"MAYURBHANJ"}},{"type":"Feature","geometry":{"type":"Polygon","coordinates":[[[87.2518,21.8782],[87.2257,21.9579],[87.1053,21.9231],[87.0979,21.8666],[87.1762,21.8138],[87.1225,21.7554],[87.0949,21.7477],[87.0881,21.7271],[87.1091,21.7091],[87.1106,21.7256],[87.1414,21.6581],[87.2992,21.7024],[87.3195,21.7908],[87.3194,21.7908],[87.2521,21.8777],[87.252,21.878],[87.2518,21.8782]]]},"properties":{"AC_NO":35,"AC_NAME":"JALESWAR","PC_NO":6,"PC_NAME":"BALASORE","district":"BALASORE"}},{"type":"Feature","geometry":{"type":"Polygon","coordinates":[[[84.2677,22.0161],[84.2292,21.9746],[84.1171,22.0127],[84.0774,21.9372],[83.9775,21.9057],[83.9187,21.7735],[83.9422,21.7283],[84.1121,21.7906],[84.2571,21.765],[84.3259,21.8667],[84.3877,22.0265],[84.2677,22.0161]]]},"properties":{"AC_NO":7,"AC_NAME":"JHARSUGUDA","PC_NO":1,"PC_NAME":"BARGARH","district":"JHARSUGUDA"}},{"type":"Feature","geometry":{"type":"Polygon","coordinates":[[[85.5847,21.9407],[85.5331,21.9988],[85.474,21.8784],[85.3615,21.7987],[85.4776,21.6861],[85.502,21.5602],[85.5762,21.5141],[85.646,21.5671],[85.7111,21.5672],[85.7679,21.6307],[85.8389,21.6194],[85.658,21.7074],[85.6845,21.7984],[85.5831,21.8539],[85.5847,21.9407]]]},"properties":{"AC_NO":24,"AC_NAME":"KEONJHAR (ST)","PC_NO":4,"PC_NAME":"KEONJHAR (ST)","district":"KEONJHAR (KENDUJHAR)"}},{"type":"Feature","geometry":{"type":"Polygon","coordinates":[[[85.788,21.909],[85.6788,21.9436],[85.5847,21.9407],[85.5831,21.8539],[85.6845,21.7984],[85.658,21.7074],[85.8389,21.6194],[85.9481,21.4592],[85.9935,21.4754],[86.0074,21.5344],[86.0799,21.6359],[86.0488,21.7176],[85.8103,21.8111],[85.809,21.8515],[85.788,21.909]]]},"properties":{"AC_NO":23,"AC_NAME":"PATNA (ST)","PC_NO":4,"PC_NAME":"KEONJHAR (ST)","district":"KEONJHAR (KENDUJHAR)"}},{"type":"Feature","geometry":{"type":"Polygon","coordinates":[[[86.2285,21.8214],[86.0159,21.8622],[85.9101,21.8269],[85.809,21.8515],[85.8103,21.8111],[86.0488,21.7176],[86.0799,21.6359],[86.0074,21.5344],[86.1208,21.478],[86.1615,21.4254],[86.0897,21.3145],[86.1853,21.2738],[86.2849,21.3752],[86.3576,21.2982],[86.4238,21.3314],[86.5007,21.3982],[86.4279,21.4886],[86.3379,21.5201],[86.3728,21.6809],[86.2477,21.7508],[86.2285,21.8214]]]},"properties":{"AC_NO":30,"AC_NAME":"KARANJIA (ST)","PC_NO":4,"PC_NAME":"KEONJHAR (ST)","district":"MAYURBHANJ"}},{"type":"Feature","geometry":{"type":"Polygon","coordinates":[[[83.9775,21.9057],[83.8941,21.9459],[83.7188,21.786],[83.5788,21.8323],[83.4833,21.794],[83.4866,21.6442],[83.5651,21.7443],[83.6996,21.6932],[83.7279,21.6289],[83.7969,21.5661],[83.9621,21.5718],[83.9422,21.7283],[83.9187,21.7735],[83.9775,21.9057]]]},"properties":{"AC_NO":6,"AC_NAME":"BRAJARAJNAGAR","PC_NO":1,"PC_NAME":"BARGARH","district":"JHARSUGUDA"}},{"type":"Feature","geometry":{"type":"Polygon","coordinates":[[[86.8398,21.7938],[86.6991,21.8122],[86.6847,21.74],[86.7119,21.6752],[86.7997,21.6074],[86.9754,21.5859],[87.0004,21.6153],[87.0007,21.6764],[86.9941,21.7322],[86.8398,21.7938]]]},"properties":{"AC_NO":32,"AC_NAME":"BADASAHI (SC)","PC_NO":6,"PC_NAME":"BALASORE","district":"MAYURBHANJ"}},{"type":"Feature","geometry":{"type":"Polygon","coordinates":[[[87.4403,21.77],[87.3228,21.791],[87.3195,21.7908],[87.2992,21.7024],[87.3417,21.5702],[87.4837,21.613],[87.4541,21.74],[87.4403,21.77]]]},"properties":{"AC_NO":36,"AC_NAME":"BHOGRAI","PC_NO":6,"PC_NAME":"BALASORE","district":"BALASORE"}},{"type":"Feature","geometry":{"type":"Polygon","coordinates":[[[85.3422,21.8262],[85.2806,21.835],[85.2001,21.7628],[85.191,21.6613],[85.2421,21.6802],[85.3126,21.569],[85.3424,21.3662],[85.2762,21.2933],[85.3933,21.1837],[85.4979,21.1152],[85.683,21.1862],[85.7269,21.1426],[85.8751,21.0859],[85.9372,21.1337],[85.9612,21.2999],[85.6974,21.3904],[85.646,21.5671],[85.5762,21.5141],[85.502,21.5602],[85.4776,21.6861],[85.3615,21.7987],[85.3422,21.8262]]]},"properties":{"AC_NO":20,"AC_NAME":"TELKOI (ST)","PC_NO":4,"PC_NAME":"KEONJHAR (ST)","district":"KEONJHAR (KENDUJHAR)"}},{"type":"Feature","geometry":{"type":"Polygon","coordinates":[[[87.0881,21.7271],[87.0007,21.6764],[87.0004,21.6153],[87.0925,21.6359],[87.1455,21.5491],[87.2032,21.5315],[87.3417,21.5702],[87.2992,21.7024],[87.1414,21.6581],[87.1106,21.7256],[87.1091,21.7091],[87.0881,21.7271]]]},"properties":{"AC_NO":37,"AC_NAME":"BASTA","PC_NO":6,"PC_NAME":"BALASORE","district":"BALASORE"}},{"type":"Feature","geometry":{"type":"Polygon","coordinates":[[[86.6847,21.74],[86.6136,21.673],[86.525,21.7405],[86.4377,21.5778],[86.4279,21.4886],[86.5007,21.3982],[86.5819,21.5225],[86.6486,21.5809],[86.795,21.5971],[86.7997,21.6074],[86.7119,21.6752],[86.6847,21.74]]]},"properties":{"AC_NO":31,"AC_NAME":"UDALA (ST)","PC_NO":5,"PC_NAME":"MAYURBHANJ (ST)","district":"MAYURBHANJ"}},{"type":"Feature","geometry":{"type":"Polygon","coordinates":[[[84.2571,21.765],[84.1121,21.7906],[83.9422,21.7283],[83.9621,21.5718],[83.7969,21.5661],[83.8476,21.5214],[83.9028,21.5504],[84.0165,21.4686],[83.8799,21.4312],[83.8701,21.3102],[83.9055,21.2597],[83.9243,21.3431],[84.0128,21.3536],[84.1417,21.5096],[84.2079,21.5452],[84.1751,21.6345],[84.2571,21.765]]]},"properties":{"AC_NO":16,"AC_NAME":"RENGALI (SC)","PC_NO":3,"PC_NAME":"SAMBALPUR","district":"SAMBALPUR"}},{"type":"Feature","geometry":{"type":"Polygon","coordinates":[[[84.6769,21.7508],[84.6575,21.6822],[84.4923,21.6636],[84.5426,21.5838],[84.4074,21.4763],[84.4044,21.3808],[84.532,21.3839],[84.6032,21.2622],[84.709,21.3196],[84.7683,21.2539],[84.7433,21.1705],[84.9627,21.1775],[84.8977,21.2609],[85.015,21.3106],[84.9999,21.44],[85.1496,21.4581],[85.203,21.5216],[85.1439,21.5953],[85.0376,21.601],[85.0255,21.6729],[84.8287,21.6603],[84.7468,21.6825],[84.6769,21.7508]]]},"properties":{"AC_NO":19,"AC_NAME":"DEOGARH","PC_NO":3,"PC_NAME":"SAMBALPUR","district":"DEOGARH"}},{"type":"Feature","geometry":{"type":"Polygon","coordinates":[[[83.7279,21.6289],[83.6996,21.6932],[83.5651,21.7443],[83.4866,21.6442],[83.3678,21.5885],[83.3384,21.4991],[83.3989,21.4053],[83.3916,21.3426],[83.2688,21.3784],[83.2762,21.3021],[83.2173,21.2547],[83.1769,21.1356],[83.2961,21.1026],[83.3404,21.2259],[83.4826,21.234],[83.5127,21.3639],[83.662,21.4277],[83.6167,21.5358],[83.7279,21.6289]]]},"properties":{"AC_NO":5,"AC_NAME":"BHATLI","PC_NO":1,"PC_NAME":"BARGARH","district":"BARGARH"}},{"type":"Feature","geometry":{"type":"Polygon","coordinates":[[[87.0004,21.6153],[86.9754,21.5859],[86.9085,21.5181],[86.9788,21.4806],[87.0139,21.4058],[87.2032,21.5315],[87.1455,21.5491],[87.0925,21.6359],[87.0004,21.6153]]]},"properties":{"AC_NO":38,"AC_NAME":"BALASORE","PC_NO":6,"PC_NAME":"BALASORE","district":"BALASORE"}},{"type":"Feature","geometry":{"type":"Polygon","coordinates":[[[86.7997,21.6074],[86.795,21.5971],[86.7967,21.4405],[86.825,21.3527],[86.9068,21.2861],[87.0139,21.4058],[86.9788,21.4806],[86.9085,21.5181],[86.9754,21.5859],[86.7997,21.6074]]]},"properties":{"AC_NO":39,"AC_NAME":"REMUNA (SC)","PC_NO":6,"PC_NAME":"BALASORE","district":"BALASORE"}},{"type":"Feature","geometry":{"type":"Polygon","coordinates":[[[85.1439,21.5953],[85.203,21.5216],[85.1496,21.4581],[84.9999,21.44],[85.015,21.3106],[84.8977,21.2609],[84.9627,21.1775],[84.9697,21.0785],[85.0886,21.127],[85.0834,21.0461],[85.1731,21.0441],[85.2299,21.0726],[85.2718,21.1743],[85.3933,21.1837],[85.2762,21.2933],[85.3424,21.3662],[85.3126,21.569],[85.2421,21.6802],[85.191,21.6613],[85.1439,21.5953]]]},"properties":{"AC_NO":59,"AC_NAME":"PALLAHARA","PC_NO":9,"PC_NAME":"DHENKANAL","district":"ANUGUL"}},{"type":"Feature","geometry":{"type":"Polygon","coordinates":[[[85.8389,21.6194],[85.7679,21.6307],[85.7111,21.5672],[85.646,21.5671],[85.6974,21.3904],[85.9612,21.2999],[85.9372,21.1337],[86.075,21.155],[86.0269,21.0731],[86.0825,21.0158],[86.1335,21.0764],[86.2042,21.0588],[86.179,21.1518],[85.9935,21.4754],[85.9481,21.4592],[85.8389,21.6194]]]},"properties":{"AC_NO":21,"AC_NAME":"GHASIPURA","PC_NO":4,"PC_NAME":"KEONJHAR (ST)","district":"KEONJHAR (KENDUJHAR)"}},{"type":"Feature","geometry":{"type":"Polygon","coordinates":[[[86.795,21.5971],[86.6486,21.5809],[86.5819,21.5225],[86.5007,21.3982],[86.4238,21.3314],[86.4635,21.3025],[86.5907,21.3237],[86.6509,21.4018],[86.7343,21.3399],[86.825,21.3527],[86.7967,21.4405],[86.795,21.5971]]]},"properties":{"AC_NO":40,"AC_NAME":"NILGIRI","PC_NO":6,"PC_NAME":"BALASORE","district":"BALASORE"}},{"type":"Feature","geometry":{"type":"Polygon","coordinates":[[[83.7969,21.5661],[83.7279,21.6289],[83.6167,21.5358],[83.662,21.4277],[83.7639,21.3031],[83.6988,21.273],[83.691,21.2023],[83.6499,21.1301],[83.6881,21.1167],[83.7809,21.1536],[83.8417,21.097],[83.8926,21.1773],[83.9055,21.2597],[83.8701,21.3102],[83.8799,21.4312],[83.8476,21.5214],[83.7969,21.5661]]]},"properties":{"AC_NO":4,"AC_NAME":"ATTABIRA (SC)","PC_NO":1,"PC_NAME":"BARGARH","district":"BARGARH"}},{"type":"Feature","geometry":{"type":"Polygon","coordinates":[[[85.9935,21.4754],[86.179,21.1518],[86.2042,21.0588],[86.2814,21.0222],[86.3158,21.083],[86.2723,21.1491],[86.3642,21.2376],[86.3576,21.2982],[86.2849,21.3752],[86.1853,21.2738],[86.0897,21.3145],[86.1615,21.4254],[86.1208,21.478],[86.0074,21.5344],[85.9935,21.4754]]]},"properties":{"AC_NO":22,"AC_NAME":"ANANDAPUR (SC)","PC_NO":4,"PC_NAME":"KEONJHAR (ST)","district":"KEONJHAR (KENDUJHAR)"}},{"type":"Feature","geometry":{"type":"Polygon","coordinates":[[[83.8799,21.4312],[84.0165,21.4686],[83.9028,21.5504],[83.8476,21.5214],[83.8799,21.4312]]]},"properties":{"AC_NO":17,"AC_NAME":"SAMBALPUR","PC_NO":3,"PC_NAME":"SAMBALPUR","district":"SAMBALPUR"}},{"type":"Feature","geometry":{"type":"Polygon","coordinates":[[[84.1417,21.5096],[84.0128,21.3536],[83.9243,21.3431],[83.9055,21.2597],[83.8926,21.1773],[83.9818,21.1336],[84.018,21.0509],[84.1429,21.0332],[84.2379,20.9228],[84.2787,20.9224],[84.4052,20.9762],[84.4823,21.0812],[84.6793,21.063],[84.6801,21.1468],[84.7433,21.1705],[84.7683,21.2539],[84.709,21.3196],[84.6032,21.2622],[84.532,21.3839],[84.4044,21.3808],[84.2783,21.3749],[84.2163,21.4044],[84.1417,21.5096]]]},"properties":{"AC_NO":18,"AC_NAME":"RAIRAKHOL","PC_NO":3,"PC_NAME":"SAMBALPUR","district":"SAMBALPUR"}},{"type":"Feature","geometry":{"type":"Polygon","coordinates":[[[86.825,21.3527],[86.7343,21.3399],[86.6509,21.4018],[86.5907,21.3237],[86.6075,21.2304],[86.7325,21.1792],[86.77,21.226],[86.8588,21.2097],[86.9068,21.2861],[86.825,21.3527]]]},"properties":{"AC_NO":41,"AC_NAME":"SORO (SC)","PC_NO":7,"PC_NAME":"BHADRAK (SC)","district":"BALASORE"}},{"type":"Feature","geometry":{"type":"Polygon","coordinates":[[[83.691,21.2023],[83.6988,21.273],[83.7639,21.3031],[83.662,21.4277],[83.5127,21.3639],[83.4826,21.234],[83.5895,21.1989],[83.691,21.2023]]]},"properties":{"AC_NO":3,"AC_NAME":"BARGARH","PC_NO":1,"PC_NAME":"BARGARH","district":"BARGARH"}},{"type":"Feature","geometry":{"type":"Polygon","coordinates":[[[86.5907,21.3237],[86.4635,21.3025],[86.4238,21.3314],[86.3576,21.2982],[86.3642,21.2376],[86.4293,21.1627],[86.5295,21.1593],[86.6474,21.0626],[86.6708,21.1678],[86.7325,21.1792],[86.6075,21.2304],[86.5907,21.3237]]]},"properties":{"AC_NO":42,"AC_NAME":"SIMULIA","PC_NO":7,"PC_NAME":"BHADRAK (SC)","district":"BALASORE"}},{"type":"Feature","geometry":{"type":"Polygon","coordinates":[[[86.8588,21.2097],[86.77,21.226],[86.7325,21.1792],[86.6708,21.1678],[86.6474,21.0626],[86.6499,21.0286],[86.6451,20.9346],[86.7339,21.0108],[86.8266,20.9538],[86.9129,20.974],[86.8446,21.1254],[86.8588,21.2097]]]},"properties":{"AC_NO":45,"AC_NAME":"BASUDEVPUR","PC_NO":7,"PC_NAME":"BHADRAK (SC)","district":"BHADRAK"}},{"type":"Feature","geometry":{"type":"Polygon","coordinates":[[[86.4293,21.1627],[86.3642,21.2376],[86.2723,21.1491],[86.3158,21.083],[86.2814,21.0222],[86.2835,20.9356],[86.3795,20.8616],[86.4076,20.9506],[86.4749,20.9866],[86.4033,21.1078],[86.4293,21.1627]]]},"properties":{"AC_NO":43,"AC_NAME":"BHANDARIPOKHARI","PC_NO":7,"PC_NAME":"BHADRAK (SC)","district":"BHADRAK"}},{"type":"Feature","geometry":{"type":"Polygon","coordinates":[[[83.691,21.2023],[83.5895,21.1989],[83.4826,21.234],[83.3404,21.2259],[83.2961,21.1026],[83.1825,20.9794],[83.1547,20.8834],[83.2179,20.9316],[83.301,20.8535],[83.4019,20.8903],[83.3525,21.0713],[83.4571,21.0544],[83.6499,21.1301],[83.691,21.2023]]]},"properties":{"AC_NO":2,"AC_NAME":"BIJEPUR","PC_NO":1,"PC_NAME":"BARGARH","district":"BARGARH"}},{"type":"Feature","geometry":{"type":"Polygon","coordinates":[[[85.7269,21.1426],[85.683,21.1862],[85.4979,21.1152],[85.3933,21.1837],[85.2718,21.1743],[85.2299,21.0726],[85.1731,21.0441],[85.2575,20.9921],[85.2631,20.8917],[85.3333,20.8176],[85.5237,20.749],[85.5671,20.811],[85.4599,20.9134],[85.4725,20.9652],[85.6599,20.9547],[85.724,20.9827],[85.7269,21.1426]]]},"properties":{"AC_NO":58,"AC_NAME":"PARJANGA","PC_NO":9,"PC_NAME":"DHENKANAL","district":"DHENKANAL"}},{"type":"Feature","geometry":{"type":"Polygon","coordinates":[[[86.6474,21.0626],[86.5295,21.1593],[86.4293,21.1627],[86.4033,21.1078],[86.4749,20.9866],[86.6499,21.0286],[86.6474,21.0626]]]},"properties":{"AC_NO":44,"AC_NAME":"BHADRAK","PC_NO":7,"PC_NAME":"BHADRAK (SC)","district":"BHADRAK"}},{"type":"Feature","geometry":{"type":"Polygon","coordinates":[[[86.0825,21.0158],[86.0269,21.0731],[86.075,21.155],[85.9372,21.1337],[85.8751,21.0859],[85.7269,21.1426],[85.724,20.9827],[85.9161,20.929],[85.8988,20.8473],[85.9499,20.8447],[85.9861,20.8844],[86.1057,20.8912],[86.0825,21.0158]]]},"properties":{"AC_NO":54,"AC_NAME":"SUKINDA","PC_NO":8,"PC_NAME":"JAJPUR (SC)","district":"JAJAPUR"}},{"type":"Feature","geometry":{"type":"Polygon","coordinates":[[[84.9627,21.1775],[84.7433,21.1705],[84.6801,21.1468],[84.6793,21.063],[84.7562,21.0616],[84.8077,20.9606],[84.7792,20.8913],[84.828,20.8106],[84.89,20.8417],[85.0032,20.8056],[85.1842,20.8999],[85.1018,20.8947],[85.0006,20.9575],[84.9697,21.0785],[84.9627,21.1775]]]},"properties":{"AC_NO":62,"AC_NAME":"CHHENDIPADA (SC)","PC_NO":3,"PC_NAME":"SAMBALPUR","district":"ANUGUL"}},{"type":"Feature","geometry":{"type":"Polygon","coordinates":[[[82.8973,21.1621],[82.641,21.1549],[82.6364,21.0923],[82.6931,21.0241],[82.6821,20.8842],[82.7002,20.7301],[82.8874,20.9078],[83.0152,20.8608],[83.1547,20.8834],[83.1825,20.9794],[83.2961,21.1026],[83.1769,21.1356],[83.0779,21.112],[82.8973,21.1621]]]},"properties":{"AC_NO":1,"AC_NAME":"PADAMPUR","PC_NO":1,"PC_NAME":"BARGARH","district":"BARGARH"}},{"type":"Feature","geometry":{"type":"Polygon","coordinates":[[[83.8926,21.1773],[83.8417,21.097],[83.7809,21.1536],[83.6881,21.1167],[83.7237,21.0374],[83.7233,20.9329],[83.8333,20.9028],[83.9365,20.8424],[84.0374,20.8203],[84.1439,20.8621],[84.2663,20.8813],[84.2787,20.9224],[84.2379,20.9228],[84.1429,21.0332],[84.018,21.0509],[83.9818,21.1336],[83.8926,21.1773]]]},"properties":{"AC_NO":64,"AC_NAME":"BIRMAHARAJPUR (SC)","PC_NO":10,"PC_NAME":"BOLANGIR","district":"SUBARNAPUR"}},{"type":"Feature","geometry":{"type":"Polygon","coordinates":[[[85.1731,21.0441],[85.0834,21.0461],[85.0886,21.127],[84.9697,21.0785],[85.0006,20.9575],[85.1018,20.8947],[85.1842,20.8999],[85.2468,20.8843],[85.2631,20.8917],[85.2575,20.9921],[85.1731,21.0441]]]},"properties":{"AC_NO":60,"AC_NAME":"TALCHER","PC_NO":9,"PC_NAME":"DHENKANAL","district":"ANUGUL"}},{"type":"Feature","geometry":{"type":"Polygon","coordinates":[[[83.6881,21.1167],[83.6499,21.1301],[83.4571,21.0544],[83.507,20.9802],[83.6174,20.9849],[83.6225,20.8276],[83.6641,20.7058],[83.5931,20.6066],[83.6026,20.5281],[83.6856,20.5606],[83.7731,20.7978],[83.9365,20.8424],[83.8333,20.9028],[83.7233,20.9329],[83.7237,21.0374],[83.6881,21.1167]]]},"properties":{"AC_NO":65,"AC_NAME":"SONEPUR","PC_NO":10,"PC_NAME":"BOLANGIR","district":"SUBARNAPUR"}},{"type":"Feature","geometry":{"type":"Polygon","coordinates":[[[86.2042,21.0588],[86.1335,21.0764],[86.0825,21.0158],[86.1057,20.8912],[86.1974,20.8125],[86.228,20.7918],[86.2079,20.8454],[86.2835,20.9356],[86.2814,21.0222],[86.2042,21.0588]]]},"properties":{"AC_NO":53,"AC_NAME":"KOREI","PC_NO":8,"PC_NAME":"JAJPUR (SC)","district":"JAJAPUR"}},{"type":"Feature","geometry":{"type":"Polygon","coordinates":[[[86.6499,21.0286],[86.4749,20.9866],[86.4076,20.9506],[86.3795,20.8616],[86.5561,20.8625],[86.6008,20.8432],[86.6451,20.9346],[86.6499,21.0286]]]},"properties":{"AC_NO":46,"AC_NAME":"DHAMNAGAR (SC)","PC_NO":7,"PC_NAME":"BHADRAK (SC)","district":"BHADRAK"}},{"type":"Feature","geometry":{"type":"Polygon","coordinates":[[[84.6793,21.063],[84.4823,21.0812],[84.4052,20.9762],[84.2787,20.9224],[84.2663,20.8813],[84.3466,20.8364],[84.3777,20.754],[84.5617,20.6894],[84.6388,20.6239],[84.7902,20.5812],[84.8485,20.5281],[84.8969,20.5819],[84.9876,20.5804],[84.9516,20.6641],[85.0032,20.8056],[84.89,20.8417],[84.828,20.8106],[84.7792,20.8913],[84.8077,20.9606],[84.7562,21.0616],[84.6793,21.063]]]},"properties":{"AC_NO":63,"AC_NAME":"ATHAMALLIK","PC_NO":3,"PC_NAME":"SAMBALPUR","district":"ANUGUL"}},{"type":"Feature","geometry":{"type":"Polygon","coordinates":[[[82.6364,21.0923],[82.5595,20.9484],[82.4811,20.8513],[82.3461,20.874],[82.3478,20.7511],[82.3765,20.6324],[82.3322,20.5619],[82.3896,20.5177],[82.432,20.4169],[82.5369,20.3696],[82.5578,20.4494],[82.7152,20.3985],[82.6838,20.4604],[82.7414,20.6304],[82.7002,20.7301],[82.6821,20.8842],[82.6931,21.0241],[82.6364,21.0923]]]},"properties":{"AC_NO":71,"AC_NAME":"NUAPADA","PC_NO":11,"PC_NAME":"KALAHANDI","district":"NUAPARHA"}},{"type":"Feature","geometry":{"type":"Polygon","coordinates":[[[86.9129,20.974],[86.8266,20.9538],[86.7339,21.0108],[86.6451,20.9346],[86.6008,20.8432],[86.6211,20.7963],[86.795,20.7409],[86.8694,20.7945],[86.9718,20.7939],[86.9768,20.8609],[86.9129,20.974]]]},"properties":{"AC_NO":47,"AC_NAME":"CHANDABALI","PC_NO":7,"PC_NAME":"BHADRAK (SC)","district":"BHADRAK"}},{"type":"Feature","geometry":{"type":"Polygon","coordinates":[[[83.4571,21.0544],[83.3525,21.0713],[83.4019,20.8903],[83.301,20.8535],[83.247,20.7742],[83.3446,20.7481],[83.4427,20.7844],[83.5197,20.7444],[83.5287,20.6602],[83.5931,20.6066],[83.6641,20.7058],[83.6225,20.8276],[83.6174,20.9849],[83.507,20.9802],[83.4571,21.0544]]]},"properties":{"AC_NO":66,"AC_NAME":"LOISINGHA (SC)","PC_NO":10,"PC_NAME":"BOLANGIR","district":"BALANGIR"}},{"type":"Feature","geometry":{"type":"Polygon","coordinates":[[[85.8988,20.8473],[85.9161,20.929],[85.724,20.9827],[85.6599,20.9547],[85.4725,20.9652],[85.4599,20.9134],[85.5671,20.811],[85.5237,20.749],[85.5682,20.6741],[85.6595,20.7065],[85.6553,20.8181],[85.7816,20.8787],[85.8988,20.8473]]]},"properties":{"AC_NO":57,"AC_NAME":"KAMAKHYANAGAR","PC_NO":9,"PC_NAME":"DHENKANAL","district":"DHENKANAL"}},{"type":"Feature","geometry":{"type":"Polygon","coordinates":[[[86.2835,20.9356],[86.2079,20.8454],[86.228,20.7918],[86.3602,20.7911],[86.4126,20.8264],[86.5045,20.7972],[86.5561,20.8625],[86.3795,20.8616],[86.2835,20.9356]]]},"properties":{"AC_NO":52,"AC_NAME":"JAJPUR","PC_NO":8,"PC_NAME":"JAJPUR (SC)","district":"JAJAPUR"}},{"type":"Feature","geometry":{"type":"Polygon","coordinates":[[[86.1057,20.8912],[85.9861,20.8844],[85.9499,20.8447],[86.0305,20.8088],[86.0292,20.7405],[86.2436,20.6752],[86.2589,20.7002],[86.1974,20.8125],[86.1057,20.8912]]]},"properties":{"AC_NO":51,"AC_NAME":"DHARMASALA","PC_NO":8,"PC_NAME":"JAJPUR (SC)","district":"JAJAPUR"}},{"type":"Feature","geometry":{"type":"Polygon","coordinates":[[[83.1547,20.8834],[83.0152,20.8608],[82.8874,20.9078],[82.7002,20.7301],[82.7414,20.6304],[82.8896,20.5392],[82.931,20.4895],[83.0776,20.5345],[83.1493,20.6076],[83.1652,20.6558],[83.2615,20.6776],[83.247,20.7742],[83.301,20.8535],[83.2179,20.9316],[83.1547,20.8834]]]},"properties":{"AC_NO":67,"AC_NAME":"PATNAGARH","PC_NO":10,"PC_NAME":"BOLANGIR","district":"BALANGIR"}},{"type":"Feature","geometry":{"type":"Polygon","coordinates":[[[85.1842,20.8999],[85.0032,20.8056],[84.9516,20.6641],[84.9876,20.5804],[85.1271,20.6162],[85.2549,20.7955],[85.2468,20.8843],[85.1842,20.8999]]]},"properties":{"AC_NO":61,"AC_NAME":"ANGUL","PC_NO":9,"PC_NAME":"DHENKANAL","district":"ANUGUL"}},{"type":"Feature","geometry":{"type":"Polygon","coordinates":[[[86.5561,20.8625],[86.5045,20.7972],[86.4126,20.8264],[86.3602,20.7911],[86.3896,20.6903],[86.4692,20.689],[86.556,20.7065],[86.6211,20.7963],[86.6008,20.8432],[86.5561,20.8625]]]},"properties":{"AC_NO":48,"AC_NAME":"BINJHARPUR (SC)","PC_NO":8,"PC_NAME":"JAJPUR (SC)","district":"JAJAPUR"}},{"type":"Feature","geometry":{"type":"Polygon","coordinates":[[[85.2631,20.8917],[85.2468,20.8843],[85.2549,20.7955],[85.1271,20.6162],[85.2505,20.5183],[85.4498,20.4913],[85.4685,20.4993],[85.4464,20.5246],[85.5165,20.6501],[85.5682,20.6741],[85.5237,20.749],[85.3333,20.8176],[85.2631,20.8917]]]},"properties":{"AC_NO":56,"AC_NAME":"HINDOL (SC)","PC_NO":9,"PC_NAME":"DHENKANAL","district":"DHENKANAL"}},{"type":"Feature","geometry":{"type":"Polygon","coordinates":[[[85.8988,20.8473],[85.7816,20.8787],[85.6553,20.8181],[85.6595,20.7065],[85.5682,20.6741],[85.5165,20.6501],[85.4464,20.5246],[85.4685,20.4993],[85.6562,20.5499],[85.7166,20.6389],[85.91,20.6899],[85.9097,20.7011],[86.0292,20.7405],[86.0305,20.8088],[85.9499,20.8447],[85.8988,20.8473]]]},"properties":{"AC_NO":55,"AC_NAME":"DHENKANAL","PC_NO":9,"PC_NAME":"DHENKANAL","district":"DHENKANAL"}},{"type":"Feature","geometry":{"type":"Polygon","coordinates":[[[84.1439,20.8621],[84.1447,20.7557],[84.1048,20.5919],[84.2252,20.582],[84.2982,20.687],[84.3568,20.6711],[84.3814,20.5587],[84.5101,20.3959],[84.6896,20.4412],[84.7125,20.5242],[84.7902,20.5812],[84.6388,20.6239],[84.5617,20.6894],[84.3777,20.754],[84.3466,20.8364],[84.2663,20.8813],[84.1439,20.8621]]]},"properties":{"AC_NO":86,"AC_NAME":"BOUDH","PC_NO":13,"PC_NAME":"KANDHAMAL","district":"BOUDH"}},{"type":"Feature","geometry":{"type":"Polygon","coordinates":[[[83.9365,20.8424],[83.7731,20.7978],[83.6856,20.5606],[83.6026,20.5281],[83.5693,20.4829],[83.6658,20.4226],[83.7809,20.4104],[83.8051,20.5089],[83.8733,20.582],[84.0146,20.5681],[84.1048,20.5919],[84.1447,20.7557],[84.1439,20.8621],[84.0374,20.8203],[83.9365,20.8424]]]},"properties":{"AC_NO":85,"AC_NAME":"KANTAMAL","PC_NO":13,"PC_NAME":"KANDHAMAL","district":"BOUDH"}},{"type":"Feature","geometry":{"type":"Polygon","coordinates":[[[86.1974,20.8125],[86.2589,20.7002],[86.32,20.6296],[86.3827,20.5986],[86.456,20.6546],[86.4692,20.689],[86.3896,20.6903],[86.3602,20.7911],[86.228,20.7918],[86.1974,20.8125]]]},"properties":{"AC_NO":49,"AC_NAME":"BARI","PC_NO":8,"PC_NAME":"JAJPUR (SC)","district":"JAJAPUR"}},{"type":"Feature","geometry":{"type":"Polygon","coordinates":[[[86.6211,20.7963],[86.556,20.7065],[86.4692,20.689],[86.456,20.6546],[86.5685,20.6161],[86.763,20.6248],[86.8163,20.7318],[86.795,20.7409],[86.6211,20.7963]]]},"properties":{"AC_NO":98,"AC_NAME":"AUL","PC_NO":15,"PC_NAME":"KENDRAPARA","district":"KENDRAPARA"}},{"type":"Feature","geometry":{"type":"Polygon","coordinates":[[[83.247,20.7742],[83.2615,20.6776],[83.1652,20.6558],[83.1493,20.6076],[83.2571,20.5115],[83.3436,20.5356],[83.4097,20.5015],[83.4901,20.5312],[83.5693,20.4829],[83.6026,20.5281],[83.5931,20.6066],[83.5287,20.6602],[83.5197,20.7444],[83.4427,20.7844],[83.3446,20.7481],[83.247,20.7742]]]},"properties":{"AC_NO":68,"AC_NAME":"BOLANGIR","PC_NO":10,"PC_NAME":"BOLANGIR","district":"BALANGIR"}},{"type":"Feature","geometry":{"type":"Polygon","coordinates":[[[86.7538,20.5185],[87.0556,20.715],[87.0411,20.7589],[86.8548,20.7735],[86.8163,20.7318],[86.763,20.6248],[86.5685,20.6161],[86.549,20.4868],[86.7538,20.5185]]]},"properties":{"AC_NO":99,"AC_NAME":"RAJANAGAR","PC_NO":15,"PC_NAME":"KENDRAPARA","district":"KENDRAPARA"}},{"type":"Feature","geometry":{"type":"Polygon","coordinates":[[[86.0292,20.7405],[85.9097,20.7011],[86.0812,20.6014],[86.1789,20.6565],[86.2799,20.5826],[86.32,20.6296],[86.2589,20.7002],[86.2436,20.6752],[86.0292,20.7405]]]},"properties":{"AC_NO":50,"AC_NAME":"BARACHANA","PC_NO":8,"PC_NAME":"JAJPUR (SC)","district":"JAJAPUR"}},{"type":"Feature","geometry":{"type":"Polygon","coordinates":[[[85.9097,20.7011],[85.91,20.6899],[85.922,20.5845],[85.9402,20.5117],[85.9395,20.4595],[86.0895,20.4335],[86.1084,20.4617],[86.0812,20.6014],[85.9097,20.7011]]]},"properties":{"AC_NO":94,"AC_NAME":"SALIPUR","PC_NO":15,"PC_NAME":"KENDRAPARA","district":"CUTTACK"}},{"type":"Feature","geometry":{"type":"Polygon","coordinates":[[[85.91,20.6899],[85.7166,20.6389],[85.6562,20.5499],[85.4685,20.4993],[85.4498,20.4913],[85.4897,20.3982],[85.6027,20.4962],[85.7111,20.4374],[85.7661,20.4945],[85.819,20.5079],[85.922,20.5845],[85.91,20.6899]]]},"properties":{"AC_NO":89,"AC_NAME":"ATHAGARH","PC_NO":14,"PC_NAME":"CUTTACK","district":"CUTTACK"}},{"type":"Feature","geometry":{"type":"Polygon","coordinates":[[[86.5685,20.6161],[86.456,20.6546],[86.3827,20.5986],[86.4365,20.4492],[86.549,20.4868],[86.5685,20.6161]]]},"properties":{"AC_NO":97,"AC_NAME":"KENDRAPARA (SC)","PC_NO":15,"PC_NAME":"KENDRAPARA","district":"KENDRAPARA"}},{"type":"Feature","geometry":{"type":"Polygon","coordinates":[[[86.2799,20.5826],[86.1789,20.6565],[86.0812,20.6014],[86.1084,20.4617],[86.1952,20.4529],[86.2661,20.3985],[86.2799,20.5826]]]},"properties":{"AC_NO":95,"AC_NAME":"MAHANGA","PC_NO":15,"PC_NAME":"KENDRAPARA","district":"CUTTACK"}},{"type":"Feature","geometry":{"type":"Polygon","coordinates":[[[84.1048,20.5919],[84.0146,20.5681],[83.8733,20.582],[83.8051,20.5089],[83.7809,20.4104],[83.8256,20.326],[84.0249,20.2821],[84.1781,20.2248],[84.2704,20.3101],[84.4378,20.202],[84.4867,20.1407],[84.585,20.1865],[84.5415,20.2526],[84.5101,20.3959],[84.3814,20.5587],[84.3568,20.6711],[84.2982,20.687],[84.2252,20.582],[84.1048,20.5919]]]},"properties":{"AC_NO":84,"AC_NAME":"PHULBANI (ST)","PC_NO":13,"PC_NAME":"KANDHAMAL","district":"KANDHAMAL"}},{"type":"Feature","geometry":{"type":"Polygon","coordinates":[[[86.3827,20.5986],[86.32,20.6296],[86.2799,20.5826],[86.2661,20.3985],[86.2485,20.3647],[86.3475,20.3563],[86.4119,20.3591],[86.4365,20.4492],[86.3827,20.5986]]]},"properties":{"AC_NO":96,"AC_NAME":"PATKURA","PC_NO":15,"PC_NAME":"KENDRAPARA","district":"KENDRAPARA"}},{"type":"Feature","geometry":{"type":"Polygon","coordinates":[[[84.9876,20.5804],[84.8969,20.5819],[84.8485,20.5281],[85.105,20.411],[85.2686,20.3591],[85.3693,20.3663],[85.4897,20.3982],[85.4498,20.4913],[85.2505,20.5183],[85.1271,20.6162],[84.9876,20.5804]]]},"properties":{"AC_NO":87,"AC_NAME":"BARAMBA","PC_NO":14,"PC_NAME":"CUTTACK","district":"CUTTACK"}},{"type":"Feature","geometry":{"type":"Polygon","coordinates":[[[85.922,20.5845],[85.819,20.5079],[85.9402,20.5117],[85.922,20.5845]]]},"properties":{"AC_NO":91,"AC_NAME":"CHOUDWAR-CUTTACK","PC_NO":14,"PC_NAME":"CUTTACK","district":"CUTTACK"}},{"type":"Feature","geometry":{"type":"Polygon","coordinates":[[[83.0776,20.5345],[82.931,20.4895],[82.8896,20.5392],[82.7414,20.6304],[82.6838,20.4604],[82.7152,20.3985],[82.8601,20.2693],[82.8228,20.1651],[82.9243,20.1782],[82.9853,20.2601],[83.0823,20.2551],[83.1802,20.4305],[83.0776,20.5345]]]},"properties":{"AC_NO":70,"AC_NAME":"KANTABANJI","PC_NO":10,"PC_NAME":"BOLANGIR","district":"BALANGIR"}},{"type":"Feature","geometry":{"type":"Polygon","coordinates":[[[83.5693,20.4829],[83.4901,20.5312],[83.4097,20.5015],[83.3436,20.5356],[83.2571,20.5115],[83.1493,20.6076],[83.0776,20.5345],[83.1802,20.4305],[83.0823,20.2551],[82.9853,20.2601],[82.9243,20.1782],[82.944,20.1739],[83.2252,20.2049],[83.238,20.257],[83.3608,20.3163],[83.4222,20.404],[83.4876,20.4184],[83.6243,20.3503],[83.6507,20.3883],[83.6658,20.4226],[83.5693,20.4829]]]},"properties":{"AC_NO":69,"AC_NAME":"TITLAGARH","PC_NO":10,"PC_NAME":"BOLANGIR","district":"BALANGIR"}},{"type":"Feature","geometry":{"type":"Polygon","coordinates":[[[84.7902,20.5812],[84.7125,20.5242],[84.6896,20.4412],[84.5101,20.3959],[84.5415,20.2526],[84.585,20.1865],[84.6723,20.2741],[84.8318,20.2163],[84.8419,20.0465],[85.0421,20.1236],[85.1186,20.2226],[85.0023,20.3028],[84.9852,20.353],[85.105,20.411],[84.8485,20.5281],[84.7902,20.5812]]]},"properties":{"AC_NO":121,"AC_NAME":"DASPALLA (SC)","PC_NO":13,"PC_NAME":"KANDHAMAL","district":"NAYAGARH"}},{"type":"Feature","geometry":{"type":"Polygon","coordinates":[[[86.549,20.4868],[86.4365,20.4492],[86.4119,20.3591],[86.5524,20.3238],[86.607,20.3419],[86.6964,20.2969],[86.7766,20.3347],[86.7308,20.4114],[86.7538,20.5185],[86.549,20.4868]]]},"properties":{"AC_NO":100,"AC_NAME":"MAHAKALAPADA","PC_NO":15,"PC_NAME":"KENDRAPARA","district":"KENDRAPARA"}},{"type":"Feature","geometry":{"type":"Polygon","coordinates":[[[85.819,20.5079],[85.7661,20.4945],[85.8586,20.4621],[85.9395,20.4595],[85.9402,20.5117],[85.819,20.5079]]]},"properties":{"AC_NO":90,"AC_NAME":"BARABATI-CUTTACK","PC_NO":14,"PC_NAME":"CUTTACK","district":"CUTTACK"}},{"type":"Feature","geometry":{"type":"Polygon","coordinates":[[[85.7661,20.4945],[85.7111,20.4374],[85.6027,20.4962],[85.4897,20.3982],[85.3693,20.3663],[85.3329,20.2812],[85.4525,20.2674],[85.5475,20.3017],[85.6233,20.2926],[85.7154,20.4038],[85.8283,20.405],[85.8656,20.4136],[85.8586,20.4621],[85.7661,20.4945]]]},"properties":{"AC_NO":88,"AC_NAME":"BANKI","PC_NO":14,"PC_NAME":"CUTTACK","district":"CUTTACK"}},{"type":"Feature","geometry":{"type":"Polygon","coordinates":[[[85.8283,20.405],[85.7154,20.4038],[85.6233,20.2926],[85.5475,20.3017],[85.5557,20.1704],[85.6492,20.0983],[85.6764,20.0694],[85.6857,20.1528],[85.805,20.16],[85.811,20.2152],[85.7539,20.2675],[85.7976,20.3408],[85.8176,20.3687],[85.8283,20.405]]]},"properties":{"AC_NO":115,"AC_NAME":"JATANI","PC_NO":18,"PC_NAME":"BHUBANESWAR","district":"KHORDHA"}},{"type":"Feature","geometry":{"type":"Polygon","coordinates":[[[85.8976,20.3364],[85.8656,20.4136],[85.8283,20.405],[85.8176,20.3687],[85.8805,20.3026],[85.8976,20.3364]]]},"properties":{"AC_NO":113,"AC_NAME":"BHUBANESWAR(UTTAR)","PC_NO":18,"PC_NAME":"BHUBANESWAR","district":"KHORDHA"}},{"type":"Feature","geometry":{"type":"Polygon","coordinates":[[[83.6507,20.3883],[83.6243,20.3503],[83.4876,20.4184],[83.4222,20.404],[83.3608,20.3163],[83.238,20.257],[83.2252,20.2049],[83.2829,20.1757],[83.2292,20.0389],[83.3089,19.9596],[83.4026,19.9975],[83.4505,20.0687],[83.5469,20.0326],[83.5883,20.0989],[83.7105,20.1015],[83.7898,20.1806],[83.7189,20.2372],[83.7058,20.3678],[83.6507,20.3883]]]},"properties":{"AC_NO":81,"AC_NAME":"NARLA","PC_NO":11,"PC_NAME":"KALAHANDI","district":"KALAHANDI"}},{"type":"Feature","geometry":{"type":"Polygon","coordinates":[[[86.2485,20.3647],[86.0146,20.3747],[86.0722,20.2487],[86.1965,20.315],[86.2526,20.218],[86.3354,20.179],[86.3866,20.2214],[86.329,20.2667],[86.3475,20.3563],[86.2485,20.3647]]]},"properties":{"AC_NO":102,"AC_NAME":"TIRTOL (SC)","PC_NO":16,"PC_NAME":"JAGATSINGHPUR (SC)","district":"JAGATSINGHPUR"}},{"type":"Feature","geometry":{"type":"Polygon","coordinates":[[[82.7152,20.3985],[82.5578,20.4494],[82.5369,20.3696],[82.432,20.4169],[82.4225,20.2208],[82.39,20.1637],[82.3983,20.0582],[82.5953,19.9918],[82.7122,19.9974],[82.8228,20.1651],[82.8601,20.2693],[82.7152,20.3985]]]},"properties":{"AC_NO":72,"AC_NAME":"KHARIAR","PC_NO":11,"PC_NAME":"KALAHANDI","district":"NUAPARHA"}},{"type":"Feature","geometry":{"type":"Polygon","coordinates":[[[83.6658,20.4226],[83.6507,20.3883],[83.7058,20.3678],[83.7189,20.2372],[83.7898,20.1806],[83.7105,20.1015],[83.5883,20.0989],[83.5469,20.0326],[83.4949,19.9606],[83.5538,19.9106],[83.5423,19.8438],[83.6155,19.8004],[83.6894,19.6891],[83.7664,19.7165],[83.93,19.6788],[83.9836,19.9269],[83.8863,19.9427],[83.7981,20.0156],[84.1846,20.0514],[84.2168,20.1441],[84.1781,20.2248],[84.0249,20.2821],[83.8256,20.326],[83.7809,20.4104],[83.6658,20.4226]]]},"properties":{"AC_NO":82,"AC_NAME":"BALIGUDA (ST)","PC_NO":13,"PC_NAME":"KANDHAMAL","district":"KANDHAMAL"}},{"type":"Feature","geometry":{"type":"Polygon","coordinates":[[[85.105,20.411],[84.9852,20.353],[85.0023,20.3028],[85.1186,20.2226],[85.1991,20.1893],[85.3227,20.2296],[85.3329,20.2812],[85.3693,20.3663],[85.2686,20.3591],[85.105,20.411]]]},"properties":{"AC_NO":120,"AC_NAME":"KHANDAPADA","PC_NO":14,"PC_NAME":"CUTTACK","district":"NAYAGARH"}},{"type":"Feature","geometry":{"type":"Polygon","coordinates":[[[86.3475,20.3563],[86.329,20.2667],[86.3866,20.2214],[86.4737,20.2577],[86.6373,20.2448],[86.7766,20.3347],[86.6964,20.2969],[86.607,20.3419],[86.5524,20.3238],[86.4119,20.3591],[86.3475,20.3563]]]},"properties":{"AC_NO":101,"AC_NAME":"PARADEEP","PC_NO":16,"PC_NAME":"JAGATSINGHPUR (SC)","district":"JAGATSINGHPUR"}},{"type":"Feature","geometry":{"type":"Polygon","coordinates":[[[86.0146,20.3747],[85.9141,20.3476],[85.9226,20.295],[86.079,20.1056],[86.1223,20.0398],[86.1838,20.0508],[86.1419,20.1443],[86.1499,20.2146],[86.0722,20.2487],[86.0146,20.3747]]]},"properties":{"AC_NO":92,"AC_NAME":"NIALI (SC)","PC_NO":16,"PC_NAME":"JAGATSINGHPUR (SC)","district":"CUTTACK"}},{"type":"Feature","geometry":{"type":"Polygon","coordinates":[[[86.1084,20.4617],[86.0895,20.4335],[85.9395,20.4595],[85.8586,20.4621],[85.8656,20.4136],[85.8976,20.3364],[85.9141,20.3476],[86.0146,20.3747],[86.2485,20.3647],[86.2661,20.3985],[86.1952,20.4529],[86.1084,20.4617]]]},"properties":{"AC_NO":93,"AC_NAME":"CUTTACK SADAR (SC)","PC_NO":14,"PC_NAME":"CUTTACK","district":"CUTTACK"}},{"type":"Feature","geometry":{"type":"Polygon","coordinates":[[[85.9141,20.3476],[85.8976,20.3364],[85.8805,20.3026],[85.8605,20.2003],[85.873,20.1218],[86.079,20.1056],[85.9226,20.295],[85.9141,20.3476]]]},"properties":{"AC_NO":111,"AC_NAME":"JAYADEV (SC)","PC_NO":17,"PC_NAME":"PURI","district":"KHORDHA"}},{"type":"Feature","geometry":{"type":"Polygon","coordinates":[[[85.811,20.2152],[85.8709,20.2695],[85.7976,20.3408],[85.7539,20.2675],[85.811,20.2152]]]},"properties":{"AC_NO":112,"AC_NAME":"BHUBANESWAR(MADHYA)","PC_NO":18,"PC_NAME":"BHUBANESWAR","district":"KHORDHA"}},{"type":"Feature","geometry":{"type":"Polygon","coordinates":[[[86.0722,20.2487],[86.1499,20.2146],[86.1419,20.1443],[86.1838,20.0508],[86.2686,20.0529],[86.2118,20.146],[86.2526,20.218],[86.1965,20.315],[86.0722,20.2487]]]},"properties":{"AC_NO":104,"AC_NAME":"JAGATSINGHPUR","PC_NO":16,"PC_NAME":"JAGATSINGHPUR (SC)","district":"JAGATSINGHPUR"}},{"type":"Feature","geometry":{"type":"Polygon","coordinates":[[[85.8176,20.3687],[85.7976,20.3408],[85.8709,20.2695],[85.811,20.2152],[85.805,20.16],[85.8605,20.2003],[85.8805,20.3026],[85.8176,20.3687]]]},"properties":{"AC_NO":114,"AC_NAME":"EKAMRA-BHUBANESHWAR","PC_NO":18,"PC_NAME":"BHUBANESWAR","district":"KHORDHA"}},{"type":"Feature","geometry":{"type":"Polygon","coordinates":[[[84.1781,20.2248],[84.2168,20.1441],[84.1846,20.0514],[83.7981,20.0156],[83.8863,19.9427],[83.9836,19.9269],[83.93,19.6788],[83.94,19.6352],[84.1277,19.6374],[84.1534,19.5839],[84.2392,19.5761],[84.245,19.6428],[84.16,19.735],[84.1855,19.8607],[84.2772,19.8807],[84.4239,19.8353],[84.4615,19.8795],[84.4632,19.9542],[84.3563,19.9909],[84.4416,20.1469],[84.4378,20.202],[84.2704,20.3101],[84.1781,20.2248]]]},"properties":{"AC_NO":83,"AC_NAME":"G. UDAYAGIRI (ST)","PC_NO":13,"PC_NAME":"KANDHAMAL","district":"KANDHAMAL"}},{"type":"Feature","geometry":{"type":"Polygon","coordinates":[[[86.6373,20.2448],[86.4737,20.2577],[86.3866,20.2214],[86.3354,20.179],[86.2526,20.218],[86.2118,20.146],[86.2686,20.0529],[86.3878,19.9723],[86.5204,20.1702],[86.6373,20.2448]]]},"properties":{"AC_NO":103,"AC_NAME":"BALIKUDA-ERASAMA","PC_NO":16,"PC_NAME":"JAGATSINGHPUR (SC)","district":"JAGATSINGHPUR"}},{"type":"Feature","geometry":{"type":"Polygon","coordinates":[[[85.5475,20.3017],[85.4525,20.2674],[85.3329,20.2812],[85.3227,20.2296],[85.1991,20.1893],[85.2469,20.1189],[85.3466,20.1873],[85.4164,20.1247],[85.431,20.0291],[85.5355,20.0914],[85.5557,20.1704],[85.5475,20.3017]]]},"properties":{"AC_NO":116,"AC_NAME":"BEGUNIA","PC_NO":18,"PC_NAME":"BHUBANESWAR","district":"KHORDHA"}},{"type":"Feature","geometry":{"type":"Polygon","coordinates":[[[84.8419,20.0465],[84.8318,20.2163],[84.6723,20.2741],[84.585,20.1865],[84.4867,20.1407],[84.4378,20.202],[84.4416,20.1469],[84.3563,19.9909],[84.4632,19.9542],[84.4615,19.8795],[84.6429,19.9302],[84.7068,19.8688],[84.9163,19.9516],[84.8419,20.0465]]]},"properties":{"AC_NO":123,"AC_NAME":"BHANJANAGAR","PC_NO":13,"PC_NAME":"KANDHAMAL","district":"GANJAM"}},{"type":"Feature","geometry":{"type":"Polygon","coordinates":[[[85.1991,20.1893],[85.1186,20.2226],[85.0421,20.1236],[84.8419,20.0465],[84.9163,19.9516],[84.94,19.8973],[85.0499,19.9154],[85.0636,20.0854],[85.1488,20.0584],[85.2469,20.1189],[85.1991,20.1893]]]},"properties":{"AC_NO":122,"AC_NAME":"NAYAGARH","PC_NO":17,"PC_NAME":"PURI","district":"NAYAGARH"}},{"type":"Feature","geometry":{"type":"Polygon","coordinates":[[[85.8605,20.2003],[85.805,20.16],[85.6857,20.1528],[85.6764,20.0694],[85.739,19.9905],[85.8756,19.9883],[85.873,20.1218],[85.8605,20.2003]]]},"properties":{"AC_NO":110,"AC_NAME":"PIPILI","PC_NO":17,"PC_NAME":"PURI","district":"PURI"}},{"type":"Feature","geometry":{"type":"Polygon","coordinates":[[[85.6492,20.0983],[85.5557,20.1704],[85.5355,20.0914],[85.431,20.0291],[85.4551,19.9728],[85.2667,19.9132],[85.325,19.8665],[85.4395,19.8826],[85.5625,19.8634],[85.562,19.9955],[85.6135,19.9929],[85.6492,20.0983]]]},"properties":{"AC_NO":117,"AC_NAME":"KHURDA","PC_NO":18,"PC_NAME":"BHUBANESWAR","district":"KHORDHA"}},{"type":"Feature","geometry":{"type":"Polygon","coordinates":[[[85.431,20.0291],[85.4164,20.1247],[85.3466,20.1873],[85.2469,20.1189],[85.1488,20.0584],[85.0636,20.0854],[85.0499,19.9154],[85.2667,19.9132],[85.4551,19.9728],[85.431,20.0291]]]},"properties":{"AC_NO":119,"AC_NAME":"RANPUR","PC_NO":17,"PC_NAME":"PURI","district":"NAYAGARH"}},{"type":"Feature","geometry":{"type":"Polygon","coordinates":[[[83.2252,20.2049],[82.944,20.1739],[83.0422,20.0933],[83.0106,19.9789],[83.0384,19.9183],[83.0889,19.9417],[83.2211,19.9006],[83.3089,19.9596],[83.2292,20.0389],[83.2829,20.1757],[83.2252,20.2049]]]},"properties":{"AC_NO":80,"AC_NAME":"BHAWANIPATNA (SC)","PC_NO":11,"PC_NAME":"KALAHANDI","district":"KALAHANDI"}},{"type":"Feature","geometry":{"type":"Polygon","coordinates":[[[82.944,20.1739],[82.9243,20.1782],[82.8228,20.1651],[82.7122,19.9974],[82.7185,19.9506],[82.8518,19.888],[82.8376,19.732],[82.9043,19.6656],[83.0389,19.7069],[83.0783,19.7699],[83.0384,19.9183],[83.0106,19.9789],[83.0422,20.0933],[82.944,20.1739]]]},"properties":{"AC_NO":78,"AC_NAME":"JUNAGARH","PC_NO":11,"PC_NAME":"KALAHANDI","district":"KALAHANDI"}},{"type":"Feature","geometry":{"type":"Polygon","coordinates":[[[86.079,20.1056],[85.873,20.1218],[85.8756,19.9883],[85.9419,19.9494],[85.961,19.8842],[86.0396,19.9208],[86.1223,20.0398],[86.079,20.1056]]]},"properties":{"AC_NO":106,"AC_NAME":"NIMAPARA","PC_NO":16,"PC_NAME":"JAGATSINGHPUR (SC)","district":"PURI"}},{"type":"Feature","geometry":{"type":"Polygon","coordinates":[[[85.6764,20.0694],[85.6492,20.0983],[85.6135,19.9929],[85.562,19.9955],[85.5625,19.8634],[85.5885,19.8988],[85.7614,19.9294],[85.8064,19.9075],[85.9419,19.9494],[85.8756,19.9883],[85.739,19.9905],[85.6764,20.0694]]]},"properties":{"AC_NO":109,"AC_NAME":"SATYABADI","PC_NO":17,"PC_NAME":"PURI","district":"PURI"}},{"type":"Feature","geometry":{"type":"Polygon","coordinates":[[[86.1223,20.0398],[86.0396,19.9208],[85.961,19.8842],[85.9359,19.8262],[86.1928,19.8893],[86.3878,19.9723],[86.2686,20.0529],[86.1838,20.0508],[86.1223,20.0398]]]},"properties":{"AC_NO":105,"AC_NAME":"KAKATPUR (SC)","PC_NO":16,"PC_NAME":"JAGATSINGHPUR (SC)","district":"PURI"}},{"type":"Feature","geometry":{"type":"Polygon","coordinates":[[[82.0175,20.0483],[81.9471,20.1071],[81.8794,20.0508],[81.8536,19.9183],[81.8886,19.8927],[82.0647,19.79],[82.0528,19.6761],[82.1878,19.7036],[82.2689,19.748],[82.344,19.8359],[82.2688,19.9764],[82.0649,20.0567],[82.0175,20.0483]]]},"properties":{"AC_NO":73,"AC_NAME":"UMERKOTE (ST)","PC_NO":12,"PC_NAME":"NABARANGPUR (ST)","district":"NABARANGAPUR"}},{"type":"Feature","geometry":{"type":"Polygon","coordinates":[[[83.5469,20.0326],[83.4505,20.0687],[83.4026,19.9975],[83.3089,19.9596],[83.2211,19.9006],[83.0889,19.9417],[83.0384,19.9183],[83.0783,19.7699],[83.0389,19.7069],[82.9043,19.6656],[82.8877,19.5601],[82.7752,19.5905],[82.6697,19.5812],[82.6458,19.5076],[82.6547,19.4563],[82.7256,19.3451],[82.8473,19.3245],[82.8566,19.2032],[82.8719,19.1989],[82.9183,19.2382],[82.9783,19.4493],[83.0438,19.5564],[83.1077,19.5378],[83.2161,19.4312],[83.2664,19.6012],[83.3698,19.6199],[83.4545,19.7411],[83.4042,19.9205],[83.4949,19.9606],[83.5469,20.0326]]]},"properties":{"AC_NO":77,"AC_NAME":"LANJIGARH (ST)","PC_NO":11,"PC_NAME":"KALAHANDI","district":"KALAHANDI"}},{"type":"Feature","geometry":{"type":"Polygon","coordinates":[[[85.807,19.8916],[85.8019,19.7879],[85.9359,19.8262],[85.961,19.8842],[85.9419,19.9494],[85.8064,19.9075],[85.807,19.8916]]]},"properties":{"AC_NO":107,"AC_NAME":"PURI","PC_NO":17,"PC_NAME":"PURI","district":"PURI"}},{"type":"Feature","geometry":{"type":"Polygon","coordinates":[[[84.9163,19.9516],[84.7068,19.8688],[84.6454,19.7826],[84.7364,19.6749],[84.8011,19.6457],[84.8498,19.6259],[84.9099,19.7121],[85.0056,19.7345],[85.0372,19.8067],[84.94,19.8973],[84.9163,19.9516]]]},"properties":{"AC_NO":124,"AC_NAME":"POLASARA","PC_NO":19,"PC_NAME":"ASKA","district":"GANJAM"}},{"type":"Feature","geometry":{"type":"Polygon","coordinates":[[[82.7185,19.9506],[82.7244,19.8758],[82.5945,19.7755],[82.5292,19.585],[82.6458,19.5076],[82.6697,19.5812],[82.7752,19.5905],[82.8877,19.5601],[82.9043,19.6656],[82.8376,19.732],[82.8518,19.888],[82.7185,19.9506]]]},"properties":{"AC_NO":79,"AC_NAME":"DHARMGARH","PC_NO":11,"PC_NAME":"KALAHANDI","district":"KALAHANDI"}},{"type":"Feature","geometry":{"type":"Polygon","coordinates":[[[83.4949,19.9606],[83.4042,19.9205],[83.4545,19.7411],[83.3698,19.6199],[83.2664,19.6012],[83.2161,19.4312],[83.2892,19.3773],[83.2498,19.3068],[83.3504,19.2777],[83.4407,19.2905],[83.5862,19.0873],[83.6372,19.1536],[83.6106,19.2998],[83.6446,19.3465],[83.6505,19.4811],[83.5776,19.6151],[83.6894,19.6891],[83.6155,19.8004],[83.5423,19.8438],[83.5538,19.9106],[83.4949,19.9606]]]},"properties":{"AC_NO":139,"AC_NAME":"BISSAM CUTTACK (ST)","PC_NO":21,"PC_NAME":"KORAPUT (ST)","district":"RAYAGARHA"}},{"type":"Feature","geometry":{"type":"Polygon","coordinates":[[[85.8064,19.9075],[85.7614,19.9294],[85.5885,19.8988],[85.5625,19.8634],[85.4395,19.8826],[85.33,19.7854],[85.2523,19.7679],[85.1823,19.6718],[85.1486,19.4956],[85.1724,19.4673],[85.405,19.6163],[85.6791,19.7451],[85.8019,19.7879],[85.807,19.8916],[85.8064,19.9075]]]},"properties":{"AC_NO":108,"AC_NAME":"BRAHMAGIRI","PC_NO":17,"PC_NAME":"PURI","district":"PURI"}},{"type":"Feature","geometry":{"type":"Polygon","coordinates":[[[85.0499,19.9154],[84.94,19.8973],[85.0372,19.8067],[85.0672,19.7964],[85.1823,19.6718],[85.2523,19.7679],[85.33,19.7854],[85.4395,19.8826],[85.325,19.8665],[85.2667,19.9132],[85.0499,19.9154]]]},"properties":{"AC_NO":118,"AC_NAME":"CHILIKA","PC_NO":17,"PC_NAME":"PURI","district":"KHORDHA"}},{"type":"Feature","geometry":{"type":"Polygon","coordinates":[[[84.4615,19.8795],[84.4239,19.8353],[84.2772,19.8807],[84.1855,19.8607],[84.16,19.735],[84.245,19.6428],[84.2392,19.5761],[84.3309,19.5998],[84.4025,19.6378],[84.4953,19.635],[84.5272,19.7528],[84.6245,19.761],[84.6454,19.7826],[84.7068,19.8688],[84.6429,19.9302],[84.4615,19.8795]]]},"properties":{"AC_NO":129,"AC_NAME":"SURADA","PC_NO":19,"PC_NAME":"ASKA","district":"GANJAM"}},{"type":"Feature","geometry":{"type":"Polygon","coordinates":[[[82.344,19.8359],[82.2689,19.748],[82.1878,19.7036],[82.0528,19.6761],[82.0315,19.5078],[82.0999,19.5168],[82.1684,19.4369],[82.2537,19.5176],[82.3888,19.5152],[82.4277,19.5775],[82.5292,19.585],[82.5945,19.7755],[82.6034,19.8669],[82.446,19.9092],[82.344,19.8359]]]},"properties":{"AC_NO":74,"AC_NAME":"JHARIGAM (ST)","PC_NO":12,"PC_NAME":"NABARANGPUR (ST)","district":"NABARANGAPUR"}},{"type":"Feature","geometry":{"type":"Polygon","coordinates":[[[85.0372,19.8067],[85.0056,19.7345],[84.9099,19.7121],[84.8498,19.6259],[84.8011,19.6457],[84.7382,19.5423],[84.7407,19.5387],[84.7515,19.5276],[84.8249,19.4919],[84.9292,19.5477],[84.9666,19.622],[85.0416,19.6207],[85.0897,19.7554],[85.0672,19.7964],[85.0372,19.8067]]]},"properties":{"AC_NO":125,"AC_NAME":"KABISURYANAGAR","PC_NO":19,"PC_NAME":"ASKA","district":"GANJAM"}},{"type":"Feature","geometry":{"type":"Polygon","coordinates":[[[85.0672,19.7964],[85.0897,19.7554],[85.0416,19.6207],[84.9666,19.622],[84.9292,19.5477],[84.8249,19.4919],[84.8824,19.4112],[84.9358,19.4913],[85.074,19.5403],[85.1486,19.4956],[85.1823,19.6718],[85.0672,19.7964]]]},"properties":{"AC_NO":126,"AC_NAME":"KHALIKOTE (SC)","PC_NO":19,"PC_NAME":"ASKA","district":"GANJAM"}},{"type":"Feature","geometry":{"type":"Polygon","coordinates":[[[84.8011,19.6457],[84.7364,19.6749],[84.6454,19.7826],[84.6245,19.761],[84.5921,19.6751],[84.6476,19.5797],[84.7382,19.5423],[84.8011,19.6457]]]},"properties":{"AC_NO":128,"AC_NAME":"ASKA","PC_NO":19,"PC_NAME":"ASKA","district":"GANJAM"}},{"type":"Feature","geometry":{"type":"Polygon","coordinates":[[[84.6245,19.761],[84.5272,19.7528],[84.4953,19.635],[84.4025,19.6378],[84.3309,19.5998],[84.4013,19.5755],[84.3744,19.4917],[84.3946,19.4099],[84.5083,19.3776],[84.6902,19.4165],[84.6773,19.4692],[84.5384,19.5338],[84.5697,19.6118],[84.6476,19.5797],[84.5921,19.6751],[84.6245,19.761]]]},"properties":{"AC_NO":130,"AC_NAME":"SANAKHEMUNDI","PC_NO":19,"PC_NAME":"ASKA","district":"GANJAM"}},{"type":"Feature","geometry":{"type":"Polygon","coordinates":[[[83.93,19.6788],[83.7664,19.7165],[83.6894,19.6891],[83.5776,19.6151],[83.6505,19.4811],[83.6446,19.3465],[83.6106,19.2998],[83.6372,19.1536],[83.7538,18.9252],[83.7945,19.0176],[83.9502,18.9977],[84.0288,19.0754],[83.9797,19.2129],[84.0201,19.291],[84.0153,19.3772],[83.9473,19.397],[83.9781,19.531],[83.94,19.6352],[83.93,19.6788]]]},"properties":{"AC_NO":138,"AC_NAME":"GUNUPUR (ST)","PC_NO":21,"PC_NAME":"KORAPUT (ST)","district":"RAYAGARHA"}},{"type":"Feature","geometry":{"type":"Polygon","coordinates":[[[83.94,19.6352],[83.9781,19.531],[83.9473,19.397],[84.0153,19.3772],[84.0201,19.291],[83.9797,19.2129],[84.0288,19.0754],[84.1389,18.8916],[84.2536,18.8563],[84.3371,18.8894],[84.4252,18.9504],[84.3355,19.1038],[84.3951,19.1995],[84.4257,19.2611],[84.3946,19.4099],[84.3744,19.4917],[84.4013,19.5755],[84.3309,19.5998],[84.2392,19.5761],[84.1534,19.5839],[84.1277,19.6374],[83.94,19.6352]]]},"properties":{"AC_NO":136,"AC_NAME":"MOHANA (ST)","PC_NO":20,"PC_NAME":"BERHAMPUR","district":"GAJAPATI"}},{"type":"Feature","geometry":{"type":"Polygon","coordinates":[[[84.6476,19.5797],[84.5697,19.6118],[84.5384,19.5338],[84.6773,19.4692],[84.6902,19.4165],[84.7944,19.3789],[84.8718,19.4078],[84.8824,19.4112],[84.8249,19.4919],[84.7515,19.5276],[84.7407,19.5387],[84.7382,19.5423],[84.6476,19.5797]]]},"properties":{"AC_NO":131,"AC_NAME":"HINJILI","PC_NO":19,"PC_NAME":"ASKA","district":"GANJAM"}},{"type":"Feature","geometry":{"type":"Polygon","coordinates":[[[82.5292,19.585],[82.4277,19.5775],[82.3888,19.5152],[82.2537,19.5176],[82.1684,19.4369],[82.1678,19.2141],[82.1789,19.1919],[82.1766,19.2142],[82.28,19.2699],[82.2885,19.3043],[82.3594,19.2532],[82.3806,19.2752],[82.4493,19.2766],[82.5897,19.3732],[82.5984,19.3625],[82.6176,19.3798],[82.6281,19.441],[82.6547,19.4563],[82.6458,19.5076],[82.5292,19.585]]]},"properties":{"AC_NO":76,"AC_NAME":"DABUGAM (ST)","PC_NO":12,"PC_NAME":"NABARANGPUR (ST)","district":"NABARANGAPUR"}},{"type":"Feature","geometry":{"type":"Polygon","coordinates":[[[85.1486,19.4956],[85.074,19.5403],[84.9358,19.4913],[84.8824,19.4112],[84.8718,19.4078],[84.8701,19.317],[84.9141,19.2614],[85.0794,19.375],[85.1724,19.4673],[85.1486,19.4956]]]},"properties":{"AC_NO":127,"AC_NAME":"CHHATRAPUR (SC)","PC_NO":20,"PC_NAME":"BERHAMPUR","district":"GANJAM"}},{"type":"Feature","geometry":{"type":"Polygon","coordinates":[[[83.2161,19.4312],[83.1077,19.5378],[83.0438,19.5564],[82.9783,19.4493],[82.9183,19.2382],[82.8719,19.1989],[83.0051,19.121],[83.0312,19.0556],[83.1357,19.1366],[83.2342,19.0258],[83.2848,19.1157],[83.348,19.0169],[83.4636,18.9553],[83.4833,19.0336],[83.5862,19.0873],[83.4407,19.2905],[83.3504,19.2777],[83.2498,19.3068],[83.2892,19.3773],[83.2161,19.4312]]]},"properties":{"AC_NO":140,"AC_NAME":"RAYAGADA (ST)","PC_NO":21,"PC_NAME":"KORAPUT (ST)","district":"RAYAGARHA"}},{"type":"Feature","geometry":{"type":"Polygon","coordinates":[[[84.6902,19.4165],[84.5083,19.3776],[84.3946,19.4099],[84.4257,19.2611],[84.3951,19.1995],[84.4616,19.1804],[84.5991,19.2642],[84.6667,19.2118],[84.7254,19.2296],[84.7755,19.286],[84.7834,19.3271],[84.7944,19.3789],[84.6902,19.4165]]]},"properties":{"AC_NO":134,"AC_NAME":"DIGAPAHANDI","PC_NO":20,"PC_NAME":"BERHAMPUR","district":"GANJAM"}},{"type":"Feature","geometry":{"type":"Polygon","coordinates":[[[84.8718,19.4078],[84.7944,19.3789],[84.7834,19.3271],[84.8162,19.3115],[84.7755,19.286],[84.7254,19.2296],[84.8244,19.1741],[84.9141,19.2614],[84.8701,19.317],[84.8718,19.4078]]]},"properties":{"AC_NO":132,"AC_NAME":"GOPALPUR","PC_NO":20,"PC_NAME":"BERHAMPUR","district":"GANJAM"}},{"type":"Feature","geometry":{"type":"Polygon","coordinates":[[[84.7834,19.3271],[84.7755,19.286],[84.8162,19.3115],[84.7834,19.3271]]]},"properties":{"AC_NO":133,"AC_NAME":"BERHAMPUR","PC_NO":20,"PC_NAME":"BERHAMPUR","district":"GANJAM"}},{"type":"Feature","geometry":{"type":"Polygon","coordinates":[[[84.7254,19.2296],[84.6667,19.2118],[84.5991,19.2642],[84.4616,19.1804],[84.3951,19.1995],[84.3355,19.1038],[84.4252,18.9504],[84.4661,18.9942],[84.5166,19.048],[84.618,19.0662],[84.6678,19.1296],[84.7647,19.0773],[84.8244,19.1741],[84.7254,19.2296]]]},"properties":{"AC_NO":135,"AC_NAME":"CHIKITI","PC_NO":20,"PC_NAME":"BERHAMPUR","district":"GANJAM"}},{"type":"Feature","geometry":{"type":"Polygon","coordinates":[[[82.1789,19.1919],[82.2087,19.12],[82.2297,19.1442],[82.2586,19.1393],[82.3309,19.167],[82.3471,19.1695],[82.5485,19.206],[82.6392,19.1488],[82.6398,19.1667],[82.6433,19.1765],[82.7405,19.1594],[82.8566,19.2032],[82.8473,19.3245],[82.7256,19.3451],[82.6547,19.4563],[82.6281,19.441],[82.6176,19.3798],[82.5984,19.3625],[82.5897,19.3732],[82.4493,19.2766],[82.3806,19.2752],[82.3594,19.2532],[82.2885,19.3043],[82.28,19.2699],[82.1766,19.2142],[82.1789,19.1919]]]},"properties":{"AC_NO":75,"AC_NAME":"NABARANGPUR (ST)","PC_NO":12,"PC_NAME":"NABARANGPUR (ST)","district":"NABARANGAPUR"}},{"type":"Feature","geometry":{"type":"Polygon","coordinates":[[[82.6392,19.1488],[82.5485,19.206],[82.3471,19.1695],[82.3309,19.167],[82.2586,19.1393],[82.2297,19.1442],[82.2087,19.12],[82.2056,19.0602],[82.246,18.9192],[82.1762,18.9027],[82.1608,18.7893],[82.0909,18.7411],[82.1758,18.6343],[82.3163,18.5842],[82.4055,18.6001],[82.4086,18.7323],[82.3156,18.773],[82.34,18.839],[82.5014,18.7892],[82.4628,18.847],[82.4409,19.0144],[82.5291,19.0512],[82.6392,19.1488]]]},"properties":{"AC_NO":142,"AC_NAME":"KOTPAD (ST)","PC_NO":12,"PC_NAME":"NABARANGPUR (ST)","district":"KORAPUT"}},{"type":"Feature","geometry":{"type":"Polygon","coordinates":[[[82.8566,19.2032],[82.7405,19.1594],[82.7631,18.9999],[82.6744,18.9773],[82.823,18.8519],[82.8126,18.7891],[82.976,18.792],[83.0917,18.7225],[83.1151,18.7681],[83.2201,18.7477],[83.3792,18.8309],[83.397,18.8791],[83.348,19.0169],[83.2848,19.1157],[83.2342,19.0258],[83.1357,19.1366],[83.0312,19.0556],[83.0051,19.121],[82.8719,19.1989],[82.8566,19.2032]]]},"properties":{"AC_NO":141,"AC_NAME":"LAKSHMIPUR (ST)","PC_NO":21,"PC_NAME":"KORAPUT (ST)","district":"KORAPUT"}},{"type":"Feature","geometry":{"type":"Polygon","coordinates":[[[82.6398,19.1667],[82.6392,19.1488],[82.5291,19.0512],[82.4409,19.0144],[82.4628,18.847],[82.5014,18.7892],[82.5645,18.7771],[82.6425,18.8579],[82.6744,18.9773],[82.7631,18.9999],[82.7405,19.1594],[82.6433,19.1765],[82.6398,19.1667]]]},"properties":{"AC_NO":143,"AC_NAME":"JEYPORE","PC_NO":21,"PC_NAME":"KORAPUT (ST)","district":"KORAPUT"}},{"type":"Feature","geometry":{"type":"Polygon","coordinates":[[[84.0288,19.0754],[83.9502,18.9977],[83.7945,19.0176],[83.8905,18.8267],[84.0456,18.8129],[84.0894,18.7568],[84.2263,18.7988],[84.321,18.787],[84.3594,18.8316],[84.3371,18.8894],[84.2536,18.8563],[84.1389,18.8916],[84.0288,19.0754]]]},"properties":{"AC_NO":137,"AC_NAME":"PARALAKHEMUNDI","PC_NO":20,"PC_NAME":"BERHAMPUR","district":"GAJAPATI"}},{"type":"Feature","geometry":{"type":"Polygon","coordinates":[[[82.8126,18.7891],[82.823,18.8519],[82.6744,18.9773],[82.6425,18.8579],[82.5645,18.7771],[82.5014,18.7892],[82.34,18.839],[82.3156,18.773],[82.4086,18.7323],[82.4055,18.6001],[82.4091,18.4694],[82.4817,18.5414],[82.5292,18.5028],[82.6086,18.4832],[82.6279,18.5884],[82.7574,18.6327],[82.7653,18.7543],[82.8126,18.7891]]]},"properties":{"AC_NO":144,"AC_NAME":"KORAPUT (SC)","PC_NO":21,"PC_NAME":"KORAPUT (ST)","district":"KORAPUT"}},{"type":"Feature","geometry":{"type":"Polygon","coordinates":[[[83.0917,18.7225],[82.976,18.792],[82.8126,18.7891],[82.7653,18.7543],[82.7574,18.6327],[82.6279,18.5884],[82.6086,18.4832],[82.5292,18.5028],[82.5409,18.3995],[82.6212,18.3597],[82.5878,18.2761],[82.7742,18.3405],[82.8031,18.4493],[82.9704,18.3601],[83.0758,18.4057],[83.0209,18.4563],[83.0451,18.5443],[83.0167,18.6501],[83.0917,18.7225]]]},"properties":{"AC_NO":145,"AC_NAME":"POTTANGI (ST)","PC_NO":21,"PC_NAME":"KORAPUT (ST)","district":"KORAPUT"}},{"type":"Feature","geometry":{"type":"Polygon","coordinates":[[[82.0909,18.7411],[81.9677,18.6964],[81.9495,18.5721],[82.0596,18.4507],[82.0448,18.3618],[81.9421,18.2207],[81.9666,18.1563],[81.9304,18.0782],[82.0062,18.0522],[82.2616,18.0419],[82.3503,18.0777],[82.3446,18.2806],[82.3923,18.298],[82.382,18.4326],[82.4091,18.4694],[82.4055,18.6001],[82.3163,18.5842],[82.1758,18.6343],[82.0909,18.7411]]]},"properties":{"AC_NO":147,"AC_NAME":"CHITRAKONDA (ST)","PC_NO":12,"PC_NAME":"NABARANGPUR (ST)","district":"MALKANGIRI"}},{"type":"Feature","geometry":{"type":"Polygon","coordinates":[[[82.0062,18.0522],[81.9304,18.0782],[81.9666,18.1563],[81.9421,18.2207],[82.0448,18.3618],[82.0596,18.4507],[81.9495,18.5721],[81.7691,18.4182],[81.7503,18.3526],[81.6593,18.3465],[81.5358,18.2686],[81.4831,17.9772],[81.4075,17.8961],[81.3918,17.8155],[81.6165,17.8221],[81.6619,17.8812],[81.7633,17.9026],[81.8099,17.951],[81.9793,18.0143],[82.0062,18.0522]]]},"properties":{"AC_NO":146,"AC_NAME":"MALKANGIRI (ST)","PC_NO":12,"PC_NAME":"NABARANGPUR (ST)","district":"MALKANGIRI"}}]}