{"type":"FeatureCollection", "features": [
{"type":"Feature","geometry":{"type":"Polygon","coordinates":[[[86.0312,22.1914],[86.0071,22.117],[85.9095,21.9878],[85.8243,21.9754],[85.7601,22.0131],[85.7336,22.0661],[85.6764,22.0569],[85.669,22.0142],[85.7937,21.9507],[85.788,21.909],[85.809,21.8515],[85.8103,21.8111],[85.9174,21.7605],[86.0488,21.7176],[86.0799,21.6359],[86.0074,21.5344],[86.1208,21.478],[86.1615,21.4254],[86.0897,21.3145],[86.1156,21.2761],[86.1853,21.2738],[86.2849,21.3752],[86.3576,21.2982],[86.4238,21.3314],[86.5007,21.3982],[86.5819,21.5225],[86.6379,21.5337],[86.6486,21.5809],[86.7516,21.607],[86.795,21.5971],[86.7997,21.6074],[86.9001,21.6124],[86.9754,21.5859],[87.0004,21.6153],[87.0007,21.6764],[87.0881,21.7271],[87.1037,21.7842],[87.1762,21.8138],[87.0979,21.8666],[87.0347,21.8691],[86.9999,21.9137],[87.0309,21.9857],[87.0265,22.0369],[86.9657,22.0851],[86.817,22.1169],[86.7939,22.1575],[86.7226,22.1468],[86.7248,22.2184],[86.6788,22.2249],[86.5825,22.3016],[86.5323,22.3013],[86.4874,22.3477],[86.4446,22.3124],[86.3287,22.3775],[86.2687,22.4421],[86.2077,22.4733],[86.116,22.4871],[86.0634,22.555],[85.9722,22.5054],[85.9573,22.4637],[86.0149,22.4287],[85.998,22.3451],[86.0142,22.2973],[85.9739,22.2469],[86.0312,22.1914]]]},"properties":{"district":"MAYURBHANJ"}},
{"type":"Feature","geometry":{"type":"Polygon","coordinates":[[[84.355,22.1437],[84.4765,22.1902],[84.5267,22.0478],[84.4954,21.9203],[84.5386,21.8624],[84.5256,21.814],[84.5882,21.7578],[84.6769,21.7508],[84.7468,21.6825],[84.8287,21.6603],[85.0255,21.6729],[85.0376,21.601],[85.1439,21.5953],[85.191,21.6613],[85.2001,21.7628],[85.2806,21.835],[85.3422,21.8262],[85.3759,21.9365],[85.2717,21.9605],[85.2391,22.0096],[85.2136,22.0498],[85.099,22.106],[84.9841,22.095],[85.0322,22.1651],[85.1031,22.2951],[85.0571,22.4861],[84.9112,22.4236],[84.7593,22.4468],[84.7498,22.4193],[84.6288,22.4346],[84.4766,22.4068],[84.4565,22.3812],[84.3591,22.3478],[84.2944,22.3416],[84.2524,22.3783],[84.1991,22.3765],[84.0602,22.5164],[84.0052,22.3743],[83.9065,22.3513],[83.8227,22.3134],[83.7574,22.2403],[83.7039,22.2467],[83.6272,22.2038],[83.6092,22.1573],[83.5618,22.0987],[83.5378,21.9694],[83.606,21.9143],[83.5788,21.8323],[83.7188,21.786],[83.7484,21.8261],[83.8941,21.9459],[83.9588,21.9419],[83.9775,21.9057],[84.0269,21.9531],[84.0774,21.9372],[84.1171,22.0127],[84.2292,21.9746],[84.2677,22.0161],[84.2675,22.1035],[84.355,22.1437]]]},"properties":{"district":"SUNDARGARH"}},
{"type":"Feature","geometry":{"type":"Polygon","coordinates":[[[84.2675,22.1035],[84.2677,22.0161],[84.3877,22.0265],[84.3893,21.9958],[84.3259,21.8667],[84.3266,21.8382],[84.2571,21.765],[84.1874,21.7527],[84.1121,21.7906],[84.0368,21.7594],[84.0126,21.7894],[83.9422,21.7283],[83.9665,21.6919],[83.9793,21.5961],[83.9621,21.5718],[83.8126,21.5918],[83.7969,21.5661],[83.8476,21.5214],[83.8799,21.4312],[83.8701,21.3102],[83.9055,21.2597],[83.8926,21.1773],[83.9818,21.1336],[84.018,21.0509],[84.1429,21.0332],[84.2379,20.9228],[84.2787,20.9224],[84.4052,20.9762],[84.4823,21.0812],[84.5846,21.0611],[84.6793,21.063],[84.6801,21.1468],[84.7433,21.1705],[84.7231,21.229],[84.7683,21.2539],[84.709,21.3196],[84.6646,21.3168],[84.6032,21.2622],[84.532,21.3839],[84.4044,21.3808],[84.4074,21.4763],[84.5426,21.5838],[84.4923,21.6636],[84.6575,21.6822],[84.6769,21.7508],[84.5882,21.7578],[84.5256,21.814],[84.5386,21.8624],[84.4954,21.9203],[84.5267,22.0478],[84.4765,22.1902],[84.355,22.1437],[84.2675,22.1035]]]},"properties":{"district":"SAMBALPUR"}},
{"type":"Feature","geometry":{"type":"Polygon","coordinates":[[[85.6764,22.0569],[85.597,22.0787],[85.4211,22.159],[85.3659,22.1586],[85.2815,22.0908],[85.2391,22.0096],[85.2717,21.9605],[85.3759,21.9365],[85.3422,21.8262],[85.2806,21.835],[85.2001,21.7628],[85.191,21.6613],[85.2421,21.6802],[85.3126,21.569],[85.332,21.4818],[85.302,21.4172],[85.3424,21.3662],[85.2762,21.2933],[85.3543,21.2491],[85.3933,21.1837],[85.4979,21.1152],[85.5452,21.1676],[85.5924,21.1383],[85.683,21.1862],[85.7269,21.1426],[85.7795,21.1019],[85.8751,21.0859],[85.9372,21.1337],[86.075,21.155],[86.0269,21.0731],[86.0825,21.0158],[86.1335,21.0764],[86.2042,21.0588],[86.2814,21.0222],[86.3158,21.083],[86.2723,21.1491],[86.3385,21.1795],[86.3642,21.2376],[86.3576,21.2982],[86.2849,21.3752],[86.1853,21.2738],[86.1156,21.2761],[86.0897,21.3145],[86.1615,21.4254],[86.1208,21.478],[86.0074,21.5344],[86.0799,21.6359],[86.0488,21.7176],[85.9174,21.7605],[85.8103,21.8111],[85.809,21.8515],[85.788,21.909],[85.7937,21.9507],[85.669,22.0142],[85.6764,22.0569]]]},"properties":{"district":"KEONJHAR (KENDUJHAR)"}},
{"type":"Feature","geometry":{"type":"Polygon","coordinates":[[[87.0881,21.7271],[87.0007,21.6764],[87.0004,21.6153],[86.9754,21.5859],[86.9001,21.6124],[86.7997,21.6074],[86.795,21.5971],[86.7516,21.607],[86.6486,21.5809],[86.6379,21.5337],[86.5819,21.5225],[86.5007,21.3982],[86.4238,21.3314],[86.3576,21.2982],[86.3642,21.2376],[86.4342,21.2205],[86.4293,21.1627],[86.5295,21.1593],[86.6474,21.0626],[86.6708,21.1678],[86.7325,21.1792],[86.77,21.226],[86.8588,21.2097],[86.9068,21.2861],[86.955,21.3653],[87.0139,21.4058],[87.1262,21.4956],[87.2032,21.5315],[87.3417,21.5702],[87.4842,21.6027],[87.4735,21.7145],[87.4454,21.7681],[87.3195,21.7908],[87.264,21.8187],[87.2325,21.9576],[87.1053,21.9231],[87.0979,21.8666],[87.1762,21.8138],[87.1037,21.7842],[87.0881,21.7271]]]},"properties":{"district":"BALASORE"}},
{"type":"Feature","geometry":{"type":"Polygon","coordinates":[[[83.9775,21.9057],[83.9588,21.9419],[83.8941,21.9459],[83.7484,21.8261],[83.7188,21.786],[83.5788,21.8323],[83.4833,21.794],[83.4813,21.7314],[83.4188,21.6806],[83.4866,21.6442],[83.5651,21.7443],[83.6996,21.6932],[83.7279,21.6289],[83.7969,21.5661],[83.8126,21.5918],[83.9621,21.5718],[83.9793,21.5961],[83.9665,21.6919],[83.9422,21.7283],[84.0126,21.7894],[84.0368,21.7594],[84.1121,21.7906],[84.1874,21.7527],[84.2571,21.765],[84.3266,21.8382],[84.3259,21.8667],[84.3893,21.9958],[84.3877,22.0265],[84.2677,22.0161],[84.2292,21.9746],[84.1171,22.0127],[84.0774,21.9372],[84.0269,21.9531],[83.9775,21.9057]]]},"properties":{"district":"JHARSUGUDA"}},
{"type":"Feature","geometry":{"type":"Polygon","coordinates":[[[84.4044,21.3808],[84.532,21.3839],[84.6032,21.2622],[84.6646,21.3168],[84.709,21.3196],[84.7683,21.2539],[84.7231,21.229],[84.7433,21.1705],[84.9627,21.1775],[84.8977,21.2609],[85.015,21.3106],[84.9999,21.44],[85.1496,21.4581],[85.203,21.5216],[85.1865,21.59],[85.1439,21.5953],[85.0376,21.601],[85.0255,21.6729],[84.8287,21.6603],[84.7468,21.6825],[84.6769,21.7508],[84.6575,21.6822],[84.4923,21.6636],[84.5426,21.5838],[84.4074,21.4763],[84.4044,21.3808]]]},"properties":{"district":"DEOGARH"}},
{"type":"Feature","geometry":{"type":"Polygon","coordinates":[[[83.4866,21.6442],[83.4424,21.6554],[83.3828,21.6202],[83.3384,21.4991],[83.3989,21.4053],[83.3916,21.3426],[83.2838,21.3802],[83.2762,21.3021],[83.2173,21.2547],[83.1981,21.1456],[83.1769,21.1356],[83.0779,21.112],[82.948,21.162],[82.8004,21.156],[82.693,21.1658],[82.6364,21.0923],[82.6931,21.0241],[82.6821,20.8842],[82.7002,20.7301],[82.8008,20.8354],[82.8874,20.9078],[82.9671,20.8929],[83.0152,20.8608],[83.1288,20.8594],[83.1547,20.8834],[83.2179,20.9316],[83.301,20.8535],[83.4019,20.8903],[83.3858,20.9893],[83.3038,21.0038],[83.3525,21.0713],[83.4571,21.0544],[83.5418,21.0731],[83.6499,21.1301],[83.6881,21.1167],[83.7809,21.1536],[83.8417,21.097],[83.8926,21.1773],[83.9055,21.2597],[83.8701,21.3102],[83.8799,21.4312],[83.8476,21.5214],[83.7969,21.5661],[83.7279,21.6289],[83.6996,21.6932],[83.5651,21.7443],[83.4866,21.6442]]]},"properties":{"district":"BARGARH"}},
{"type":"Feature","geometry":{"type":"Polygon","coordinates":[[[85.1439,21.5953],[85.1865,21.59],[85.203,21.5216],[85.1496,21.4581],[84.9999,21.44],[85.015,21.3106],[84.8977,21.2609],[84.9627,21.1775],[84.7433,21.1705],[84.6801,21.1468],[84.6793,21.063],[84.5846,21.0611],[84.4823,21.0812],[84.4052,20.9762],[84.2787,20.9224],[84.2663,20.8813],[84.3466,20.8364],[84.3777,20.754],[84.4507,20.7389],[84.5617,20.6894],[84.6388,20.6239],[84.7599,20.6088],[84.7902,20.5812],[84.8485,20.5281],[84.8969,20.5819],[84.9876,20.5804],[85.0746,20.5814],[85.1271,20.6162],[85.1132,20.6829],[85.1884,20.7005],[85.2549,20.7955],[85.2468,20.8843],[85.2631,20.8917],[85.2391,20.9076],[85.2575,20.9921],[85.1731,21.0441],[85.2299,21.0726],[85.2718,21.1743],[85.316,21.1593],[85.3933,21.1837],[85.3543,21.2491],[85.2762,21.2933],[85.3424,21.3662],[85.302,21.4172],[85.332,21.4818],[85.3126,21.569],[85.2421,21.6802],[85.191,21.6613],[85.1439,21.5953]]]},"properties":{"district":"ANUGUL"}},
{"type":"Feature","geometry":{"type":"Polygon","coordinates":[[[86.7325,21.1792],[86.6708,21.1678],[86.6474,21.0626],[86.5295,21.1593],[86.4293,21.1627],[86.4342,21.2205],[86.3642,21.2376],[86.3385,21.1795],[86.2723,21.1491],[86.3158,21.083],[86.2814,21.0222],[86.2835,20.9356],[86.3283,20.8621],[86.3795,20.8616],[86.4509,20.8434],[86.5561,20.8625],[86.6008,20.8432],[86.6211,20.7963],[86.795,20.7409],[86.8694,20.7945],[86.9718,20.7939],[86.9768,20.8609],[86.9129,20.974],[86.8446,21.1254],[86.8588,21.2097],[86.77,21.226],[86.7325,21.1792]]]},"properties":{"district":"BHADRAK"}},
{"type":"Feature","geometry":{"type":"Polygon","coordinates":[[[85.3933,21.1837],[85.316,21.1593],[85.2718,21.1743],[85.2299,21.0726],[85.1731,21.0441],[85.2575,20.9921],[85.2391,20.9076],[85.2631,20.8917],[85.2468,20.8843],[85.2549,20.7955],[85.1884,20.7005],[85.1132,20.6829],[85.1271,20.6162],[85.1781,20.6012],[85.2505,20.5183],[85.4498,20.4913],[85.4685,20.4993],[85.5117,20.5374],[85.5852,20.5137],[85.6562,20.5499],[85.7166,20.6389],[85.7623,20.6616],[85.8654,20.6677],[85.91,20.6899],[85.9097,20.7011],[86.0292,20.7405],[86.0305,20.8088],[85.9499,20.8447],[85.8988,20.8473],[85.9161,20.929],[85.8194,20.9445],[85.7701,20.9875],[85.724,20.9827],[85.7266,21.0649],[85.6813,21.1118],[85.7269,21.1426],[85.683,21.1862],[85.5924,21.1383],[85.5452,21.1676],[85.4979,21.1152],[85.3933,21.1837]]]},"properties":{"district":"DHENKANAL"}},
{"type":"Feature","geometry":{"type":"Polygon","coordinates":[[[85.7269,21.1426],[85.6813,21.1118],[85.7266,21.0649],[85.724,20.9827],[85.7701,20.9875],[85.8194,20.9445],[85.9161,20.929],[85.8988,20.8473],[85.9499,20.8447],[86.0305,20.8088],[86.0292,20.7405],[85.9097,20.7011],[85.9852,20.6607],[86.0493,20.5889],[86.0812,20.6014],[86.1789,20.6565],[86.2799,20.5826],[86.32,20.6296],[86.3827,20.5986],[86.456,20.6546],[86.4692,20.689],[86.556,20.7065],[86.5633,20.7736],[86.6211,20.7963],[86.6008,20.8432],[86.5561,20.8625],[86.4509,20.8434],[86.3795,20.8616],[86.3283,20.8621],[86.2835,20.9356],[86.2814,21.0222],[86.2042,21.0588],[86.1335,21.0764],[86.0825,21.0158],[86.0269,21.0731],[86.075,21.155],[85.9372,21.1337],[85.8751,21.0859],[85.7795,21.1019],[85.7269,21.1426]]]},"properties":{"district":"JAJAPUR"}},
{"type":"Feature","geometry":{"type":"Polygon","coordinates":[[[83.6881,21.1167],[83.6499,21.1301],[83.5418,21.0731],[83.4571,21.0544],[83.4474,21.018],[83.507,20.9802],[83.6174,20.9849],[83.6225,20.8276],[83.6641,20.7058],[83.5931,20.6066],[83.6026,20.5281],[83.6856,20.5606],[83.7575,20.7165],[83.7731,20.7978],[83.9365,20.8424],[84.0374,20.8203],[84.1439,20.8621],[84.192,20.8896],[84.2663,20.8813],[84.2787,20.9224],[84.2379,20.9228],[84.1429,21.0332],[84.018,21.0509],[83.9818,21.1336],[83.8926,21.1773],[83.8417,21.097],[83.7809,21.1536],[83.6881,21.1167]]]},"properties":{"district":"SUBARNAPUR"}},
{"type":"Feature","geometry":{"type":"Polygon","coordinates":[[[82.6364,21.0923],[82.6282,21.0384],[82.5595,20.9484],[82.4877,20.908],[82.4811,20.8513],[82.3461,20.874],[82.3504,20.7064],[82.3765,20.6324],[82.3322,20.5619],[82.3896,20.5177],[82.432,20.4169],[82.4004,20.3416],[82.4308,20.314],[82.4225,20.2208],[82.39,20.1637],[82.3983,20.0582],[82.5505,20.018],[82.5953,19.9918],[82.7122,19.9974],[82.8228,20.1651],[82.8601,20.2693],[82.8106,20.2952],[82.7902,20.3471],[82.7152,20.3985],[82.6838,20.4604],[82.7096,20.5697],[82.7414,20.6304],[82.7002,20.7301],[82.6821,20.8842],[82.6931,21.0241],[82.6364,21.0923]]]},"properties":{"district":"NUAPARHA"}},
{"type":"Feature","geometry":{"type":"Polygon","coordinates":[[[83.301,20.8535],[83.2179,20.9316],[83.1547,20.8834],[83.1288,20.8594],[83.0152,20.8608],[82.9671,20.8929],[82.8874,20.9078],[82.8008,20.8354],[82.7002,20.7301],[82.7414,20.6304],[82.7096,20.5697],[82.6838,20.4604],[82.7152,20.3985],[82.7902,20.3471],[82.8106,20.2952],[82.8601,20.2693],[82.8228,20.1651],[82.9095,20.1472],[82.9243,20.1782],[82.944,20.1739],[83.0156,20.1717],[83.2252,20.2049],[83.238,20.257],[83.3006,20.3053],[83.3608,20.3163],[83.4222,20.404],[83.4876,20.4184],[83.6243,20.3503],[83.6507,20.3883],[83.6658,20.4226],[83.5693,20.4829],[83.6026,20.5281],[83.5931,20.6066],[83.6641,20.7058],[83.6225,20.8276],[83.6174,20.9849],[83.507,20.9802],[83.4474,21.018],[83.4571,21.0544],[83.3525,21.0713],[83.3038,21.0038],[83.3858,20.9893],[83.4019,20.8903],[83.301,20.8535]]]},"properties":{"district":"BALANGIR"}},
{"type":"Feature","geometry":{"type":"Polygon","coordinates":[[[84.1439,20.8621],[84.0374,20.8203],[83.9365,20.8424],[83.7731,20.7978],[83.7575,20.7165],[83.6856,20.5606],[83.6026,20.5281],[83.5693,20.4829],[83.6658,20.4226],[83.7175,20.435],[83.7809,20.4104],[83.8145,20.4367],[83.8051,20.5089],[83.8733,20.582],[83.9793,20.5858],[84.0146,20.5681],[84.1048,20.5919],[84.2252,20.582],[84.2982,20.687],[84.3568,20.6711],[84.3814,20.5587],[84.4335,20.5088],[84.5101,20.3959],[84.6182,20.4342],[84.6896,20.4412],[84.7125,20.5242],[84.766,20.5318],[84.7902,20.5812],[84.7599,20.6088],[84.6388,20.6239],[84.5617,20.6894],[84.4507,20.7389],[84.3777,20.754],[84.3466,20.8364],[84.2663,20.8813],[84.192,20.8896],[84.1439,20.8621]]]},"properties":{"district":"BOUDH"}},
{"type":"Feature","geometry":{"type":"Polygon","coordinates":[[[86.6211,20.7963],[86.5633,20.7736],[86.556,20.7065],[86.4692,20.689],[86.456,20.6546],[86.3827,20.5986],[86.32,20.6296],[86.2799,20.5826],[86.2661,20.3985],[86.2485,20.3647],[86.3475,20.3563],[86.4119,20.3591],[86.4322,20.3356],[86.5524,20.3238],[86.607,20.3419],[86.6964,20.2969],[86.7766,20.3347],[86.8098,20.375],[86.7308,20.4114],[86.7538,20.5185],[86.7887,20.5341],[87.0556,20.715],[87.0411,20.7589],[86.8548,20.7735],[86.8163,20.7318],[86.795,20.7409],[86.6211,20.7963]]]},"properties":{"district":"KENDRAPARA"}},
{"type":"Feature","geometry":{"type":"Polygon","coordinates":[[[85.91,20.6899],[85.8654,20.6677],[85.7623,20.6616],[85.7166,20.6389],[85.6562,20.5499],[85.5852,20.5137],[85.5117,20.5374],[85.4685,20.4993],[85.4498,20.4913],[85.2505,20.5183],[85.1781,20.6012],[85.1271,20.6162],[85.0746,20.5814],[84.9876,20.5804],[84.8969,20.5819],[84.8485,20.5281],[85.105,20.411],[85.1583,20.3787],[85.2686,20.3591],[85.3693,20.3663],[85.3329,20.2812],[85.4525,20.2674],[85.5475,20.3017],[85.6233,20.2926],[85.6964,20.3554],[85.7154,20.4038],[85.8283,20.405],[85.8656,20.4136],[85.8976,20.3364],[85.9141,20.3476],[85.9226,20.295],[85.992,20.2262],[86.079,20.1056],[86.1223,20.0398],[86.1838,20.0508],[86.1419,20.1443],[86.1499,20.2146],[86.0722,20.2487],[86.0365,20.2932],[86.0146,20.3747],[86.1375,20.357],[86.1664,20.3785],[86.2485,20.3647],[86.2661,20.3985],[86.2799,20.5826],[86.1789,20.6565],[86.0812,20.6014],[86.0493,20.5889],[85.9852,20.6607],[85.9097,20.7011],[85.91,20.6899]]]},"properties":{"district":"CUTTACK"}},
{"type":"Feature","geometry":{"type":"Polygon","coordinates":[[[84.1048,20.5919],[84.0146,20.5681],[83.9793,20.5858],[83.8733,20.582],[83.8051,20.5089],[83.8145,20.4367],[83.7809,20.4104],[83.7175,20.435],[83.6658,20.4226],[83.6507,20.3883],[83.7058,20.3678],[83.7189,20.2372],[83.7898,20.1806],[83.7105,20.1015],[83.5883,20.0989],[83.5469,20.0326],[83.4949,19.9606],[83.5538,19.9106],[83.5423,19.8438],[83.6155,19.8004],[83.6491,19.6576],[83.6894,19.6891],[83.7419,19.6552],[83.7664,19.7165],[83.8449,19.7094],[83.8728,19.6718],[83.93,19.6788],[83.94,19.6352],[84.1277,19.6374],[84.1534,19.5839],[84.2392,19.5761],[84.245,19.6428],[84.16,19.735],[84.1855,19.8607],[84.2772,19.8807],[84.4239,19.8353],[84.4615,19.8795],[84.4632,19.9542],[84.3901,19.9566],[84.3563,19.9909],[84.4416,20.1469],[84.4378,20.202],[84.4867,20.1407],[84.585,20.1865],[84.5415,20.2526],[84.5428,20.3233],[84.4866,20.338],[84.5101,20.3959],[84.4335,20.5088],[84.3814,20.5587],[84.3568,20.6711],[84.2982,20.687],[84.2252,20.582],[84.1048,20.5919]]]},"properties":{"district":"KANDHAMAL"}},
{"type":"Feature","geometry":{"type":"Polygon","coordinates":[[[84.7902,20.5812],[84.766,20.5318],[84.7125,20.5242],[84.6896,20.4412],[84.6182,20.4342],[84.5101,20.3959],[84.4866,20.338],[84.5428,20.3233],[84.5415,20.2526],[84.585,20.1865],[84.6491,20.2033],[84.6723,20.2741],[84.8318,20.2163],[84.8218,20.1201],[84.8419,20.0465],[84.9163,19.9516],[84.94,19.8973],[85.0499,19.9154],[85.1228,19.9342],[85.1649,19.9039],[85.2667,19.9132],[85.3601,19.9568],[85.4158,19.9284],[85.4551,19.9728],[85.431,20.0291],[85.3802,20.0706],[85.4164,20.1247],[85.3466,20.1873],[85.2469,20.1189],[85.1991,20.1893],[85.2253,20.2248],[85.3227,20.2296],[85.3329,20.2812],[85.3693,20.3663],[85.2686,20.3591],[85.1583,20.3787],[85.105,20.411],[84.8485,20.5281],[84.7902,20.5812]]]},"properties":{"district":"NAYAGARH"}},
{"type":"Feature","geometry":{"type":"Polygon","coordinates":[[[85.5475,20.3017],[85.4525,20.2674],[85.3329,20.2812],[85.3227,20.2296],[85.2253,20.2248],[85.1991,20.1893],[85.2469,20.1189],[85.3466,20.1873],[85.4164,20.1247],[85.3802,20.0706],[85.431,20.0291],[85.4551,19.9728],[85.4158,19.9284],[85.3601,19.9568],[85.2667,19.9132],[85.1649,19.9039],[85.1228,19.9342],[85.0499,19.9154],[84.94,19.8973],[85.0063,19.8029],[85.0372,19.8067],[85.0672,19.7964],[85.1256,19.7492],[85.1823,19.6718],[85.2523,19.7679],[85.33,19.7854],[85.4395,19.8826],[85.5625,19.8634],[85.5681,19.9169],[85.5108,19.9522],[85.562,19.9955],[85.6135,19.9929],[85.6196,20.0662],[85.6492,20.0983],[85.6764,20.0694],[85.6857,20.1528],[85.805,20.16],[85.8605,20.2003],[85.9055,20.1547],[85.873,20.1218],[86.079,20.1056],[85.992,20.2262],[85.9226,20.295],[85.9141,20.3476],[85.8976,20.3364],[85.8656,20.4136],[85.8283,20.405],[85.7154,20.4038],[85.6964,20.3554],[85.6233,20.2926],[85.5475,20.3017]]]},"properties":{"district":"KHORDHA"}},
{"type":"Feature","geometry":{"type":"Polygon","coordinates":[[[83.2252,20.2049],[83.0156,20.1717],[82.944,20.1739],[82.9243,20.1782],[82.9095,20.1472],[82.8228,20.1651],[82.7122,19.9974],[82.7185,19.9506],[82.7244,19.8758],[82.5945,19.7755],[82.5292,19.585],[82.566,19.5449],[82.6458,19.5076],[82.6547,19.4563],[82.7256,19.3451],[82.8473,19.3245],[82.8251,19.2556],[82.8566,19.2032],[82.8719,19.1989],[82.9183,19.2382],[82.9783,19.4493],[83.0438,19.5564],[83.1077,19.5378],[83.2161,19.4312],[83.2011,19.4602],[83.2571,19.5279],[83.2664,19.6012],[83.3192,19.5922],[83.3698,19.6199],[83.3837,19.6674],[83.4545,19.7411],[83.4304,19.8709],[83.4042,19.9205],[83.4949,19.9606],[83.5469,20.0326],[83.5883,20.0989],[83.7105,20.1015],[83.7898,20.1806],[83.7189,20.2372],[83.7058,20.3678],[83.6507,20.3883],[83.6243,20.3503],[83.4876,20.4184],[83.4222,20.404],[83.3608,20.3163],[83.3006,20.3053],[83.238,20.257],[83.2252,20.2049]]]},"properties":{"district":"KALAHANDI"}},
{"type":"Feature","geometry":{"type":"Polygon","coordinates":[[[86.2485,20.3647],[86.1664,20.3785],[86.1375,20.357],[86.0146,20.3747],[86.0365,20.2932],[86.0722,20.2487],[86.1499,20.2146],[86.1419,20.1443],[86.1838,20.0508],[86.2686,20.0529],[86.3371,19.9864],[86.3878,19.9723],[86.4324,20.0521],[86.5204,20.1702],[86.6373,20.2448],[86.7766,20.3347],[86.6964,20.2969],[86.607,20.3419],[86.5524,20.3238],[86.4322,20.3356],[86.4119,20.3591],[86.3475,20.3563],[86.2485,20.3647]]]},"properties":{"district":"JAGATSINGHPUR"}},
{"type":"Feature","geometry":{"type":"Polygon","coordinates":[[[84.4378,20.202],[84.4416,20.1469],[84.3563,19.9909],[84.3901,19.9566],[84.4632,19.9542],[84.4615,19.8795],[84.4239,19.8353],[84.2772,19.8807],[84.1855,19.8607],[84.16,19.735],[84.245,19.6428],[84.2392,19.5761],[84.2723,19.5497],[84.3309,19.5998],[84.4013,19.5755],[84.3744,19.4917],[84.3946,19.4099],[84.4257,19.2611],[84.3951,19.1995],[84.3785,19.1404],[84.3355,19.1038],[84.3712,19.0111],[84.3518,18.9684],[84.4252,18.9504],[84.5166,19.048],[84.618,19.0662],[84.602,19.1278],[84.6678,19.1296],[84.7647,19.0773],[84.8244,19.1741],[84.9141,19.2614],[85.0794,19.375],[85.1724,19.4673],[85.1486,19.4956],[85.1737,19.5581],[85.1823,19.6718],[85.1256,19.7492],[85.0672,19.7964],[85.0372,19.8067],[85.0063,19.8029],[84.94,19.8973],[84.9163,19.9516],[84.8419,20.0465],[84.8218,20.1201],[84.8318,20.2163],[84.6723,20.2741],[84.6491,20.2033],[84.585,20.1865],[84.4867,20.1407],[84.4378,20.202]]]},"properties":{"district":"GANJAM"}},
{"type":"Feature","geometry":{"type":"Polygon","coordinates":[[[85.6764,20.0694],[85.6492,20.0983],[85.6196,20.0662],[85.6135,19.9929],[85.562,19.9955],[85.5108,19.9522],[85.5681,19.9169],[85.5625,19.8634],[85.4395,19.8826],[85.33,19.7854],[85.2523,19.7679],[85.1823,19.6718],[85.1737,19.5581],[85.1486,19.4956],[85.1724,19.4673],[85.3073,19.5615],[85.405,19.6163],[85.6791,19.7451],[85.8019,19.7879],[85.9359,19.8262],[86.1928,19.8893],[86.3878,19.9723],[86.3371,19.9864],[86.2686,20.0529],[86.1838,20.0508],[86.1223,20.0398],[86.079,20.1056],[85.873,20.1218],[85.9055,20.1547],[85.8605,20.2003],[85.805,20.16],[85.6857,20.1528],[85.6764,20.0694]]]},"properties":{"district":"PURI"}},
{"type":"Feature","geometry":{"type":"Polygon","coordinates":[[[82.0528,19.6761],[82.0477,19.5326],[82.0999,19.5168],[82.1259,19.4293],[82.1684,19.4369],[82.1766,19.2994],[82.1585,19.2674],[82.1789,19.1919],[82.2087,19.12],[82.2456,19.1453],[82.2586,19.1393],[82.3309,19.167],[82.3471,19.1695],[82.4893,19.1803],[82.5485,19.206],[82.6392,19.1488],[82.6374,19.1752],[82.6433,19.1765],[82.7014,19.1908],[82.7405,19.1594],[82.8148,19.1574],[82.8566,19.2032],[82.8251,19.2556],[82.8473,19.3245],[82.7256,19.3451],[82.6547,19.4563],[82.6458,19.5076],[82.566,19.5449],[82.5292,19.585],[82.5945,19.7755],[82.5755,19.8339],[82.6034,19.8669],[82.446,19.9092],[82.344,19.8359],[82.3024,19.8899],[82.2688,19.9764],[82.1715,20.0056],[82.0649,20.0567],[81.9924,20.0571],[81.9471,20.1071],[81.866,20.0283],[81.8536,19.9183],[81.9686,19.8597],[81.9863,19.8007],[82.0647,19.79],[82.0528,19.6761]]]},"properties":{"district":"NABARANGAPUR"}},
{"type":"Feature","geometry":{"type":"Polygon","coordinates":[[[83.4949,19.9606],[83.4042,19.9205],[83.4304,19.8709],[83.4545,19.7411],[83.3837,19.6674],[83.3698,19.6199],[83.3192,19.5922],[83.2664,19.6012],[83.2571,19.5279],[83.2011,19.4602],[83.2161,19.4312],[83.1077,19.5378],[83.0438,19.5564],[82.9783,19.4493],[82.9183,19.2382],[82.8719,19.1989],[82.9043,19.1609],[83.0051,19.121],[83.0312,19.0556],[83.1357,19.1366],[83.2342,19.0258],[83.2848,19.1157],[83.3197,19.1142],[83.3624,19.048],[83.348,19.0169],[83.4636,18.9553],[83.4833,19.0336],[83.5749,19.0614],[83.5862,19.0873],[83.6372,19.1536],[83.7142,18.993],[83.7945,19.0176],[83.8573,18.9906],[83.9081,19.0199],[83.9502,18.9977],[83.9774,19.0722],[84.0288,19.0754],[84.0258,19.1424],[83.9797,19.2129],[84.0201,19.291],[84.0153,19.3772],[83.9473,19.397],[83.9781,19.531],[83.9424,19.5493],[83.94,19.6352],[83.93,19.6788],[83.8728,19.6718],[83.8449,19.7094],[83.7664,19.7165],[83.7419,19.6552],[83.6894,19.6891],[83.6491,19.6576],[83.6155,19.8004],[83.5423,19.8438],[83.5538,19.9106],[83.4949,19.9606]]]},"properties":{"district":"RAYAGARHA"}},
{"type":"Feature","geometry":{"type":"Polygon","coordinates":[[[83.94,19.6352],[83.9424,19.5493],[83.9781,19.531],[83.9473,19.397],[84.0153,19.3772],[84.0201,19.291],[83.9797,19.2129],[84.0258,19.1424],[84.0288,19.0754],[83.9774,19.0722],[83.9502,18.9977],[83.9081,19.0199],[83.8573,18.9906],[83.7945,19.0176],[83.8905,18.8267],[84.0456,18.8129],[84.0894,18.7568],[84.2263,18.7988],[84.321,18.787],[84.3522,18.832],[84.3371,18.8894],[84.3743,18.8618],[84.4252,18.9504],[84.3518,18.9684],[84.3712,19.0111],[84.3355,19.1038],[84.3785,19.1404],[84.3951,19.1995],[84.4257,19.2611],[84.3946,19.4099],[84.3744,19.4917],[84.4013,19.5755],[84.3309,19.5998],[84.2723,19.5497],[84.2392,19.5761],[84.1534,19.5839],[84.1277,19.6374],[83.94,19.6352]]]},"properties":{"district":"GAJAPATI"}},
{"type":"Feature","geometry":{"type":"Polygon","coordinates":[[[82.2087,19.12],[82.246,18.9192],[82.1762,18.9027],[82.1608,18.7893],[82.0909,18.7411],[82.1758,18.6343],[82.2301,18.6282],[82.3163,18.5842],[82.3605,18.626],[82.4055,18.6001],[82.3848,18.4982],[82.4091,18.4694],[82.4817,18.5414],[82.5292,18.5028],[82.5409,18.3995],[82.6212,18.3597],[82.5878,18.2761],[82.7742,18.3405],[82.8031,18.4493],[82.8942,18.3816],[82.9704,18.3601],[83.0758,18.4057],[83.0209,18.4563],[83.0451,18.5443],[83.0167,18.6501],[83.0917,18.7225],[83.139,18.7854],[83.1932,18.7532],[83.2714,18.7648],[83.2818,18.7958],[83.397,18.8791],[83.3104,18.9989],[83.348,19.0169],[83.3624,19.048],[83.3197,19.1142],[83.2848,19.1157],[83.2342,19.0258],[83.1357,19.1366],[83.0312,19.0556],[83.0051,19.121],[82.9043,19.1609],[82.8719,19.1989],[82.8566,19.2032],[82.8148,19.1574],[82.7405,19.1594],[82.7014,19.1908],[82.6433,19.1765],[82.6374,19.1752],[82.6392,19.1488],[82.5485,19.206],[82.4893,19.1803],[82.3471,19.1695],[82.3309,19.167],[82.2586,19.1393],[82.2456,19.1453],[82.2087,19.12]]]},"properties":{"district":"KORAPUT"}},
{"type":"Feature","geometry":{"type":"Polygon","coordinates":[[[82.0909,18.7411],[81.9677,18.6964],[81.9495,18.5721],[81.8681,18.5249],[81.8572,18.4927],[81.7691,18.4182],[81.7503,18.3526],[81.6593,18.3465],[81.5358,18.2686],[81.507,18.1866],[81.5134,18.1],[81.4802,18.0501],[81.4831,17.9772],[81.4075,17.8961],[81.4156,17.8135],[81.6165,17.8221],[81.6619,17.8812],[81.7096,17.8718],[81.8099,17.951],[81.9629,17.9993],[82.0062,18.0522],[82.1688,18.052],[82.2495,17.9934],[82.2914,18.0689],[82.3357,18.1059],[82.3154,18.1841],[82.3446,18.2806],[82.3923,18.298],[82.382,18.4326],[82.4091,18.4694],[82.3848,18.4982],[82.4055,18.6001],[82.3605,18.626],[82.3163,18.5842],[82.2301,18.6282],[82.1758,18.6343],[82.0909,18.7411]]]},"properties":{"district":"MALKANGIRI"}}
]}