{"type":"FeatureCollection", "features": [
{"type":"Feature","geometry":{"type":"Polygon","coordinates":[[[83.7736,23.6101],[83.7376,23.7606],[83.6673,23.8422],[83.5699,23.8692],[83.5155,23.9803],[83.4322,24.0859],[83.3212,24.1056],[83.2792,24.0182],[83.2236,23.9865],[83.2004,23.9155],[83.2116,23.8733],[83.3393,23.8863],[83.3502,23.8521],[83.3597,23.7575],[83.3982,23.7307],[83.4284,23.692],[83.3833,23.6289],[83.3601,23.5146],[83.4503,23.463],[83.4569,23.4605],[83.5424,23.4212],[83.7117,23.4873],[83.7736,23.6101]]]},"properties":{"AC_NO":7,"AC_NAME":"Ramanujganj (ST)","district":"BALRAMPUR","PC_NO":1,"PC_NAME":"SURGUJA (ST)"}},
{"type":"Feature","geometry":{"type":"Polygon","coordinates":[[[83.3601,23.5146],[83.3833,23.6289],[83.4284,23.692],[83.3982,23.7307],[83.3597,23.7575],[83.3502,23.8521],[83.3393,23.8863],[83.2116,23.8733],[83.2004,23.9155],[83.1416,23.885],[82.952,23.8708],[82.8271,23.9626],[82.6973,23.9197],[82.7668,23.8835],[82.782,23.8262],[82.8585,23.761],[82.8737,23.6882],[83.0103,23.6541],[83.0507,23.5707],[82.9954,23.5603],[83.0557,23.4429],[83.0333,23.35],[83.1686,23.2775],[83.2242,23.2839],[83.2389,23.399],[83.3105,23.3634],[83.372,23.4281],[83.3601,23.5146]]]},"properties":{"AC_NO":6,"AC_NAME":"Pratappur (ST)","district":"SURAJPUR","PC_NO":1,"PC_NAME":"SURGUJA (ST)"}},
{"type":"Feature","geometry":{"type":"Polygon","coordinates":[[[82.496,23.7859],[82.479,23.806],[82.3346,23.8026],[82.2065,23.8277],[82.0535,23.8188],[82.0088,23.8612],[81.8152,23.8064],[81.7373,23.8393],[81.6583,23.9164],[81.6104,23.9041],[81.6449,23.7697],[81.696,23.7211],[81.6203,23.6511],[81.6117,23.5117],[81.6542,23.4981],[81.7254,23.5571],[81.8202,23.5157],[81.9171,23.5353],[81.9578,23.5009],[81.9872,23.4141],[82.0553,23.3768],[82.1041,23.3978],[82.1991,23.3137],[82.1486,23.2201],[82.1945,23.2069],[82.3671,23.2625],[82.4389,23.3425],[82.593,23.3665],[82.6514,23.4073],[82.6419,23.5006],[82.5898,23.5329],[82.5744,23.6265],[82.5959,23.6925],[82.496,23.7859]]]},"properties":{"AC_NO":1,"AC_NAME":"Bharatpur-Sonhat (S","district":"KOREA","PC_NO":4,"PC_NAME":"KORBA"}},
{"type":"Feature","geometry":{"type":"Polygon","coordinates":[[[83.2242,23.2839],[83.1686,23.2775],[83.0333,23.35],[83.0557,23.4429],[82.9954,23.5603],[83.0507,23.5707],[83.0103,23.6541],[82.8737,23.6882],[82.8585,23.761],[82.782,23.8262],[82.7668,23.8835],[82.6973,23.9197],[82.6356,23.8376],[82.5542,23.8262],[82.496,23.7859],[82.5959,23.6925],[82.5744,23.6265],[82.5898,23.5329],[82.6419,23.5006],[82.6514,23.4073],[82.7488,23.3542],[82.7666,23.2558],[82.8297,23.3037],[82.9065,23.3118],[82.9589,23.251],[82.9602,23.146],[83.0398,23.1118],[83.133,23.1108],[83.1426,23.1471],[83.2528,23.212],[83.2242,23.2839]]]},"properties":{"AC_NO":5,"AC_NAME":"Bhatgaon","district":"SURAJPUR","PC_NO":1,"PC_NAME":"SURGUJA (ST)"}},
{"type":"Feature","geometry":{"type":"Polygon","coordinates":[[[83.4569,23.4605],[83.4503,23.463],[83.3601,23.5146],[83.372,23.4281],[83.3105,23.3634],[83.2389,23.399],[83.2242,23.2839],[83.2528,23.212],[83.3372,23.1781],[83.369,23.2529],[83.5106,23.2406],[83.5544,23.175],[83.6722,23.2318],[83.8267,23.2433],[83.9438,23.1656],[84.0377,23.1707],[84.0747,23.3336],[83.9671,23.3877],[83.9742,23.4602],[84.0144,23.5034],[84.0299,23.6001],[83.9376,23.5688],[83.7736,23.6101],[83.7117,23.4873],[83.5424,23.4212],[83.4569,23.4605]]]},"properties":{"AC_NO":8,"AC_NAME":"Samri (ST)","district":"BALRAMPUR","PC_NO":1,"PC_NAME":"SURGUJA (ST)"}},
{"type":"Feature","geometry":{"type":"Polygon","coordinates":[[[82.6514,23.4073],[82.593,23.3665],[82.4389,23.3425],[82.3671,23.2625],[82.4351,23.2093],[82.4055,23.0972],[82.4088,22.9897],[82.4553,22.967],[82.5748,22.9654],[82.606,23.0218],[82.577,23.1278],[82.6491,23.157],[82.6964,23.2445],[82.7666,23.2558],[82.7488,23.3542],[82.6514,23.4073]]]},"properties":{"AC_NO":3,"AC_NAME":"Baikunthpur","district":"KOREA","PC_NO":4,"PC_NAME":"KORBA"}},
{"type":"Feature","geometry":{"type":"Polygon","coordinates":[[[83.0398,23.1118],[82.9602,23.146],[82.9589,23.251],[82.9065,23.3118],[82.8297,23.3037],[82.7666,23.2558],[82.6964,23.2445],[82.6491,23.157],[82.577,23.1278],[82.606,23.0218],[82.5748,22.9654],[82.5893,22.9074],[82.556,22.8469],[82.6519,22.809],[82.7129,22.8335],[82.7678,22.7899],[82.8011,22.8736],[82.9077,23.0618],[82.9727,23.049],[83.0398,23.1118]]]},"properties":{"AC_NO":4,"AC_NAME":"Premnagar","district":"SURAJPUR","PC_NO":1,"PC_NAME":"SURGUJA (ST)"}},
{"type":"Feature","geometry":{"type":"Polygon","coordinates":[[[83.2528,23.212],[83.1426,23.1471],[83.2248,23.1503],[83.2766,23.0867],[83.1009,23.0249],[83.0982,22.9771],[83.0093,22.8955],[83.069,22.7411],[83.1174,22.714],[83.1571,22.7686],[83.1341,22.8313],[83.2076,22.9335],[83.3685,23.0148],[83.422,23.0131],[83.5175,23.0938],[83.5544,23.175],[83.5106,23.2406],[83.369,23.2529],[83.3372,23.1781],[83.2528,23.212]]]},"properties":{"AC_NO":9,"AC_NAME":"Lundra (ST)","district":"SURGUJA","PC_NO":1,"PC_NAME":"SURGUJA (ST)"}},
{"type":"Feature","geometry":{"type":"Polygon","coordinates":[[[82.1486,23.2201],[82.1224,23.1039],[82.1751,23.045],[82.1771,22.9701],[82.2157,22.9449],[82.2591,22.9382],[82.3617,22.9985],[82.4088,22.9897],[82.4055,23.0972],[82.4351,23.2093],[82.3671,23.2625],[82.1945,23.2069],[82.1486,23.2201]]]},"properties":{"AC_NO":2,"AC_NAME":"Manendragarh","district":"MANENDRAGARH-CHIRMIRI-BHARATPUR","PC_NO":4,"PC_NAME":"KORBA"}},
{"type":"Feature","geometry":{"type":"Polygon","coordinates":[[[84.0377,23.1707],[83.9438,23.1656],[83.8267,23.2433],[83.6722,23.2318],[83.5544,23.175],[83.5175,23.0938],[83.55,23.0333],[83.5037,22.9535],[83.6227,22.8421],[83.6612,22.8829],[83.737,22.8808],[83.7915,22.8348],[83.8434,22.8508],[83.849,22.9167],[84.0205,22.902],[84.0657,22.8295],[84.2117,22.8312],[84.2914,22.7822],[84.396,22.9392],[84.3735,22.9794],[84.1763,22.9768],[84.1255,23.0362],[84.1334,23.083],[84.0371,23.1404],[84.0377,23.1707]]]},"properties":{"AC_NO":12,"AC_NAME":"Jashpur (ST)","district":"JASHPUR","PC_NO":2,"PC_NAME":"RAIGARH (ST)"}},
{"type":"Feature","geometry":{"type":"Polygon","coordinates":[[[83.1426,23.1471],[83.133,23.1108],[83.0398,23.1118],[82.9727,23.049],[82.9077,23.0618],[82.8011,22.8736],[82.7678,22.7899],[82.8329,22.7443],[83.0141,22.6383],[83.1154,22.6712],[83.1174,22.714],[83.069,22.7411],[83.0093,22.8955],[83.0982,22.9771],[83.1009,23.0249],[83.2766,23.0867],[83.2248,23.1503],[83.1426,23.1471]]]},"properties":{"AC_NO":10,"AC_NAME":"Ambikapur","district":"SURGUJA","PC_NO":1,"PC_NAME":"SURGUJA (ST)"}},
{"type":"Feature","geometry":{"type":"Polygon","coordinates":[[[82.2157,22.9449],[82.1771,22.9701],[82.1751,23.045],[82.1224,23.1039],[81.946,23.0746],[81.9504,22.9828],[81.8616,22.8891],[81.7757,22.8742],[81.7691,22.7418],[81.8896,22.7504],[81.9661,22.7223],[82.007,22.6307],[82.0669,22.5853],[82.132,22.6131],[82.1564,22.5442],[82.2394,22.6541],[82.1732,22.6662],[82.1487,22.7414],[82.1526,22.8644],[82.2157,22.9449]]]},"properties":{"AC_NO":24,"AC_NAME":"Marwahi (ST)","district":"GAURELA-PENDRA-MARWAHI","PC_NO":4,"PC_NAME":"KORBA"}},
{"type":"Feature","geometry":{"type":"Polygon","coordinates":[[[83.5175,23.0938],[83.422,23.0131],[83.3685,23.0148],[83.2076,22.9335],[83.1341,22.8313],[83.1571,22.7686],[83.2181,22.7808],[83.3937,22.7348],[83.4116,22.6385],[83.5059,22.6592],[83.5522,22.6963],[83.6374,22.6991],[83.6586,22.7766],[83.6227,22.8421],[83.5037,22.9535],[83.55,23.0333],[83.5175,23.0938]]]},"properties":{"AC_NO":11,"AC_NAME":"Sitapur (ST)","district":"SURGUJA","PC_NO":1,"PC_NAME":"SURGUJA (ST)"}},
{"type":"Feature","geometry":{"type":"Polygon","coordinates":[[[82.5748,22.9654],[82.4553,22.967],[82.4088,22.9897],[82.3617,22.9985],[82.2591,22.9382],[82.2157,22.9449],[82.1526,22.8644],[82.1487,22.7414],[82.1732,22.6662],[82.2394,22.6541],[82.1564,22.5442],[82.138,22.4544],[82.1821,22.41],[82.1507,22.3297],[82.2682,22.3349],[82.3107,22.3005],[82.4099,22.289],[82.5257,22.3436],[82.47,22.4042],[82.5437,22.5197],[82.5961,22.5427],[82.6425,22.5694],[82.6876,22.6924],[82.7826,22.6989],[82.8329,22.7443],[82.7678,22.7899],[82.7129,22.8335],[82.6519,22.809],[82.556,22.8469],[82.5893,22.9074],[82.5748,22.9654]]]},"properties":{"AC_NO":23,"AC_NAME":"Pali-Tanakhar (ST)","district":"KORBA","PC_NO":4,"PC_NAME":"KORBA"}},
{"type":"Feature","geometry":{"type":"Polygon","coordinates":[[[84.2914,22.7822],[84.2117,22.8312],[84.0657,22.8295],[84.0205,22.902],[83.849,22.9167],[83.8434,22.8508],[83.7915,22.8348],[83.7912,22.7691],[83.8499,22.758],[83.8615,22.6837],[83.9558,22.6549],[83.9314,22.5784],[83.8624,22.5757],[83.7934,22.5309],[83.7376,22.3771],[83.8023,22.2898],[83.9065,22.3513],[84.0052,22.3743],[84.0475,22.4699],[83.9802,22.5023],[84.0245,22.5915],[84.0842,22.6382],[84.2229,22.6687],[84.2315,22.7405],[84.2914,22.7822]]]},"properties":{"AC_NO":13,"AC_NAME":"Kunkuri (ST)","district":"JASHPUR","PC_NO":2,"PC_NAME":"RAIGARH (ST)"}},
{"type":"Feature","geometry":{"type":"Polygon","coordinates":[[[83.6227,22.8421],[83.6586,22.7766],[83.6374,22.6991],[83.5522,22.6963],[83.5059,22.6592],[83.4116,22.6385],[83.3965,22.5579],[83.4607,22.5121],[83.5682,22.5424],[83.5753,22.4599],[83.6904,22.3756],[83.7376,22.3771],[83.7934,22.5309],[83.8624,22.5757],[83.9314,22.5784],[83.9558,22.6549],[83.8615,22.6837],[83.8499,22.758],[83.7912,22.7691],[83.7915,22.8348],[83.737,22.8808],[83.6612,22.8829],[83.6227,22.8421]]]},"properties":{"AC_NO":14,"AC_NAME":"Pathalgaon (ST)","district":"JASHPUR","PC_NO":2,"PC_NAME":"RAIGARH (ST)"}},
{"type":"Feature","geometry":{"type":"Polygon","coordinates":[[[82.1564,22.5442],[82.132,22.6131],[82.0669,22.5853],[82.007,22.6307],[81.9661,22.7223],[81.8896,22.7504],[81.7691,22.7418],[81.7725,22.6682],[81.7178,22.6521],[81.8112,22.5955],[81.8259,22.5241],[81.8843,22.4936],[81.9577,22.3705],[81.9223,22.3166],[81.8578,22.33],[81.8362,22.2729],[82.093,22.2516],[82.2071,22.2727],[82.1507,22.3297],[82.1821,22.41],[82.138,22.4544],[82.1564,22.5442]]]},"properties":{"AC_NO":25,"AC_NAME":"Kota","district":"BILASPUR","PC_NO":5,"PC_NAME":"BILASPUR"}},
{"type":"Feature","geometry":{"type":"Polygon","coordinates":[[[83.1154,22.6712],[83.0141,22.6383],[82.8329,22.7443],[82.7826,22.6989],[82.6876,22.6924],[82.6425,22.5694],[82.5961,22.5427],[82.6701,22.4746],[82.6956,22.3903],[82.7569,22.3503],[82.7033,22.3127],[82.6319,22.2454],[82.6615,22.188],[82.6476,22.1006],[82.7303,22.0876],[82.862,22.1721],[82.9372,22.1221],[83.0485,22.2026],[83.0295,22.2393],[83.1096,22.366],[83.0896,22.4917],[83.0942,22.6308],[83.1154,22.6712]]]},"properties":{"AC_NO":20,"AC_NAME":"Rampur (ST)","district":"KORBA","PC_NO":4,"PC_NAME":"KORBA"}},
{"type":"Feature","geometry":{"type":"Polygon","coordinates":[[[81.8362,22.2729],[81.8578,22.33],[81.9223,22.3166],[81.9577,22.3705],[81.8843,22.4936],[81.8259,22.5241],[81.8112,22.5955],[81.7178,22.6521],[81.6486,22.6153],[81.6227,22.5386],[81.5224,22.5391],[81.479,22.4917],[81.492,22.4128],[81.5428,22.3391],[81.5382,22.1503],[81.6996,22.1557],[81.8135,22.1843],[81.7515,22.3016],[81.8362,22.2729]]]},"properties":{"AC_NO":26,"AC_NAME":"Lormi","district":"MUNGELI","PC_NO":5,"PC_NAME":"BILASPUR"}},
{"type":"Feature","geometry":{"type":"Polygon","coordinates":[[[83.8023,22.2898],[83.7376,22.3771],[83.6904,22.3756],[83.5753,22.4599],[83.5682,22.5424],[83.4607,22.5121],[83.4788,22.4084],[83.4436,22.3194],[83.4471,22.223],[83.3557,22.1636],[83.3114,22.0579],[83.2562,22.0636],[83.4082,21.9232],[83.4354,21.8829],[83.5491,21.8983],[83.5568,21.9363],[83.5618,22.0987],[83.6272,22.2038],[83.7039,22.2467],[83.7574,22.2403],[83.8023,22.2898]]]},"properties":{"AC_NO":15,"AC_NAME":"Lailunga (ST)","district":"RAIGARH","PC_NO":2,"PC_NAME":"RAIGARH (ST)"}},
{"type":"Feature","geometry":{"type":"Polygon","coordinates":[[[82.4099,22.289],[82.4578,22.2132],[82.5215,22.2494],[82.6319,22.2454],[82.7033,22.3127],[82.6956,22.3903],[82.6701,22.4746],[82.5961,22.5427],[82.5437,22.5197],[82.47,22.4042],[82.5257,22.3436],[82.4099,22.289]]]},"properties":{"AC_NO":22,"AC_NAME":"Katghora","district":"KORBA","PC_NO":4,"PC_NAME":"KORBA"}},
{"type":"Feature","geometry":{"type":"Polygon","coordinates":[[[81.1993,22.4628],[81.1108,22.4372],[81.1184,22.2906],[81.0469,22.2425],[80.9944,22.0493],[80.9079,22.1096],[80.8321,21.9078],[80.8426,21.8337],[80.9258,21.8277],[80.993,21.7298],[81.1029,21.7344],[81.1506,21.7115],[81.1328,21.7453],[81.1935,21.8371],[81.1814,21.9009],[81.3505,21.9644],[81.4004,22.0383],[81.3457,22.1131],[81.2971,22.3319],[81.2333,22.3741],[81.1993,22.4628]]]},"properties":{"AC_NO":72,"AC_NAME":"Kawardha","district":"KAWARDHA (KABIRDHAM)","PC_NO":6,"PC_NAME":"RAJNANDGAON"}},
{"type":"Feature","geometry":{"type":"Polygon","coordinates":[[[82.6956,22.3903],[82.7033,22.3127],[82.7569,22.3503],[82.6956,22.3903]]]},"properties":{"AC_NO":21,"AC_NAME":"Korba","district":"KORBA","PC_NO":4,"PC_NAME":"KORBA"}},
{"type":"Feature","geometry":{"type":"Polygon","coordinates":[[[82.3107,22.3005],[82.2682,22.3349],[82.1507,22.3297],[82.2071,22.2727],[82.093,22.2516],[82.1323,22.0877],[82.2047,22.0696],[82.267,22.08],[82.246,22.1723],[82.3359,22.215],[82.3107,22.3005]]]},"properties":{"AC_NO":31,"AC_NAME":"Beltara","district":"BILASPUR","PC_NO":5,"PC_NAME":"BILASPUR"}},
{"type":"Feature","geometry":{"type":"Polygon","coordinates":[[[82.4099,22.289],[82.3107,22.3005],[82.3359,22.215],[82.246,22.1723],[82.267,22.08],[82.2047,22.0696],[82.1882,22.0529],[82.2413,21.926],[82.1869,21.827],[82.2204,21.7573],[82.2475,21.7541],[82.3264,21.7143],[82.438,21.7399],[82.3831,21.7607],[82.3104,21.9243],[82.3336,22.105],[82.472,22.1881],[82.4578,22.2132],[82.4099,22.289]]]},"properties":{"AC_NO":32,"AC_NAME":"Masturi (SC)","district":"BILASPUR","PC_NO":5,"PC_NAME":"BILASPUR"}},
{"type":"Feature","geometry":{"type":"Polygon","coordinates":[[[81.8362,22.2729],[81.7515,22.3016],[81.8135,22.1843],[81.9426,22.0533],[81.9593,22.0074],[82.0232,21.9572],[82.0856,22.009],[82.113,22.0763],[82.1323,22.0877],[82.093,22.2516],[81.8362,22.2729]]]},"properties":{"AC_NO":28,"AC_NAME":"Takhatpur","district":"BILASPUR","PC_NO":5,"PC_NAME":"BILASPUR"}},
{"type":"Feature","geometry":{"type":"Polygon","coordinates":[[[82.6476,22.1006],[82.6615,22.188],[82.6319,22.2454],[82.5215,22.2494],[82.4578,22.2132],[82.472,22.1881],[82.3336,22.105],[82.3104,21.9243],[82.4432,21.9063],[82.5132,21.9148],[82.5109,22.0533],[82.6254,22.0655],[82.6476,22.1006]]]},"properties":{"AC_NO":33,"AC_NAME":"Akaltara","district":"JANJGIR - CHAMPA","PC_NO":3,"PC_NAME":"JANJGIR-CHAMPA (SC"}},
{"type":"Feature","geometry":{"type":"Polygon","coordinates":[[[83.1571,22.7686],[83.1174,22.714],[83.1154,22.6712],[83.0942,22.6308],[83.0896,22.4917],[83.1096,22.366],[83.0295,22.2393],[83.0485,22.2026],[83.1123,22.088],[83.2562,22.0636],[83.3114,22.0579],[83.3557,22.1636],[83.4471,22.223],[83.4436,22.3194],[83.4788,22.4084],[83.4607,22.5121],[83.3965,22.5579],[83.4116,22.6385],[83.3937,22.7348],[83.2181,22.7808],[83.1571,22.7686]]]},"properties":{"AC_NO":19,"AC_NAME":"Dharamjaigarh (ST)","district":"RAIGARH","PC_NO":2,"PC_NAME":"RAIGARH (ST)"}},
{"type":"Feature","geometry":{"type":"Polygon","coordinates":[[[83.0485,22.2026],[82.9372,22.1221],[83.0144,22.0772],[82.9957,21.9839],[83.0918,21.975],[83.1174,21.9315],[83.2149,21.9065],[83.1844,21.8606],[83.2644,21.7147],[83.3136,21.698],[83.3335,21.7738],[83.3387,21.9247],[83.4082,21.9232],[83.2562,22.0636],[83.1123,22.088],[83.0485,22.2026]]]},"properties":{"AC_NO":18,"AC_NAME":"Kharsia","district":"RAIGARH","PC_NO":2,"PC_NAME":"RAIGARH (ST)"}},
{"type":"Feature","geometry":{"type":"Polygon","coordinates":[[[81.5382,22.1503],[81.503,22.0112],[81.6477,21.9924],[81.7276,21.9437],[81.7788,21.9513],[81.7576,22.0187],[81.8321,22.0366],[81.9593,22.0074],[81.9426,22.0533],[81.8135,22.1843],[81.6996,22.1557],[81.5382,22.1503]]]},"properties":{"AC_NO":27,"AC_NAME":"Mungeli (SC)","district":"MUNGELI","PC_NO":5,"PC_NAME":"BILASPUR"}},
{"type":"Feature","geometry":{"type":"Polygon","coordinates":[[[82.9372,22.1221],[82.862,22.1721],[82.7303,22.0876],[82.6476,22.1006],[82.6254,22.0655],[82.6976,21.9312],[82.74,21.9889],[82.814,21.9659],[82.9258,21.9803],[82.9957,21.9839],[83.0144,22.0772],[82.9372,22.1221]]]},"properties":{"AC_NO":35,"AC_NAME":"Sakti","district":"SAKTI","PC_NO":3,"PC_NAME":"JANJGIR-CHAMPA (SC"}},
{"type":"Feature","geometry":{"type":"Polygon","coordinates":[[[82.1323,22.0877],[82.113,22.0763],[82.1882,22.0529],[82.2047,22.0696],[82.1323,22.0877]]]},"properties":{"AC_NO":30,"AC_NAME":"Bilaspur","district":"BILASPUR","PC_NO":5,"PC_NAME":"BILASPUR"}},
{"type":"Feature","geometry":{"type":"Polygon","coordinates":[[[82.5132,21.9148],[82.6359,21.7896],[82.7238,21.8214],[82.6976,21.9312],[82.6254,22.0655],[82.5109,22.0533],[82.5132,21.9148]]]},"properties":{"AC_NO":34,"AC_NAME":"Janjgir-Champa","district":"JANJGIR - CHAMPA","PC_NO":3,"PC_NAME":"JANJGIR-CHAMPA (SC"}},
{"type":"Feature","geometry":{"type":"Polygon","coordinates":[[[82.1882,22.0529],[82.113,22.0763],[82.0856,22.009],[82.0232,21.9572],[81.9593,22.0074],[81.8321,22.0366],[81.7576,22.0187],[81.7788,21.9513],[81.829,21.8968],[81.8916,21.8877],[81.9279,21.8182],[81.9454,21.8493],[82.051,21.8818],[82.1228,21.8317],[82.1869,21.827],[82.2413,21.926],[82.1882,22.0529]]]},"properties":{"AC_NO":29,"AC_NAME":"Bilha","district":"BILASPUR","PC_NO":5,"PC_NAME":"BILASPUR"}},
{"type":"Feature","geometry":{"type":"Polygon","coordinates":[[[81.7788,21.9513],[81.7276,21.9437],[81.6477,21.9924],[81.503,22.0112],[81.4079,21.889],[81.509,21.7723],[81.527,21.7334],[81.6315,21.7097],[81.6709,21.6618],[81.7231,21.6874],[81.7006,21.7614],[81.8357,21.7622],[81.9279,21.8182],[81.8916,21.8877],[81.829,21.8968],[81.7788,21.9513]]]},"properties":{"AC_NO":70,"AC_NAME":"Nawagarh (SC)","district":"BEMETARA","PC_NO":7,"PC_NAME":"DURG"}},
{"type":"Feature","geometry":{"type":"Polygon","coordinates":[[[81.5382,22.1503],[81.5428,22.3391],[81.492,22.4128],[81.479,22.4917],[81.4228,22.4702],[81.3313,22.5255],[81.2322,22.452],[81.1993,22.4628],[81.2333,22.3741],[81.2971,22.3319],[81.3457,22.1131],[81.4004,22.0383],[81.3505,21.9644],[81.1814,21.9009],[81.1935,21.8371],[81.1328,21.7453],[81.1506,21.7115],[81.1715,21.7049],[81.3372,21.7733],[81.3992,21.8306],[81.4079,21.889],[81.503,22.0112],[81.5382,22.1503]]]},"properties":{"AC_NO":71,"AC_NAME":"Pandariya","district":"KAWARDHA (KABIRDHAM)","PC_NO":6,"PC_NAME":"RAJNANDGAON"}},
{"type":"Feature","geometry":{"type":"Polygon","coordinates":[[[82.9258,21.9803],[82.814,21.9659],[82.74,21.9889],[82.6976,21.9312],[82.7238,21.8214],[82.741,21.7242],[82.8713,21.6932],[82.9489,21.7242],[83.0009,21.7346],[83.0213,21.7794],[82.9552,21.8731],[82.9258,21.9803]]]},"properties":{"AC_NO":37,"AC_NAME":"Jaijaipur","district":"SAKTI","PC_NO":3,"PC_NAME":"JANJGIR-CHAMPA (SC"}},
{"type":"Feature","geometry":{"type":"Polygon","coordinates":[[[83.3136,21.698],[83.2644,21.7147],[83.1844,21.8606],[83.2149,21.9065],[83.1174,21.9315],[83.0918,21.975],[82.9957,21.9839],[82.9258,21.9803],[82.9552,21.8731],[83.0213,21.7794],[83.0009,21.7346],[83.2354,21.7018],[83.3136,21.698]]]},"properties":{"AC_NO":36,"AC_NAME":"Chandrapur","district":"SAKTI","PC_NO":3,"PC_NAME":"JANJGIR-CHAMPA (SC"}},
{"type":"Feature","geometry":{"type":"Polygon","coordinates":[[[82.3104,21.9243],[82.3831,21.7607],[82.438,21.7399],[82.5383,21.7374],[82.741,21.7242],[82.7238,21.8214],[82.6359,21.7896],[82.5132,21.9148],[82.4432,21.9063],[82.3104,21.9243]]]},"properties":{"AC_NO":38,"AC_NAME":"Pamgarh (SC)","district":"JANJGIR - CHAMPA","PC_NO":3,"PC_NAME":"JANJGIR-CHAMPA (SC"}},
{"type":"Feature","geometry":{"type":"Polygon","coordinates":[[[83.4082,21.9232],[83.3387,21.9247],[83.3335,21.7738],[83.3136,21.698],[83.2354,21.7018],[83.2652,21.6045],[83.3678,21.5885],[83.4424,21.6554],[83.5225,21.7995],[83.606,21.9143],[83.5568,21.9363],[83.5491,21.8983],[83.4354,21.8829],[83.4082,21.9232]]]},"properties":{"AC_NO":16,"AC_NAME":"Raigarh","district":"RAIGARH","PC_NO":2,"PC_NAME":"RAIGARH (ST)"}},
{"type":"Feature","geometry":{"type":"Polygon","coordinates":[[[81.4079,21.889],[81.3992,21.8306],[81.3372,21.7733],[81.1715,21.7049],[81.1951,21.5183],[81.1711,21.4339],[81.1882,21.3604],[81.1657,21.2642],[81.2301,21.2631],[81.3805,21.4163],[81.3799,21.4944],[81.3457,21.5842],[81.368,21.6272],[81.4491,21.6595],[81.509,21.7723],[81.4079,21.889]]]},"properties":{"AC_NO":68,"AC_NAME":"Saja","district":"DURG","PC_NO":7,"PC_NAME":"DURG"}},
{"type":"Feature","geometry":{"type":"Polygon","coordinates":[[[82.2204,21.7573],[82.1869,21.827],[82.1228,21.8317],[82.051,21.8818],[81.9454,21.8493],[81.9279,21.8182],[81.8357,21.7622],[81.7006,21.7614],[81.7231,21.6874],[81.6709,21.6618],[81.6981,21.6113],[81.8478,21.6327],[81.9283,21.6939],[81.9857,21.684],[82.0336,21.5991],[82.0933,21.6887],[82.0834,21.7342],[82.2204,21.7573]]]},"properties":{"AC_NO":46,"AC_NAME":"Bhatapara","district":"BALODA BAZAR","PC_NO":8,"PC_NAME":"RAIPUR"}},
{"type":"Feature","geometry":{"type":"Polygon","coordinates":[[[81.1506,21.7115],[81.1029,21.7344],[80.993,21.7298],[80.9258,21.8277],[80.8426,21.8337],[80.817,21.7616],[80.7484,21.7562],[80.717,21.6717],[80.7337,21.4835],[80.9009,21.4993],[80.9592,21.3914],[81.1033,21.3413],[81.1882,21.3604],[81.1711,21.4339],[81.1951,21.5183],[81.1715,21.7049],[81.1506,21.7115]]]},"properties":{"AC_NO":73,"AC_NAME":"Khairagarh","district":"KHAIRGARH-CHHUIKHADAN-GANDAI","PC_NO":6,"PC_NAME":"RAJNANDGAON"}},
{"type":"Feature","geometry":{"type":"Polygon","coordinates":[[[81.6709,21.6618],[81.6315,21.7097],[81.527,21.7334],[81.509,21.7723],[81.4491,21.6595],[81.368,21.6272],[81.3457,21.5842],[81.3799,21.4944],[81.3805,21.4163],[81.4685,21.4196],[81.4917,21.3585],[81.5558,21.3349],[81.5937,21.3515],[81.6389,21.4053],[81.6279,21.4718],[81.6433,21.5457],[81.6981,21.6113],[81.6709,21.6618]]]},"properties":{"AC_NO":69,"AC_NAME":"Bemetara","district":"BEMETARA","PC_NO":7,"PC_NAME":"DURG"}},
{"type":"Feature","geometry":{"type":"Polygon","coordinates":[[[82.2204,21.7573],[82.0834,21.7342],[82.0933,21.6887],[82.0336,21.5991],[81.9857,21.684],[81.9283,21.6939],[81.8478,21.6327],[81.6981,21.6113],[81.6433,21.5457],[81.6279,21.4718],[81.74,21.4327],[81.8156,21.4688],[81.9551,21.4864],[81.9843,21.5474],[82.0796,21.5319],[82.1827,21.5704],[82.2566,21.6865],[82.2475,21.7541],[82.2204,21.7573]]]},"properties":{"AC_NO":45,"AC_NAME":"Baloda Bazar","district":"RAIPUR","PC_NO":8,"PC_NAME":"RAIPUR"}},
{"type":"Feature","geometry":{"type":"Polygon","coordinates":[[[82.438,21.7399],[82.3264,21.7143],[82.2475,21.7541],[82.2566,21.6865],[82.1827,21.5704],[82.0796,21.5319],[81.9843,21.5474],[81.9551,21.4864],[82.0065,21.4525],[82.1973,21.383],[82.2552,21.3371],[82.3393,21.3835],[82.4695,21.4103],[82.4871,21.5399],[82.4609,21.5868],[82.5383,21.7374],[82.438,21.7399]]]},"properties":{"AC_NO":44,"AC_NAME":"Kasdol","district":"BALODA BAZAR","PC_NO":3,"PC_NAME":"JANJGIR-CHAMPA (SC"}},
{"type":"Feature","geometry":{"type":"Polygon","coordinates":[[[82.9489,21.7242],[82.9858,21.6486],[82.9257,21.5593],[82.9344,21.4958],[83.0592,21.4362],[83.2688,21.3784],[83.3916,21.3426],[83.3989,21.4053],[83.3384,21.4991],[83.3678,21.5885],[83.2652,21.6045],[83.2354,21.7018],[83.0009,21.7346],[82.9489,21.7242]]]},"properties":{"AC_NO":17,"AC_NAME":"Sarangarh (SC)","district":"SARANGARH-BILAIGARH","PC_NO":2,"PC_NAME":"RAIGARH (ST)"}},
{"type":"Feature","geometry":{"type":"Polygon","coordinates":[[[82.9489,21.7242],[82.8713,21.6932],[82.741,21.7242],[82.5383,21.7374],[82.4609,21.5868],[82.4871,21.5399],[82.4695,21.4103],[82.3393,21.3835],[82.2552,21.3371],[82.3439,21.2726],[82.3916,21.2673],[82.4722,21.328],[82.5643,21.3159],[82.7031,21.3736],[82.6911,21.485],[82.7978,21.5101],[82.8758,21.5565],[82.9344,21.4958],[82.9257,21.5593],[82.9858,21.6486],[82.9489,21.7242]]]},"properties":{"AC_NO":43,"AC_NAME":"Bilaigarh (SC)","district":"BALODA BAZAR","PC_NO":3,"PC_NAME":"JANJGIR-CHAMPA (SC"}},
{"type":"Feature","geometry":{"type":"Polygon","coordinates":[[[83.2688,21.3784],[83.0592,21.4362],[82.9344,21.4958],[82.8758,21.5565],[82.7978,21.5101],[82.8884,21.3416],[82.9524,21.305],[82.8959,21.2257],[82.8973,21.1621],[82.948,21.162],[83.1316,21.1058],[83.1981,21.1456],[83.2173,21.2547],[83.2762,21.3021],[83.2688,21.3784]]]},"properties":{"AC_NO":39,"AC_NAME":"Saraipali (SC)","district":"MAHASAMUND","PC_NO":9,"PC_NAME":"MAHASAMUND"}},
{"type":"Feature","geometry":{"type":"Polygon","coordinates":[[[82.7978,21.5101],[82.6911,21.485],[82.7031,21.3736],[82.5643,21.3159],[82.4722,21.328],[82.3916,21.2673],[82.4627,21.2552],[82.5613,21.2005],[82.5615,21.1255],[82.641,21.1549],[82.693,21.1658],[82.8973,21.1621],[82.8959,21.2257],[82.9524,21.305],[82.8884,21.3416],[82.7978,21.5101]]]},"properties":{"AC_NO":40,"AC_NAME":"Basna","district":"MAHASAMUND","PC_NO":9,"PC_NAME":"MAHASAMUND"}},
{"type":"Feature","geometry":{"type":"Polygon","coordinates":[[[81.6279,21.4718],[81.6389,21.4053],[81.5937,21.3515],[81.6274,21.3524],[81.7652,21.2349],[81.7882,21.2912],[81.8618,21.3351],[81.9349,21.3098],[82.0065,21.4525],[81.9551,21.4864],[81.8156,21.4688],[81.74,21.4327],[81.6279,21.4718]]]},"properties":{"AC_NO":47,"AC_NAME":"Dharsiwa","district":"RAIPUR","PC_NO":8,"PC_NAME":"RAIPUR"}},
{"type":"Feature","geometry":{"type":"Polygon","coordinates":[[[81.1657,21.2642],[81.1882,21.3604],[81.1033,21.3413],[80.9592,21.3914],[80.9009,21.4993],[80.7337,21.4835],[80.6577,21.2816],[80.7136,21.1793],[80.8044,21.176],[80.9947,21.2234],[80.9554,21.1606],[81.1051,21.1514],[81.2072,21.1767],[81.1657,21.2642]]]},"properties":{"AC_NO":74,"AC_NAME":"Dongargarh (SC)","district":"RAJNANDGAON","PC_NO":6,"PC_NAME":"RAJNANDGAON"}},
{"type":"Feature","geometry":{"type":"Polygon","coordinates":[[[82.1973,21.383],[82.0065,21.4525],[81.9349,21.3098],[81.8618,21.3351],[81.7882,21.2912],[81.7652,21.2349],[81.7775,21.1453],[81.8394,21.1152],[81.8975,21.133],[81.93,21.19],[82.017,21.1746],[82.0651,21.2672],[82.1183,21.2882],[82.1973,21.383]]]},"properties":{"AC_NO":52,"AC_NAME":"Arang (SC)","district":"RAIPUR","PC_NO":8,"PC_NAME":"RAIPUR"}},
{"type":"Feature","geometry":{"type":"Polygon","coordinates":[[[82.2552,21.3371],[82.1973,21.383],[82.1183,21.2882],[82.0651,21.2672],[82.017,21.1746],[81.9912,21.1054],[82.0308,21.0561],[82.1712,20.9942],[82.202,21.0482],[82.2073,21.1466],[82.4087,21.1359],[82.4627,21.2552],[82.3916,21.2673],[82.3439,21.2726],[82.2552,21.3371]]]},"properties":{"AC_NO":42,"AC_NAME":"Mahasamund","district":"MAHASAMUND","PC_NO":9,"PC_NAME":"MAHASAMUND"}},
{"type":"Feature","geometry":{"type":"Polygon","coordinates":[[[81.2301,21.2631],[81.2885,21.2345],[81.3049,21.2178],[81.3911,21.2343],[81.478,21.2262],[81.5375,21.2879],[81.5558,21.3349],[81.4917,21.3585],[81.4685,21.4196],[81.3805,21.4163],[81.2301,21.2631]]]},"properties":{"AC_NO":67,"AC_NAME":"Ahiwara (SC)","district":"DURG","PC_NO":7,"PC_NAME":"DURG"}},
{"type":"Feature","geometry":{"type":"Polygon","coordinates":[[[81.5937,21.3515],[81.5558,21.3349],[81.5375,21.2879],[81.6016,21.2073],[81.5816,21.1237],[81.6571,21.0867],[81.8394,21.1152],[81.7775,21.1453],[81.7652,21.2349],[81.6274,21.3524],[81.5937,21.3515]],[[81.6219,21.2614],[81.6579,21.2481],[81.613,21.2361],[81.6219,21.2614]]]},"properties":{"AC_NO":48,"AC_NAME":"Raipur Rural","district":"RAIPUR","PC_NO":8,"PC_NAME":"RAIPUR"}},
{"type":"Feature","geometry":{"type":"Polygon","coordinates":[[[81.5375,21.2879],[81.478,21.2262],[81.3911,21.2343],[81.3943,21.2146],[81.3967,21.1589],[81.3908,21.0558],[81.4089,20.971],[81.402,20.8497],[81.4742,20.8656],[81.5891,20.9406],[81.6109,21.0272],[81.5816,21.1237],[81.6016,21.2073],[81.5375,21.2879]]]},"properties":{"AC_NO":62,"AC_NAME":"Patan","district":"DURG","PC_NO":7,"PC_NAME":"DURG"}},
{"type":"Feature","geometry":{"type":"Polygon","coordinates":[[[80.9554,21.1606],[80.9947,21.2234],[80.8044,21.176],[80.7136,21.1793],[80.6577,21.2816],[80.6157,21.228],[80.464,21.1751],[80.447,21.0793],[80.5395,21.0935],[80.7301,21.0685],[80.7427,20.9808],[80.9138,20.9257],[80.9419,20.9465],[80.9541,21.0034],[81.0336,20.9956],[81.0244,21.0501],[80.9296,21.1049],[80.9554,21.1606]]]},"properties":{"AC_NO":76,"AC_NAME":"Dongargaon","district":"RAJNANDGAON","PC_NO":6,"PC_NAME":"RAJNANDGAON"}},
{"type":"Feature","geometry":{"type":"Polygon","coordinates":[[[81.6219,21.2614],[81.635,21.2456],[81.6579,21.2481],[81.6219,21.2614]]]},"properties":{"AC_NO":50,"AC_NAME":"Raipur City North","district":"RAIPUR","PC_NO":8,"PC_NAME":"RAIPUR"}},
{"type":"Feature","geometry":{"type":"Polygon","coordinates":[[[81.1657,21.2642],[81.2072,21.1767],[81.2054,21.0997],[81.1484,21.0764],[81.2679,21.0332],[81.3908,21.0558],[81.3967,21.1589],[81.3292,21.164],[81.2885,21.2345],[81.2301,21.2631],[81.1657,21.2642]]]},"properties":{"AC_NO":63,"AC_NAME":"Durg-Rural","district":"DURG","PC_NO":7,"PC_NAME":"DURG"}},
{"type":"Feature","geometry":{"type":"Polygon","coordinates":[[[81.613,21.2361],[81.635,21.2456],[81.6219,21.2614],[81.613,21.2361]]]},"properties":{"AC_NO":49,"AC_NAME":"Raipur City West","district":"RAIPUR","PC_NO":8,"PC_NAME":"RAIPUR"}},
{"type":"Feature","geometry":{"type":"Polygon","coordinates":[[[82.641,21.1549],[82.5615,21.1255],[82.5613,21.2005],[82.4627,21.2552],[82.4087,21.1359],[82.2073,21.1466],[82.202,21.0482],[82.1712,20.9942],[82.1899,20.9505],[82.2675,20.9419],[82.3461,20.874],[82.4811,20.8513],[82.4877,20.908],[82.5595,20.9484],[82.6282,21.0384],[82.641,21.1549]]]},"properties":{"AC_NO":41,"AC_NAME":"Khallari","district":"MAHASAMUND","PC_NO":9,"PC_NAME":"MAHASAMUND"}},
{"type":"Feature","geometry":{"type":"Polygon","coordinates":[[[81.3049,21.2178],[81.3355,21.2052],[81.3943,21.2146],[81.3911,21.2343],[81.3049,21.2178]]]},"properties":{"AC_NO":66,"AC_NAME":"Vaishali Nagar","district":"DURG","PC_NO":7,"PC_NAME":"DURG"}},
{"type":"Feature","geometry":{"type":"Polygon","coordinates":[[[81.6579,21.2481],[81.635,21.2456],[81.613,21.2361],[81.6579,21.2481]]]},"properties":{"AC_NO":51,"AC_NAME":"Raipur City South","district":"RAIPUR","PC_NO":8,"PC_NAME":"RAIPUR"}},
{"type":"Feature","geometry":{"type":"Polygon","coordinates":[[[81.2885,21.2345],[81.3292,21.164],[81.3355,21.2052],[81.3049,21.2178],[81.2885,21.2345]]]},"properties":{"AC_NO":64,"AC_NAME":"Durg City","district":"DURG","PC_NO":7,"PC_NAME":"DURG"}},
{"type":"Feature","geometry":{"type":"Polygon","coordinates":[[[81.3943,21.2146],[81.3355,21.2052],[81.3292,21.164],[81.3967,21.1589],[81.3943,21.2146]]]},"properties":{"AC_NO":65,"AC_NAME":"Bhilai Nagar","district":"DURG","PC_NO":7,"PC_NAME":"DURG"}},
{"type":"Feature","geometry":{"type":"Polygon","coordinates":[[[81.8394,21.1152],[81.6571,21.0867],[81.5816,21.1237],[81.6109,21.0272],[81.6554,20.9997],[81.7487,21.0115],[81.8339,20.9408],[81.8737,20.9647],[81.9912,21.1054],[82.017,21.1746],[81.93,21.19],[81.8975,21.133],[81.8394,21.1152]]]},"properties":{"AC_NO":53,"AC_NAME":"Abhanpur","district":"RAIPUR","PC_NO":8,"PC_NAME":"RAIPUR"}},
{"type":"Feature","geometry":{"type":"Polygon","coordinates":[[[80.9554,21.1606],[80.9296,21.1049],[81.0244,21.0501],[81.0336,20.9956],[81.1208,21.0047],[81.1484,21.0764],[81.2054,21.0997],[81.2072,21.1767],[81.1051,21.1514],[80.9554,21.1606]]]},"properties":{"AC_NO":75,"AC_NAME":"Rajnandgaon","district":"RAJNANDGAON","PC_NO":6,"PC_NAME":"RAJNANDGAON"}},
{"type":"Feature","geometry":{"type":"Polygon","coordinates":[[[82.1712,20.9942],[82.0308,21.0561],[81.9912,21.1054],[81.8737,20.9647],[81.9046,20.8339],[81.9361,20.7393],[82.0122,20.6738],[81.9969,20.6277],[82.1165,20.6599],[82.2534,20.6539],[82.2887,20.7404],[82.3478,20.7511],[82.3461,20.874],[82.2675,20.9419],[82.1899,20.9505],[82.1712,20.9942]]]},"properties":{"AC_NO":54,"AC_NAME":"Rajim","district":"GARIYABAND","PC_NO":9,"PC_NAME":"MAHASAMUND"}},
{"type":"Feature","geometry":{"type":"Polygon","coordinates":[[[80.447,21.0793],[80.4634,20.9297],[80.5417,20.9248],[80.5521,20.7808],[80.6583,20.7871],[80.821,20.7604],[80.9674,20.8183],[80.9819,20.8988],[80.9419,20.9465],[80.9138,20.9257],[80.7427,20.9808],[80.7301,21.0685],[80.5395,21.0935],[80.447,21.0793]]]},"properties":{"AC_NO":77,"AC_NAME":"Khujji","district":"RAJNANDGAON","PC_NO":6,"PC_NAME":"RAJNANDGAON"}},
{"type":"Feature","geometry":{"type":"Polygon","coordinates":[[[81.402,20.8497],[81.4089,20.971],[81.3908,21.0558],[81.2679,21.0332],[81.1484,21.0764],[81.1208,21.0047],[81.0336,20.9956],[80.9541,21.0034],[80.9419,20.9465],[80.9819,20.8988],[81.0599,20.9032],[81.1611,20.8284],[81.379,20.7756],[81.402,20.8497]]]},"properties":{"AC_NO":61,"AC_NAME":"Gunderdehi","district":"BALOD","PC_NO":11,"PC_NAME":"KANKER (ST)"}},
{"type":"Feature","geometry":{"type":"Polygon","coordinates":[[[81.6109,21.0272],[81.5891,20.9406],[81.4742,20.8656],[81.4989,20.8469],[81.6242,20.8276],[81.7516,20.742],[81.8096,20.763],[81.8541,20.8322],[81.9046,20.8339],[81.8737,20.9647],[81.8339,20.9408],[81.7487,21.0115],[81.6554,20.9997],[81.6109,21.0272]]]},"properties":{"AC_NO":57,"AC_NAME":"Kurud","district":"DHAMTARI","PC_NO":9,"PC_NAME":"MAHASAMUND"}},
{"type":"Feature","geometry":{"type":"Polygon","coordinates":[[[80.9819,20.8988],[80.9674,20.8183],[80.821,20.7604],[80.8166,20.6887],[80.9527,20.6422],[81.0066,20.5983],[80.954,20.5407],[80.9919,20.4594],[81.1508,20.3778],[81.2215,20.4183],[81.334,20.5507],[81.225,20.6233],[81.1457,20.6345],[81.1611,20.8284],[81.0599,20.9032],[80.9819,20.8988]]]},"properties":{"AC_NO":60,"AC_NAME":"Dondi Lohara (ST)","district":"BALOD","PC_NO":11,"PC_NAME":"KANKER (ST)"}},
{"type":"Feature","geometry":{"type":"Polygon","coordinates":[[[81.4742,20.8656],[81.402,20.8497],[81.379,20.7756],[81.1611,20.8284],[81.1457,20.6345],[81.225,20.6233],[81.334,20.5507],[81.4103,20.5526],[81.5131,20.6141],[81.4989,20.8469],[81.4742,20.8656]]]},"properties":{"AC_NO":59,"AC_NAME":"Sanjari Balod","district":"BALOD","PC_NO":11,"PC_NAME":"KANKER (ST)"}},
{"type":"Feature","geometry":{"type":"Polygon","coordinates":[[[81.4989,20.8469],[81.5131,20.6141],[81.4103,20.5526],[81.4108,20.5263],[81.538,20.5006],[81.639,20.5058],[81.5996,20.6251],[81.7516,20.742],[81.6242,20.8276],[81.4989,20.8469]]]},"properties":{"AC_NO":58,"AC_NAME":"Dhamtari","district":"DHAMTARI","PC_NO":9,"PC_NAME":"MAHASAMUND"}},
{"type":"Feature","geometry":{"type":"Polygon","coordinates":[[[81.9969,20.6277],[82.0122,20.6738],[81.9361,20.7393],[81.9046,20.8339],[81.8541,20.8322],[81.8096,20.763],[81.7516,20.742],[81.5996,20.6251],[81.639,20.5058],[81.7341,20.4822],[81.7332,20.4258],[81.7946,20.3267],[81.7743,20.2319],[81.8119,20.1695],[81.8794,20.0508],[81.9471,20.1071],[82.0175,20.0483],[82.0927,20.1013],[82.1805,20.2572],[82.1088,20.2906],[82.0853,20.411],[82.0206,20.5282],[81.9969,20.6277]]]},"properties":{"AC_NO":56,"AC_NAME":"Sihawa (ST)","district":"DHAMTARI","PC_NO":11,"PC_NAME":"KANKER (ST)"}},
{"type":"Feature","geometry":{"type":"Polygon","coordinates":[[[80.5521,20.7808],[80.5799,20.6728],[80.481,20.6185],[80.5216,20.5804],[80.612,20.6006],[80.6137,20.4348],[80.5915,20.3932],[80.6257,20.3305],[80.3949,20.2436],[80.4338,20.1353],[80.5521,20.1181],[80.5842,20.1776],[80.6895,20.1908],[80.7497,20.2914],[80.8251,20.3007],[80.8602,20.3877],[80.9919,20.4594],[80.954,20.5407],[81.0066,20.5983],[80.9527,20.6422],[80.8166,20.6887],[80.821,20.7604],[80.6583,20.7871],[80.5521,20.7808]]]},"properties":{"AC_NO":78,"AC_NAME":"Mohla-Manpur (ST)","district":"MOHLA-MANPUR-AMBAGARH CHOWKI","PC_NO":6,"PC_NAME":"RAJNANDGAON"}},
{"type":"Feature","geometry":{"type":"Polygon","coordinates":[[[82.3478,20.7511],[82.2887,20.7404],[82.2534,20.6539],[82.1165,20.6599],[81.9969,20.6277],[82.0206,20.5282],[82.0853,20.411],[82.1088,20.2906],[82.1805,20.2572],[82.0927,20.1013],[82.0175,20.0483],[82.0649,20.0567],[82.2688,19.9764],[82.344,19.8359],[82.446,19.9092],[82.6034,19.8669],[82.6265,19.7934],[82.696,19.8307],[82.7122,19.9974],[82.5953,19.9918],[82.3983,20.0582],[82.39,20.1637],[82.4225,20.2208],[82.4308,20.314],[82.4004,20.3416],[82.4379,20.4344],[82.3896,20.5177],[82.3322,20.5619],[82.3765,20.6324],[82.3478,20.7511]]]},"properties":{"AC_NO":55,"AC_NAME":"Bindranawagarh (ST)","district":"GARIYABAND","PC_NO":9,"PC_NAME":"MAHASAMUND"}},
{"type":"Feature","geometry":{"type":"Polygon","coordinates":[[[81.334,20.5507],[81.2215,20.4183],[81.1508,20.3778],[80.9919,20.4594],[80.8602,20.3877],[80.8251,20.3007],[80.7497,20.2914],[80.6895,20.1908],[80.6961,20.1176],[80.7593,20.1167],[80.8119,20.1675],[80.86,20.1092],[80.9691,20.108],[81.0148,20.1847],[81.1691,20.1704],[81.2142,20.1349],[81.3098,20.155],[81.2706,20.1931],[81.2914,20.3508],[81.3708,20.3434],[81.4865,20.3639],[81.538,20.5006],[81.4108,20.5263],[81.4103,20.5526],[81.334,20.5507]]]},"properties":{"AC_NO":80,"AC_NAME":"Bhanupratappur (ST)","district":"UTTAR BASTAR KANKER","PC_NO":11,"PC_NAME":"KANKER (ST)"}},
{"type":"Feature","geometry":{"type":"Polygon","coordinates":[[[81.639,20.5058],[81.538,20.5006],[81.4865,20.3639],[81.3708,20.3434],[81.2914,20.3508],[81.2706,20.1931],[81.3098,20.155],[81.4192,20.1572],[81.4502,20.1465],[81.5844,20.1955],[81.6791,20.13],[81.8119,20.1695],[81.7743,20.2319],[81.7946,20.3267],[81.7332,20.4258],[81.7341,20.4822],[81.639,20.5058]]]},"properties":{"AC_NO":81,"AC_NAME":"Kanker (ST)","district":"UTTAR BASTAR KANKER","PC_NO":11,"PC_NAME":"KANKER (ST)"}},
{"type":"Feature","geometry":{"type":"Polygon","coordinates":[[[80.6895,20.1908],[80.5842,20.1776],[80.5521,20.1181],[80.549,19.9842],[80.4913,19.9019],[80.4688,19.8265],[80.6732,19.6929],[80.724,19.6987],[80.7138,19.7752],[80.8146,19.8297],[80.7556,19.8655],[80.8967,19.9162],[80.9462,19.8033],[81.0032,19.8093],[81.0841,19.692],[81.1531,19.7168],[81.1361,19.7861],[81.3,19.799],[81.3958,19.8365],[81.4055,19.8807],[81.3266,19.9388],[81.31,20.0219],[81.3873,20.0554],[81.4192,20.1572],[81.3098,20.155],[81.2142,20.1349],[81.1691,20.1704],[81.0148,20.1847],[80.9691,20.108],[80.86,20.1092],[80.8119,20.1675],[80.7593,20.1167],[80.6961,20.1176],[80.6895,20.1908]]]},"properties":{"AC_NO":79,"AC_NAME":"Antagarh (ST)","district":"UTTAR BASTAR KANKER","PC_NO":11,"PC_NAME":"KANKER (ST)"}},
{"type":"Feature","geometry":{"type":"Polygon","coordinates":[[[81.8794,20.0508],[81.8119,20.1695],[81.6791,20.13],[81.5844,20.1955],[81.4502,20.1465],[81.4192,20.1572],[81.3873,20.0554],[81.31,20.0219],[81.3266,19.9388],[81.4055,19.8807],[81.3958,19.8365],[81.3449,19.8066],[81.3513,19.7413],[81.4483,19.7235],[81.5101,19.6601],[81.5649,19.6883],[81.6549,19.6525],[81.7158,19.8688],[81.8466,19.8592],[81.8886,19.8927],[81.8536,19.9183],[81.8794,20.0508]]]},"properties":{"AC_NO":82,"AC_NAME":"Keshkal (ST)","district":"KONDAGAON","PC_NO":11,"PC_NAME":"KANKER (ST)"}},
{"type":"Feature","geometry":{"type":"Polygon","coordinates":[[[81.3958,19.8365],[81.3,19.799],[81.1361,19.7861],[81.1531,19.7168],[81.0841,19.692],[81.0032,19.8093],[80.9462,19.8033],[80.8967,19.9162],[80.7556,19.8655],[80.8146,19.8297],[80.7138,19.7752],[80.724,19.6987],[80.6732,19.6929],[80.6658,19.6115],[80.7192,19.6154],[80.7754,19.5625],[80.8343,19.5668],[80.8949,19.5196],[80.8811,19.4509],[80.8118,19.4328],[80.8328,19.3494],[80.9593,19.315],[80.9743,19.2497],[81.055,19.227],[81.0963,19.2773],[81.1466,19.2593],[81.2308,19.3218],[81.32,19.3329],[81.3566,19.2805],[81.5366,19.2296],[81.6183,19.2674],[81.6307,19.1896],[81.7649,19.2124],[81.8073,19.228],[81.9348,19.3378],[81.9281,19.4481],[81.8569,19.4791],[81.7978,19.4517],[81.798,19.3671],[81.6349,19.4089],[81.6545,19.5041],[81.632,19.5808],[81.5536,19.5777],[81.5166,19.5348],[81.4443,19.5733],[81.4484,19.6192],[81.5101,19.6601],[81.4483,19.7235],[81.3513,19.7413],[81.3449,19.8066],[81.3958,19.8365]]]},"properties":{"AC_NO":84,"AC_NAME":"Narayanpur (ST)","district":"NARAYANPUR","PC_NO":10,"PC_NAME":"BASTAR (ST)"}},
{"type":"Feature","geometry":{"type":"Polygon","coordinates":[[[81.8886,19.8927],[81.8466,19.8592],[81.7158,19.8688],[81.6549,19.6525],[81.5649,19.6883],[81.5101,19.6601],[81.4484,19.6192],[81.4443,19.5733],[81.5166,19.5348],[81.5536,19.5777],[81.632,19.5808],[81.6545,19.5041],[81.6349,19.4089],[81.798,19.3671],[81.7978,19.4517],[81.8569,19.4791],[81.8508,19.5476],[82.0315,19.5078],[82.0592,19.6288],[82.0444,19.7088],[82.0647,19.79],[81.9863,19.8007],[81.9686,19.8597],[81.8886,19.8927]]]},"properties":{"AC_NO":83,"AC_NAME":"Kondagaon (ST)","district":"KONDAGAON","PC_NO":10,"PC_NAME":"BASTAR (ST)"}},
{"type":"Feature","geometry":{"type":"Polygon","coordinates":[[[81.7649,19.2124],[81.8145,19.1576],[81.8593,19.1678],[81.9493,19.1114],[82.0286,19.1626],[82.1049,19.0993],[82.1041,19.0458],[82.2056,19.0602],[82.219,19.0952],[82.1585,19.2674],[82.1896,19.4269],[82.1259,19.4293],[82.0999,19.5168],[82.0315,19.5078],[81.8508,19.5476],[81.8569,19.4791],[81.9281,19.4481],[81.9348,19.3378],[81.8073,19.228],[81.7649,19.2124]]]},"properties":{"AC_NO":85,"AC_NAME":"Bastar (ST)","district":"BASTAR","PC_NO":10,"PC_NAME":"BASTAR (ST)"}},
{"type":"Feature","geometry":{"type":"Polygon","coordinates":[[[80.8328,19.3494],[80.7559,19.2892],[80.6804,19.3301],[80.6123,19.3097],[80.5805,19.3983],[80.4862,19.3411],[80.4546,19.275],[80.3919,19.2429],[80.3867,19.1799],[80.2735,18.9932],[80.2703,18.9399],[80.3492,18.8476],[80.3502,18.8149],[80.2446,18.7561],[80.3018,18.6903],[80.3446,18.5972],[80.4561,18.6294],[80.5147,18.6194],[80.5998,18.5531],[80.699,18.4214],[80.732,18.401],[80.7488,18.309],[80.7926,18.2495],[80.7371,18.2221],[80.8667,18.137],[80.9785,18.1544],[81.109,18.2301],[81.0612,18.3643],[80.9361,18.4073],[80.9948,18.4499],[81.0453,18.5508],[81.1993,18.5605],[81.162,18.5875],[81.1998,18.7545],[81.1878,18.8168],[81.2115,18.9602],[81.1872,18.978],[81.1917,19.1435],[81.2142,19.1768],[81.386,19.1839],[81.4968,19.1441],[81.5017,19.204],[81.4014,19.1913],[81.3566,19.2805],[81.32,19.3329],[81.2308,19.3218],[81.1466,19.2593],[81.0963,19.2773],[81.055,19.227],[80.9743,19.2497],[80.9593,19.315],[80.8328,19.3494]]]},"properties":{"AC_NO":89,"AC_NAME":"Bijapur (ST)","district":"BIJAPUR","PC_NO":10,"PC_NAME":"BASTAR (ST)"}},
{"type":"Feature","geometry":{"type":"MultiPolygon","coordinates":[[[[81.6795,18.6667],[81.6569,18.6212],[81.8076,18.6147],[81.7654,18.6806],[81.6795,18.6667]]],[[[81.7649,19.2124],[81.6307,19.1896],[81.6183,19.2674],[81.5366,19.2296],[81.3566,19.2805],[81.4014,19.1913],[81.5017,19.204],[81.4968,19.1441],[81.5093,19.0095],[81.466,18.9478],[81.668,18.8036],[81.721,18.8282],[81.773,18.7579],[81.8002,18.7434],[81.8567,18.8527],[81.8599,18.9289],[81.9295,19.027],[81.9493,19.1114],[81.8593,19.1678],[81.8145,19.1576],[81.7649,19.2124]]]]},"properties":{"AC_NO":87,"AC_NAME":"Chitrakot (ST)","district":"BASTAR","PC_NO":10,"PC_NAME":"BASTAR (ST)"}},
{"type":"Feature","geometry":{"type":"Polygon","coordinates":[[[81.4968,19.1441],[81.386,19.1839],[81.2142,19.1768],[81.1917,19.1435],[81.1872,18.978],[81.2115,18.9602],[81.1878,18.8168],[81.1998,18.7545],[81.162,18.5875],[81.1993,18.5605],[81.2572,18.5423],[81.3427,18.4377],[81.4013,18.505],[81.4675,18.6338],[81.5509,18.6207],[81.5479,18.6903],[81.5802,18.7435],[81.6341,18.7367],[81.6795,18.6667],[81.7654,18.6806],[81.773,18.7579],[81.721,18.8282],[81.668,18.8036],[81.466,18.9478],[81.5093,19.0095],[81.4968,19.1441]]]},"properties":{"AC_NO":88,"AC_NAME":"Dantewada (ST)","district":"DAKSHIN BASTAR DANTEWARA","PC_NO":10,"PC_NAME":"BASTAR (ST)"}},
{"type":"Feature","geometry":{"type":"Polygon","coordinates":[[[81.9493,19.1114],[81.9295,19.027],[81.8599,18.9289],[81.8567,18.8527],[81.8002,18.7434],[81.9206,18.7749],[81.9677,18.6964],[82.1608,18.7893],[82.1762,18.9027],[82.246,18.9192],[82.2056,19.0602],[82.1041,19.0458],[82.1049,19.0993],[82.0286,19.1626],[81.9493,19.1114]]]},"properties":{"AC_NO":86,"AC_NAME":"Jagdalpur","district":"BASTAR","PC_NO":10,"PC_NAME":"BASTAR (ST)"}},
{"type":"Feature","geometry":{"type":"Polygon","coordinates":[[[80.9785,18.1544],[80.9493,18.0829],[80.9984,17.9175],[81.0083,17.7981],[81.0733,17.7865],[81.1661,17.8577],[81.2661,17.8095],[81.354,17.8123],[81.4347,17.8809],[81.4831,17.9772],[81.4802,18.0501],[81.5134,18.1],[81.507,18.1866],[81.5358,18.2686],[81.6593,18.3465],[81.7503,18.3526],[81.7691,18.4182],[81.9495,18.5721],[81.9677,18.6964],[81.9206,18.7749],[81.8002,18.7434],[81.773,18.7579],[81.7654,18.6806],[81.8076,18.6147],[81.6569,18.6212],[81.6795,18.6667],[81.6341,18.7367],[81.5802,18.7435],[81.5479,18.6903],[81.5509,18.6207],[81.4675,18.6338],[81.4013,18.505],[81.3427,18.4377],[81.2572,18.5423],[81.1993,18.5605],[81.0453,18.5508],[80.9948,18.4499],[80.9361,18.4073],[81.0612,18.3643],[81.109,18.2301],[80.9785,18.1544]]]},"properties":{"AC_NO":90,"AC_NAME":"Konta (ST)","district":"SUKMA","PC_NO":10,"PC_NAME":"BASTAR (ST)"}}
]}