{"type":"FeatureCollection", "features": [
{"type":"Feature","geometry":{"type":"Polygon","coordinates":[[[83.3601,23.5146],[83.372,23.4281],[83.3105,23.3634],[83.2389,23.399],[83.2242,23.2839],[83.2528,23.212],[83.3372,23.1781],[83.369,23.2529],[83.5106,23.2406],[83.5544,23.175],[83.6722,23.2318],[83.8267,23.2433],[83.9438,23.1656],[84.0377,23.1707],[84.0747,23.3336],[83.9671,23.3877],[83.9742,23.4602],[84.0144,23.5034],[84.0299,23.6001],[83.9376,23.5688],[83.7736,23.6101],[83.7376,23.7606],[83.6673,23.8422],[83.5699,23.8692],[83.5155,23.9803],[83.4322,24.0859],[83.3212,24.1056],[83.2792,24.0182],[83.2236,23.9865],[83.2004,23.9155],[83.2116,23.8733],[83.3393,23.8863],[83.3502,23.8521],[83.3597,23.7575],[83.3982,23.7307],[83.4284,23.692],[83.3833,23.6289],[83.3601,23.5146]]]},"properties":{"district":"BALRAMPUR"}},
{"type":"Feature","geometry":{"type":"Polygon","coordinates":[[[83.2004,23.9155],[83.1416,23.885],[82.952,23.8708],[82.8271,23.9626],[82.6973,23.9197],[82.6356,23.8376],[82.5542,23.8262],[82.496,23.7859],[82.5959,23.6925],[82.5744,23.6265],[82.5898,23.5329],[82.6419,23.5006],[82.6514,23.4073],[82.7488,23.3542],[82.7666,23.2558],[82.6964,23.2445],[82.6491,23.157],[82.577,23.1278],[82.606,23.0218],[82.5748,22.9654],[82.5893,22.9074],[82.556,22.8469],[82.6519,22.809],[82.7129,22.8335],[82.7678,22.7899],[82.8011,22.8736],[82.9077,23.0618],[82.9727,23.049],[83.0398,23.1118],[83.133,23.1108],[83.1426,23.1471],[83.2528,23.212],[83.2242,23.2839],[83.2389,23.399],[83.3105,23.3634],[83.372,23.4281],[83.3601,23.5146],[83.3833,23.6289],[83.4284,23.692],[83.3982,23.7307],[83.3597,23.7575],[83.3502,23.8521],[83.3393,23.8863],[83.2116,23.8733],[83.2004,23.9155]]]},"properties":{"district":"SURAJPUR"}},
{"type":"Feature","geometry":{"type":"Polygon","coordinates":[[[82.496,23.7859],[82.479,23.806],[82.3346,23.8026],[82.2065,23.8277],[82.0535,23.8188],[82.0088,23.8612],[81.8152,23.8064],[81.7373,23.8393],[81.6583,23.9164],[81.6104,23.9041],[81.6449,23.7697],[81.696,23.7211],[81.6203,23.6511],[81.6117,23.5117],[81.6542,23.4981],[81.7254,23.5571],[81.8202,23.5157],[81.9171,23.5353],[81.9578,23.5009],[81.9872,23.4141],[82.0553,23.3768],[82.1041,23.3978],[82.1991,23.3137],[82.1486,23.2201],[82.1945,23.2069],[82.3671,23.2625],[82.4351,23.2093],[82.4055,23.0972],[82.4088,22.9897],[82.4553,22.967],[82.5748,22.9654],[82.606,23.0218],[82.577,23.1278],[82.6491,23.157],[82.6964,23.2445],[82.7666,23.2558],[82.7488,23.3542],[82.6514,23.4073],[82.6419,23.5006],[82.5898,23.5329],[82.5744,23.6265],[82.5959,23.6925],[82.496,23.7859]]]},"properties":{"district":"KOREA"}},
{"type":"Feature","geometry":{"type":"Polygon","coordinates":[[[83.1426,23.1471],[83.133,23.1108],[83.0398,23.1118],[82.9727,23.049],[82.9077,23.0618],[82.8011,22.8736],[82.7678,22.7899],[82.8329,22.7443],[83.0141,22.6383],[83.1154,22.6712],[83.1174,22.714],[83.1571,22.7686],[83.2181,22.7808],[83.3937,22.7348],[83.4116,22.6385],[83.5059,22.6592],[83.5522,22.6963],[83.6374,22.6991],[83.6586,22.7766],[83.6227,22.8421],[83.5037,22.9535],[83.55,23.0333],[83.5175,23.0938],[83.5544,23.175],[83.5106,23.2406],[83.369,23.2529],[83.3372,23.1781],[83.2528,23.212],[83.1426,23.1471]]]},"properties":{"district":"SURGUJA"}},
{"type":"Feature","geometry":{"type":"Polygon","coordinates":[[[82.1486,23.2201],[82.1224,23.1039],[82.1751,23.045],[82.1771,22.9701],[82.2157,22.9449],[82.2591,22.9382],[82.3617,22.9985],[82.4088,22.9897],[82.4055,23.0972],[82.4351,23.2093],[82.3671,23.2625],[82.1945,23.2069],[82.1486,23.2201]]]},"properties":{"district":"MANENDRAGARH-CHIRMIRI-BHARATPUR"}},
{"type":"Feature","geometry":{"type":"Polygon","coordinates":[[[83.5544,23.175],[83.5175,23.0938],[83.55,23.0333],[83.5037,22.9535],[83.6227,22.8421],[83.6586,22.7766],[83.6374,22.6991],[83.5522,22.6963],[83.5059,22.6592],[83.4116,22.6385],[83.3965,22.5579],[83.4607,22.5121],[83.5682,22.5424],[83.5753,22.4599],[83.6904,22.3756],[83.7376,22.3771],[83.8023,22.2898],[83.9065,22.3513],[84.0052,22.3743],[84.0475,22.4699],[83.9802,22.5023],[84.0245,22.5915],[84.0842,22.6382],[84.2229,22.6687],[84.2315,22.7405],[84.2914,22.7822],[84.396,22.9392],[84.3735,22.9794],[84.1763,22.9768],[84.1255,23.0362],[84.1334,23.083],[84.0371,23.1404],[84.0377,23.1707],[83.9438,23.1656],[83.8267,23.2433],[83.6722,23.2318],[83.5544,23.175]]]},"properties":{"district":"JASHPUR"}},
{"type":"Feature","geometry":{"type":"Polygon","coordinates":[[[82.1224,23.1039],[81.946,23.0746],[81.9504,22.9828],[81.8616,22.8891],[81.7757,22.8742],[81.7691,22.7418],[81.8896,22.7504],[81.9661,22.7223],[82.007,22.6307],[82.0669,22.5853],[82.132,22.6131],[82.1564,22.5442],[82.2394,22.6541],[82.1732,22.6662],[82.1487,22.7414],[82.1526,22.8644],[82.2157,22.9449],[82.1771,22.9701],[82.1751,23.045],[82.1224,23.1039]]]},"properties":{"district":"GAURELA-PENDRA-MARWAHI"}},
{"type":"Feature","geometry":{"type":"Polygon","coordinates":[[[82.4088,22.9897],[82.3617,22.9985],[82.2591,22.9382],[82.2157,22.9449],[82.1526,22.8644],[82.1487,22.7414],[82.1732,22.6662],[82.2394,22.6541],[82.1564,22.5442],[82.138,22.4544],[82.1821,22.41],[82.1507,22.3297],[82.2682,22.3349],[82.3107,22.3005],[82.4099,22.289],[82.4578,22.2132],[82.5215,22.2494],[82.6319,22.2454],[82.6615,22.188],[82.6476,22.1006],[82.7303,22.0876],[82.862,22.1721],[82.9372,22.1221],[83.0485,22.2026],[83.0295,22.2393],[83.1096,22.366],[83.0896,22.4917],[83.0942,22.6308],[83.1154,22.6712],[83.0141,22.6383],[82.8329,22.7443],[82.7678,22.7899],[82.7129,22.8335],[82.6519,22.809],[82.556,22.8469],[82.5893,22.9074],[82.5748,22.9654],[82.4553,22.967],[82.4088,22.9897]]]},"properties":{"district":"KORBA"}},
{"type":"Feature","geometry":{"type":"Polygon","coordinates":[[[81.7691,22.7418],[81.7725,22.6682],[81.7178,22.6521],[81.8112,22.5955],[81.8259,22.5241],[81.8843,22.4936],[81.9577,22.3705],[81.9223,22.3166],[81.8578,22.33],[81.8362,22.2729],[81.7515,22.3016],[81.8135,22.1843],[81.9426,22.0533],[81.9593,22.0074],[81.8321,22.0366],[81.7576,22.0187],[81.7788,21.9513],[81.829,21.8968],[81.8916,21.8877],[81.9279,21.8182],[81.9454,21.8493],[82.051,21.8818],[82.1228,21.8317],[82.1869,21.827],[82.2204,21.7573],[82.2475,21.7541],[82.3264,21.7143],[82.438,21.7399],[82.3831,21.7607],[82.3104,21.9243],[82.3336,22.105],[82.472,22.1881],[82.4578,22.2132],[82.4099,22.289],[82.3107,22.3005],[82.2682,22.3349],[82.1507,22.3297],[82.1821,22.41],[82.138,22.4544],[82.1564,22.5442],[82.132,22.6131],[82.0669,22.5853],[82.007,22.6307],[81.9661,22.7223],[81.8896,22.7504],[81.7691,22.7418]]]},"properties":{"district":"BILASPUR"}},
{"type":"Feature","geometry":{"type":"Polygon","coordinates":[[[81.7178,22.6521],[81.6486,22.6153],[81.6227,22.5386],[81.5224,22.5391],[81.479,22.4917],[81.492,22.4128],[81.5428,22.3391],[81.5382,22.1503],[81.503,22.0112],[81.6477,21.9924],[81.7276,21.9437],[81.7788,21.9513],[81.7576,22.0187],[81.8321,22.0366],[81.9593,22.0074],[81.9426,22.0533],[81.8135,22.1843],[81.7515,22.3016],[81.8362,22.2729],[81.8578,22.33],[81.9223,22.3166],[81.9577,22.3705],[81.8843,22.4936],[81.8259,22.5241],[81.8112,22.5955],[81.7178,22.6521]]]},"properties":{"district":"MUNGELI"}},
{"type":"Feature","geometry":{"type":"Polygon","coordinates":[[[83.7376,22.3771],[83.6904,22.3756],[83.5753,22.4599],[83.5682,22.5424],[83.4607,22.5121],[83.3965,22.5579],[83.4116,22.6385],[83.3937,22.7348],[83.2181,22.7808],[83.1571,22.7686],[83.1174,22.714],[83.1154,22.6712],[83.0942,22.6308],[83.0896,22.4917],[83.1096,22.366],[83.0295,22.2393],[83.0485,22.2026],[82.9372,22.1221],[83.0144,22.0772],[82.9957,21.9839],[83.0918,21.975],[83.1174,21.9315],[83.2149,21.9065],[83.1844,21.8606],[83.2644,21.7147],[83.3136,21.698],[83.2354,21.7018],[83.2652,21.6045],[83.3678,21.5885],[83.4424,21.6554],[83.5225,21.7995],[83.606,21.9143],[83.5568,21.9363],[83.5618,22.0987],[83.6272,22.2038],[83.7039,22.2467],[83.7574,22.2403],[83.8023,22.2898],[83.7376,22.3771]]]},"properties":{"district":"RAIGARH"}},
{"type":"Feature","geometry":{"type":"Polygon","coordinates":[[[81.1506,21.7115],[81.1715,21.7049],[81.3372,21.7733],[81.3992,21.8306],[81.4079,21.889],[81.503,22.0112],[81.5382,22.1503],[81.5428,22.3391],[81.492,22.4128],[81.479,22.4917],[81.4228,22.4702],[81.3313,22.5255],[81.2322,22.452],[81.1993,22.4628],[81.1108,22.4372],[81.1184,22.2906],[81.0469,22.2425],[80.9944,22.0493],[80.9079,22.1096],[80.8321,21.9078],[80.8426,21.8337],[80.9258,21.8277],[80.993,21.7298],[81.1029,21.7344],[81.1506,21.7115]]]},"properties":{"district":"KAWARDHA (KABIRDHAM)"}},
{"type":"Feature","geometry":{"type":"Polygon","coordinates":[[[82.6319,22.2454],[82.5215,22.2494],[82.4578,22.2132],[82.472,22.1881],[82.3336,22.105],[82.3104,21.9243],[82.3831,21.7607],[82.438,21.7399],[82.5383,21.7374],[82.741,21.7242],[82.7238,21.8214],[82.6976,21.9312],[82.6254,22.0655],[82.6476,22.1006],[82.6615,22.188],[82.6319,22.2454]]]},"properties":{"district":"JANJGIR - CHAMPA"}},
{"type":"Feature","geometry":{"type":"Polygon","coordinates":[[[82.6476,22.1006],[82.6254,22.0655],[82.6976,21.9312],[82.7238,21.8214],[82.741,21.7242],[82.8713,21.6932],[82.9489,21.7242],[83.0009,21.7346],[83.2354,21.7018],[83.3136,21.698],[83.2644,21.7147],[83.1844,21.8606],[83.2149,21.9065],[83.1174,21.9315],[83.0918,21.975],[82.9957,21.9839],[83.0144,22.0772],[82.9372,22.1221],[82.862,22.1721],[82.7303,22.0876],[82.6476,22.1006]]]},"properties":{"district":"SAKTI"}},
{"type":"Feature","geometry":{"type":"Polygon","coordinates":[[[81.503,22.0112],[81.4079,21.889],[81.509,21.7723],[81.4491,21.6595],[81.368,21.6272],[81.3457,21.5842],[81.3799,21.4944],[81.3805,21.4163],[81.4685,21.4196],[81.4917,21.3585],[81.5558,21.3349],[81.5937,21.3515],[81.6389,21.4053],[81.6279,21.4718],[81.6433,21.5457],[81.6981,21.6113],[81.6709,21.6618],[81.7231,21.6874],[81.7006,21.7614],[81.8357,21.7622],[81.9279,21.8182],[81.8916,21.8877],[81.829,21.8968],[81.7788,21.9513],[81.7276,21.9437],[81.6477,21.9924],[81.503,22.0112]]]},"properties":{"district":"BEMETARA"}},
{"type":"Feature","geometry":{"type":"Polygon","coordinates":[[[81.4079,21.889],[81.3992,21.8306],[81.3372,21.7733],[81.1715,21.7049],[81.1951,21.5183],[81.1711,21.4339],[81.1882,21.3604],[81.1657,21.2642],[81.2072,21.1767],[81.2054,21.0997],[81.1484,21.0764],[81.2679,21.0332],[81.3908,21.0558],[81.4089,20.971],[81.402,20.8497],[81.4742,20.8656],[81.5891,20.9406],[81.6109,21.0272],[81.5816,21.1237],[81.6016,21.2073],[81.5375,21.2879],[81.5558,21.3349],[81.4917,21.3585],[81.4685,21.4196],[81.3805,21.4163],[81.3799,21.4944],[81.3457,21.5842],[81.368,21.6272],[81.4491,21.6595],[81.509,21.7723],[81.4079,21.889]]]},"properties":{"district":"DURG"}},
{"type":"Feature","geometry":{"type":"MultiPolygon","coordinates":[[[[82.1869,21.827],[82.1228,21.8317],[82.051,21.8818],[81.9454,21.8493],[81.9279,21.8182],[81.8357,21.7622],[81.7006,21.7614],[81.7231,21.6874],[81.6709,21.6618],[81.6981,21.6113],[81.8478,21.6327],[81.9283,21.6939],[81.9857,21.684],[82.0336,21.5991],[82.0933,21.6887],[82.0834,21.7342],[82.2204,21.7573],[82.1869,21.827]]],[[[82.2475,21.7541],[82.2566,21.6865],[82.1827,21.5704],[82.0796,21.5319],[81.9843,21.5474],[81.9551,21.4864],[82.0065,21.4525],[82.1973,21.383],[82.2552,21.3371],[82.3439,21.2726],[82.3916,21.2673],[82.4722,21.328],[82.5643,21.3159],[82.7031,21.3736],[82.6911,21.485],[82.7978,21.5101],[82.8758,21.5565],[82.9344,21.4958],[82.9257,21.5593],[82.9858,21.6486],[82.9489,21.7242],[82.8713,21.6932],[82.741,21.7242],[82.5383,21.7374],[82.438,21.7399],[82.3264,21.7143],[82.2475,21.7541]]]]},"properties":{"district":"BALODA BAZAR"}},
{"type":"Feature","geometry":{"type":"Polygon","coordinates":[[[80.8426,21.8337],[80.817,21.7616],[80.7484,21.7562],[80.717,21.6717],[80.7337,21.4835],[80.9009,21.4993],[80.9592,21.3914],[81.1033,21.3413],[81.1882,21.3604],[81.1711,21.4339],[81.1951,21.5183],[81.1715,21.7049],[81.1506,21.7115],[81.1029,21.7344],[80.993,21.7298],[80.9258,21.8277],[80.8426,21.8337]]]},"properties":{"district":"KHAIRGARH-CHHUIKHADAN-GANDAI"}},
{"type":"Feature","geometry":{"type":"Polygon","coordinates":[[[82.2204,21.7573],[82.0834,21.7342],[82.0933,21.6887],[82.0336,21.5991],[81.9857,21.684],[81.9283,21.6939],[81.8478,21.6327],[81.6981,21.6113],[81.6433,21.5457],[81.6279,21.4718],[81.6389,21.4053],[81.5937,21.3515],[81.5558,21.3349],[81.5375,21.2879],[81.6016,21.2073],[81.5816,21.1237],[81.6109,21.0272],[81.6554,20.9997],[81.7487,21.0115],[81.8339,20.9408],[81.8737,20.9647],[81.9912,21.1054],[82.017,21.1746],[82.0651,21.2672],[82.1183,21.2882],[82.1973,21.383],[82.0065,21.4525],[81.9551,21.4864],[81.9843,21.5474],[82.0796,21.5319],[82.1827,21.5704],[82.2566,21.6865],[82.2475,21.7541],[82.2204,21.7573]]]},"properties":{"district":"RAIPUR"}},
{"type":"Feature","geometry":{"type":"Polygon","coordinates":[[[82.9489,21.7242],[82.9858,21.6486],[82.9257,21.5593],[82.9344,21.4958],[83.0592,21.4362],[83.2688,21.3784],[83.3916,21.3426],[83.3989,21.4053],[83.3384,21.4991],[83.3678,21.5885],[83.2652,21.6045],[83.2354,21.7018],[83.0009,21.7346],[82.9489,21.7242]]]},"properties":{"district":"SARANGARH-BILAIGARH"}},
{"type":"Feature","geometry":{"type":"Polygon","coordinates":[[[82.9344,21.4958],[82.8758,21.5565],[82.7978,21.5101],[82.6911,21.485],[82.7031,21.3736],[82.5643,21.3159],[82.4722,21.328],[82.3916,21.2673],[82.3439,21.2726],[82.2552,21.3371],[82.1973,21.383],[82.1183,21.2882],[82.0651,21.2672],[82.017,21.1746],[81.9912,21.1054],[82.0308,21.0561],[82.1712,20.9942],[82.1899,20.9505],[82.2675,20.9419],[82.3461,20.874],[82.4811,20.8513],[82.4877,20.908],[82.5595,20.9484],[82.6282,21.0384],[82.641,21.1549],[82.693,21.1658],[82.8973,21.1621],[82.948,21.162],[83.1316,21.1058],[83.1981,21.1456],[83.2173,21.2547],[83.2762,21.3021],[83.2688,21.3784],[83.0592,21.4362],[82.9344,21.4958]]]},"properties":{"district":"MAHASAMUND"}},
{"type":"Feature","geometry":{"type":"Polygon","coordinates":[[[81.1882,21.3604],[81.1033,21.3413],[80.9592,21.3914],[80.9009,21.4993],[80.7337,21.4835],[80.6577,21.2816],[80.6157,21.228],[80.464,21.1751],[80.447,21.0793],[80.4634,20.9297],[80.5417,20.9248],[80.5521,20.7808],[80.6583,20.7871],[80.821,20.7604],[80.9674,20.8183],[80.9819,20.8988],[80.9419,20.9465],[80.9541,21.0034],[81.0336,20.9956],[81.1208,21.0047],[81.1484,21.0764],[81.2054,21.0997],[81.2072,21.1767],[81.1657,21.2642],[81.1882,21.3604]]]},"properties":{"district":"RAJNANDGAON"}},
{"type":"Feature","geometry":{"type":"Polygon","coordinates":[[[81.9912,21.1054],[81.8737,20.9647],[81.9046,20.8339],[81.9361,20.7393],[82.0122,20.6738],[81.9969,20.6277],[82.0206,20.5282],[82.0853,20.411],[82.1088,20.2906],[82.1805,20.2572],[82.0927,20.1013],[82.0175,20.0483],[82.0649,20.0567],[82.2688,19.9764],[82.344,19.8359],[82.446,19.9092],[82.6034,19.8669],[82.6265,19.7934],[82.696,19.8307],[82.7122,19.9974],[82.5953,19.9918],[82.3983,20.0582],[82.39,20.1637],[82.4225,20.2208],[82.4308,20.314],[82.4004,20.3416],[82.4379,20.4344],[82.3896,20.5177],[82.3322,20.5619],[82.3765,20.6324],[82.3478,20.7511],[82.3461,20.874],[82.2675,20.9419],[82.1899,20.9505],[82.1712,20.9942],[82.0308,21.0561],[81.9912,21.1054]]]},"properties":{"district":"GARIYABAND"}},
{"type":"Feature","geometry":{"type":"Polygon","coordinates":[[[81.3908,21.0558],[81.2679,21.0332],[81.1484,21.0764],[81.1208,21.0047],[81.0336,20.9956],[80.9541,21.0034],[80.9419,20.9465],[80.9819,20.8988],[80.9674,20.8183],[80.821,20.7604],[80.8166,20.6887],[80.9527,20.6422],[81.0066,20.5983],[80.954,20.5407],[80.9919,20.4594],[81.1508,20.3778],[81.2215,20.4183],[81.334,20.5507],[81.4103,20.5526],[81.5131,20.6141],[81.4989,20.8469],[81.4742,20.8656],[81.402,20.8497],[81.4089,20.971],[81.3908,21.0558]]]},"properties":{"district":"BALOD"}},
{"type":"Feature","geometry":{"type":"Polygon","coordinates":[[[81.4742,20.8656],[81.4989,20.8469],[81.5131,20.6141],[81.4103,20.5526],[81.4108,20.5263],[81.538,20.5006],[81.639,20.5058],[81.7341,20.4822],[81.7332,20.4258],[81.7946,20.3267],[81.7743,20.2319],[81.8119,20.1695],[81.8794,20.0508],[81.9471,20.1071],[82.0175,20.0483],[82.0927,20.1013],[82.1805,20.2572],[82.1088,20.2906],[82.0853,20.411],[82.0206,20.5282],[81.9969,20.6277],[82.0122,20.6738],[81.9361,20.7393],[81.9046,20.8339],[81.8737,20.9647],[81.8339,20.9408],[81.7487,21.0115],[81.6554,20.9997],[81.6109,21.0272],[81.5891,20.9406],[81.4742,20.8656]]]},"properties":{"district":"DHAMTARI"}},
{"type":"Feature","geometry":{"type":"Polygon","coordinates":[[[80.5521,20.7808],[80.5799,20.6728],[80.481,20.6185],[80.5216,20.5804],[80.612,20.6006],[80.6137,20.4348],[80.5915,20.3932],[80.6257,20.3305],[80.3949,20.2436],[80.4338,20.1353],[80.5521,20.1181],[80.5842,20.1776],[80.6895,20.1908],[80.7497,20.2914],[80.8251,20.3007],[80.8602,20.3877],[80.9919,20.4594],[80.954,20.5407],[81.0066,20.5983],[80.9527,20.6422],[80.8166,20.6887],[80.821,20.7604],[80.6583,20.7871],[80.5521,20.7808]]]},"properties":{"district":"MOHLA-MANPUR-AMBAGARH CHOWKI"}},
{"type":"Feature","geometry":{"type":"Polygon","coordinates":[[[80.9919,20.4594],[80.8602,20.3877],[80.8251,20.3007],[80.7497,20.2914],[80.6895,20.1908],[80.5842,20.1776],[80.5521,20.1181],[80.549,19.9842],[80.4913,19.9019],[80.4688,19.8265],[80.6732,19.6929],[80.724,19.6987],[80.7138,19.7752],[80.8146,19.8297],[80.7556,19.8655],[80.8967,19.9162],[80.9462,19.8033],[81.0032,19.8093],[81.0841,19.692],[81.1531,19.7168],[81.1361,19.7861],[81.3,19.799],[81.3958,19.8365],[81.4055,19.8807],[81.3266,19.9388],[81.31,20.0219],[81.3873,20.0554],[81.4192,20.1572],[81.4502,20.1465],[81.5844,20.1955],[81.6791,20.13],[81.8119,20.1695],[81.7743,20.2319],[81.7946,20.3267],[81.7332,20.4258],[81.7341,20.4822],[81.639,20.5058],[81.538,20.5006],[81.4108,20.5263],[81.4103,20.5526],[81.334,20.5507],[81.2215,20.4183],[81.1508,20.3778],[80.9919,20.4594]]]},"properties":{"district":"UTTAR BASTAR KANKER"}},
{"type":"Feature","geometry":{"type":"Polygon","coordinates":[[[81.8119,20.1695],[81.6791,20.13],[81.5844,20.1955],[81.4502,20.1465],[81.4192,20.1572],[81.3873,20.0554],[81.31,20.0219],[81.3266,19.9388],[81.4055,19.8807],[81.3958,19.8365],[81.3449,19.8066],[81.3513,19.7413],[81.4483,19.7235],[81.5101,19.6601],[81.4484,19.6192],[81.4443,19.5733],[81.5166,19.5348],[81.5536,19.5777],[81.632,19.5808],[81.6545,19.5041],[81.6349,19.4089],[81.798,19.3671],[81.7978,19.4517],[81.8569,19.4791],[81.8508,19.5476],[82.0315,19.5078],[82.0592,19.6288],[82.0444,19.7088],[82.0647,19.79],[81.9863,19.8007],[81.9686,19.8597],[81.8886,19.8927],[81.8536,19.9183],[81.8794,20.0508],[81.8119,20.1695]]]},"properties":{"district":"KONDAGAON"}},
{"type":"Feature","geometry":{"type":"Polygon","coordinates":[[[80.6732,19.6929],[80.6658,19.6115],[80.7192,19.6154],[80.7754,19.5625],[80.8343,19.5668],[80.8949,19.5196],[80.8811,19.4509],[80.8118,19.4328],[80.8328,19.3494],[80.9593,19.315],[80.9743,19.2497],[81.055,19.227],[81.0963,19.2773],[81.1466,19.2593],[81.2308,19.3218],[81.32,19.3329],[81.3566,19.2805],[81.5366,19.2296],[81.6183,19.2674],[81.6307,19.1896],[81.7649,19.2124],[81.8073,19.228],[81.9348,19.3378],[81.9281,19.4481],[81.8569,19.4791],[81.7978,19.4517],[81.798,19.3671],[81.6349,19.4089],[81.6545,19.5041],[81.632,19.5808],[81.5536,19.5777],[81.5166,19.5348],[81.4443,19.5733],[81.4484,19.6192],[81.5101,19.6601],[81.4483,19.7235],[81.3513,19.7413],[81.3449,19.8066],[81.3958,19.8365],[81.3,19.799],[81.1361,19.7861],[81.1531,19.7168],[81.0841,19.692],[81.0032,19.8093],[80.9462,19.8033],[80.8967,19.9162],[80.7556,19.8655],[80.8146,19.8297],[80.7138,19.7752],[80.724,19.6987],[80.6732,19.6929]]]},"properties":{"district":"NARAYANPUR"}},
{"type":"Feature","geometry":{"type":"MultiPolygon","coordinates":[[[[81.7649,19.2124],[81.6307,19.1896],[81.6183,19.2674],[81.5366,19.2296],[81.3566,19.2805],[81.4014,19.1913],[81.5017,19.204],[81.4968,19.1441],[81.5093,19.0095],[81.466,18.9478],[81.668,18.8036],[81.721,18.8282],[81.773,18.7579],[81.8002,18.7434],[81.9206,18.7749],[81.9677,18.6964],[82.1608,18.7893],[82.1762,18.9027],[82.246,18.9192],[82.2056,19.0602],[82.219,19.0952],[82.1585,19.2674],[82.1896,19.4269],[82.1259,19.4293],[82.0999,19.5168],[82.0315,19.5078],[81.8508,19.5476],[81.8569,19.4791],[81.9281,19.4481],[81.9348,19.3378],[81.8073,19.228],[81.7649,19.2124]]],[[[81.6795,18.6667],[81.6569,18.6212],[81.8076,18.6147],[81.7654,18.6806],[81.6795,18.6667]]]]},"properties":{"district":"BASTAR"}},
{"type":"Feature","geometry":{"type":"Polygon","coordinates":[[[80.8328,19.3494],[80.7559,19.2892],[80.6804,19.3301],[80.6123,19.3097],[80.5805,19.3983],[80.4862,19.3411],[80.4546,19.275],[80.3919,19.2429],[80.3867,19.1799],[80.2735,18.9932],[80.2703,18.9399],[80.3492,18.8476],[80.3502,18.8149],[80.2446,18.7561],[80.3018,18.6903],[80.3446,18.5972],[80.4561,18.6294],[80.5147,18.6194],[80.5998,18.5531],[80.699,18.4214],[80.732,18.401],[80.7488,18.309],[80.7926,18.2495],[80.7371,18.2221],[80.8667,18.137],[80.9785,18.1544],[81.109,18.2301],[81.0612,18.3643],[80.9361,18.4073],[80.9948,18.4499],[81.0453,18.5508],[81.1993,18.5605],[81.162,18.5875],[81.1998,18.7545],[81.1878,18.8168],[81.2115,18.9602],[81.1872,18.978],[81.1917,19.1435],[81.2142,19.1768],[81.386,19.1839],[81.4968,19.1441],[81.5017,19.204],[81.4014,19.1913],[81.3566,19.2805],[81.32,19.3329],[81.2308,19.3218],[81.1466,19.2593],[81.0963,19.2773],[81.055,19.227],[80.9743,19.2497],[80.9593,19.315],[80.8328,19.3494]]]},"properties":{"district":"BIJAPUR"}},
{"type":"Feature","geometry":{"type":"Polygon","coordinates":[[[81.1993,18.5605],[81.2572,18.5423],[81.3427,18.4377],[81.4013,18.505],[81.4675,18.6338],[81.5509,18.6207],[81.5479,18.6903],[81.5802,18.7435],[81.6341,18.7367],[81.6795,18.6667],[81.7654,18.6806],[81.773,18.7579],[81.721,18.8282],[81.668,18.8036],[81.466,18.9478],[81.5093,19.0095],[81.4968,19.1441],[81.386,19.1839],[81.2142,19.1768],[81.1917,19.1435],[81.1872,18.978],[81.2115,18.9602],[81.1878,18.8168],[81.1998,18.7545],[81.162,18.5875],[81.1993,18.5605]]]},"properties":{"district":"DAKSHIN BASTAR DANTEWARA"}},
{"type":"Feature","geometry":{"type":"Polygon","coordinates":[[[80.9785,18.1544],[80.9493,18.0829],[80.9984,17.9175],[81.0083,17.7981],[81.0733,17.7865],[81.1661,17.8577],[81.2661,17.8095],[81.354,17.8123],[81.4347,17.8809],[81.4831,17.9772],[81.4802,18.0501],[81.5134,18.1],[81.507,18.1866],[81.5358,18.2686],[81.6593,18.3465],[81.7503,18.3526],[81.7691,18.4182],[81.9495,18.5721],[81.9677,18.6964],[81.9206,18.7749],[81.8002,18.7434],[81.773,18.7579],[81.7654,18.6806],[81.8076,18.6147],[81.6569,18.6212],[81.6795,18.6667],[81.6341,18.7367],[81.5802,18.7435],[81.5479,18.6903],[81.5509,18.6207],[81.4675,18.6338],[81.4013,18.505],[81.3427,18.4377],[81.2572,18.5423],[81.1993,18.5605],[81.0453,18.5508],[80.9948,18.4499],[80.9361,18.4073],[81.0612,18.3643],[81.109,18.2301],[80.9785,18.1544]]]},"properties":{"district":"SUKMA"}}
]}