{"type":"FeatureCollection", "features": [
{"type":"Feature","geometry":{"type":"Polygon","coordinates":[[[74.0549,21.5578],[74.0554,21.5567],[74.196,21.5319],[74.3319,21.5459],[74.3319,21.5458],[74.332,21.5451],[74.3322,21.5435],[74.3292,21.5429],[74.3281,21.541],[74.3279,21.5395],[74.3209,21.4985],[74.1953,21.4604],[74.1944,21.4601],[74.1929,21.4597],[74.1482,21.4579],[74.1252,21.4665],[73.9441,21.4],[73.9424,21.3258],[73.9326,21.2906],[73.8271,21.2674],[73.816,21.174],[73.6443,21.1399],[73.7373,21.0802],[73.8507,20.9983],[73.8513,20.9976],[74.0861,21.1932],[74.2195,21.2402],[74.3034,21.2393],[74.3536,21.2314],[74.4073,21.2659],[74.4099,21.2571],[74.491,21.2401],[74.502,21.4156],[74.6853,21.4045],[74.7512,21.4866],[74.7584,21.5524],[74.7709,21.6157],[74.5823,21.6649],[74.5016,21.7825],[74.5136,21.8589],[74.5091,21.9369],[74.4318,22.0302],[74.2815,21.9329],[74.1466,21.9527],[74.0179,21.9069],[73.9403,21.8709],[73.8069,21.8365],[73.8294,21.7837],[73.8949,21.6761],[73.8142,21.6009],[73.8532,21.4975],[73.9824,21.5223],[73.9932,21.5433],[74.0024,21.5414],[74.0537,21.5553],[74.0538,21.5559],[74.0542,21.5577],[74.0549,21.5578]]]},"properties":{"district":"NANDURBAR"}},
{"type":"Feature","geometry":{"type":"Polygon","coordinates":[[[77.1739,21.2432],[77.1503,21.0345],[77.1676,20.9892],[77.1297,20.863],[77.2126,20.8496],[77.4352,20.8429],[77.4721,20.8765],[77.5793,20.808],[77.6147,20.7605],[77.6501,20.5641],[77.7789,20.54],[77.8111,20.5844],[77.9772,20.6044],[78.0658,20.6722],[78.1261,20.6619],[78.2775,20.6946],[78.3081,20.7591],[78.2579,20.8872],[78.1603,20.9455],[78.1353,21.0018],[78.1446,21.1393],[78.0572,21.239],[78.0856,21.3592],[78.2494,21.3313],[78.4482,21.4031],[78.4361,21.4998],[78.3903,21.6147],[78.3427,21.589],[78.2648,21.5915],[78.1762,21.5005],[78.0168,21.4188],[77.9037,21.3774],[77.8366,21.4004],[77.7098,21.3572],[77.5633,21.3696],[77.4882,21.3743],[77.4551,21.5535],[77.5751,21.5263],[77.5726,21.6168],[77.5019,21.7462],[77.28,21.7584],[77.2102,21.6898],[77.0658,21.7124],[76.902,21.5971],[76.7811,21.5608],[76.7956,21.4896],[76.7395,21.4107],[76.6216,21.3326],[76.6628,21.2806],[76.7242,21.2891],[76.7818,21.1885],[76.9982,21.1958],[77.1739,21.2432]]]},"properties":{"district":"AMRAVATI"}},
{"type":"Feature","geometry":{"type":"Polygon","coordinates":[[[74.7584,21.5524],[74.7512,21.4866],[74.6853,21.4045],[74.502,21.4156],[74.491,21.2401],[74.4099,21.2571],[74.4073,21.2659],[74.3536,21.2314],[74.3034,21.2393],[74.2195,21.2402],[74.0861,21.1932],[73.8513,20.9976],[73.8883,20.9336],[73.9257,20.8887],[73.9403,20.8395],[73.9666,20.8523],[74.0013,20.8345],[74.1578,20.8621],[74.35,20.852],[74.4006,20.825],[74.4764,20.8296],[74.5647,20.8236],[74.6652,20.7752],[74.65,20.6942],[74.7885,20.6609],[74.8124,20.6323],[74.9328,20.6564],[74.9869,20.7348],[74.9839,20.8291],[74.9133,20.9274],[74.9186,21.0135],[74.867,21.0734],[74.9447,21.2256],[75.0109,21.187],[75.1061,21.238],[75.1302,21.35],[75.207,21.4131],[75.1074,21.4628],[75.0537,21.5641],[74.9726,21.5962],[74.8714,21.6316],[74.7709,21.6157],[74.7584,21.5524]]]},"properties":{"district":"DHULE"}},
{"type":"Feature","geometry":{"type":"Polygon","coordinates":[[[79.5392,21.543],[79.51,21.596],[79.4962,21.6744],[79.3928,21.674],[79.2309,21.7188],[79.2229,21.6489],[79.0138,21.5998],[78.9737,21.6124],[78.9141,21.5888],[78.9367,21.4859],[78.7559,21.4906],[78.7077,21.4705],[78.5861,21.4875],[78.5117,21.5288],[78.4361,21.4998],[78.4482,21.4031],[78.2494,21.3313],[78.3301,21.2504],[78.4774,21.2196],[78.5558,21.1159],[78.6491,21.0367],[78.683,21.0289],[78.7866,20.8899],[78.8779,20.83],[78.9718,20.7568],[79.1429,20.6788],[79.2207,20.5834],[79.3215,20.584],[79.3488,20.6762],[79.4363,20.662],[79.507,20.71],[79.5314,20.775],[79.6565,20.9635],[79.5944,21.0759],[79.5203,21.089],[79.5613,21.2262],[79.5756,21.2758],[79.504,21.389],[79.4488,21.4356],[79.5392,21.543]]]},"properties":{"district":"NAGPUR"}},
{"type":"Feature","geometry":{"type":"Polygon","coordinates":[[[80.0755,21.5599],[79.9636,21.5582],[79.9191,21.5244],[79.926,21.4915],[79.7997,21.3811],[79.8356,21.2245],[79.9902,21.2306],[80.0583,21.1981],[80.103,21.0126],[80.0781,20.96],[79.9589,20.933],[79.927,20.8032],[79.964,20.6928],[80.0577,20.7127],[80.2422,20.6548],[80.3168,20.7714],[80.3218,20.7996],[80.5181,20.8344],[80.5611,20.8228],[80.5417,20.9248],[80.4634,20.9297],[80.447,21.0793],[80.464,21.1751],[80.6157,21.228],[80.6577,21.2816],[80.66,21.3342],[80.6214,21.3205],[80.4221,21.4406],[80.3372,21.544],[80.2726,21.6127],[80.1859,21.6275],[80.0755,21.5599]]]},"properties":{"district":"GONDIA"}},
{"type":"Feature","geometry":{"type":"Polygon","coordinates":[[[79.504,21.389],[79.5756,21.2758],[79.5613,21.2262],[79.5203,21.089],[79.5944,21.0759],[79.6565,20.9635],[79.5314,20.775],[79.507,20.71],[79.6595,20.6674],[79.7564,20.731],[79.9311,20.6688],[79.964,20.6928],[79.927,20.8032],[79.9589,20.933],[80.0781,20.96],[80.103,21.0126],[80.0583,21.1981],[79.9902,21.2306],[79.8356,21.2245],[79.7997,21.3811],[79.926,21.4915],[79.9191,21.5244],[79.7362,21.6041],[79.6563,21.5594],[79.5392,21.543],[79.4488,21.4356],[79.504,21.389]]]},"properties":{"district":"BHANDARA"}},
{"type":"Feature","geometry":{"type":"Polygon","coordinates":[[[75.0109,21.187],[74.9447,21.2256],[74.867,21.0734],[74.9186,21.0135],[74.9133,20.9274],[74.9839,20.8291],[74.9869,20.7348],[74.9328,20.6564],[74.8124,20.6323],[74.7834,20.5],[74.8367,20.4168],[74.8565,20.294],[74.9345,20.2702],[74.9992,20.3369],[75.126,20.3503],[75.1592,20.4756],[75.227,20.4941],[75.2403,20.551],[75.389,20.5774],[75.3961,20.5208],[75.5269,20.5553],[75.5363,20.6067],[75.66,20.6245],[75.7589,20.5749],[75.8849,20.5601],[76.0077,20.6458],[75.9998,20.7786],[76.0636,20.8283],[76.09,20.9444],[76.1708,21.028],[76.2801,20.9572],[76.3452,20.9507],[76.3843,21.0765],[76.1737,21.0895],[76.1511,21.2438],[76.0968,21.3719],[75.9866,21.3689],[75.7931,21.3845],[75.7595,21.38],[75.6166,21.3884],[75.3829,21.3796],[75.207,21.4131],[75.1302,21.35],[75.1061,21.238],[75.0109,21.187]]]},"properties":{"district":"JALGAON"}},
{"type":"Feature","geometry":{"type":"Polygon","coordinates":[[[78.0572,21.239],[78.1446,21.1393],[78.1353,21.0018],[78.1603,20.9455],[78.2579,20.8872],[78.3081,20.7591],[78.2775,20.6946],[78.2787,20.5613],[78.4098,20.512],[78.5088,20.5244],[78.5625,20.4404],[78.6471,20.4294],[78.7832,20.2984],[78.7996,20.2994],[78.8176,20.3975],[78.9539,20.4284],[79.0234,20.4828],[79.118,20.4503],[79.1652,20.4909],[79.2207,20.5834],[79.1429,20.6788],[78.9718,20.7568],[78.8779,20.83],[78.7866,20.8899],[78.683,21.0289],[78.6491,21.0367],[78.5558,21.1159],[78.4774,21.2196],[78.3301,21.2504],[78.2494,21.3313],[78.0856,21.3592],[78.0572,21.239]]]},"properties":{"district":"WARDHA"}},
{"type":"Feature","geometry":{"type":"Polygon","coordinates":[[[76.6628,21.2806],[76.6239,21.1854],[76.4984,21.1935],[76.456,21.1081],[76.3843,21.0765],[76.3452,20.9507],[76.2801,20.9572],[76.1708,21.028],[76.09,20.9444],[76.0636,20.8283],[75.9998,20.7786],[76.0077,20.6458],[76.0358,20.5553],[75.9557,20.4648],[75.9296,20.3014],[76.1083,20.3541],[76.1784,20.2651],[76.0694,20.0724],[75.9659,19.9952],[76.0403,19.9516],[76.0976,19.8574],[76.1755,19.8512],[76.296,19.8692],[76.4206,19.92],[76.4934,19.9197],[76.535,19.8508],[76.647,19.8679],[76.6583,20.1131],[76.7566,20.1278],[76.7468,20.207],[76.8196,20.281],[76.6992,20.3518],[76.6984,20.4565],[76.7695,20.5165],[76.7884,20.587],[76.735,20.7113],[76.7731,20.7779],[76.7886,20.9147],[76.7818,21.1885],[76.7242,21.2891],[76.6628,21.2806]]]},"properties":{"district":"BULDHANA"}},
{"type":"Feature","geometry":{"type":"Polygon","coordinates":[[[76.7818,21.1885],[76.7886,20.9147],[76.7731,20.7779],[76.735,20.7113],[76.7884,20.587],[76.7695,20.5165],[76.6984,20.4565],[76.6992,20.3518],[76.8196,20.281],[76.9782,20.3709],[77.0224,20.4497],[77.1433,20.3809],[77.186,20.4476],[77.3209,20.4503],[77.3654,20.5182],[77.3398,20.5752],[77.4657,20.6108],[77.454,20.6619],[77.5235,20.7322],[77.6147,20.7605],[77.5793,20.808],[77.4721,20.8765],[77.4352,20.8429],[77.2126,20.8496],[77.1297,20.863],[77.1676,20.9892],[77.1503,21.0345],[77.1739,21.2432],[76.9982,21.1958],[76.7818,21.1885]]]},"properties":{"district":"AKOLA"}},
{"type":"Feature","geometry":{"type":"Polygon","coordinates":[[[73.9403,20.8395],[73.9317,20.7604],[73.8823,20.7329],[73.8547,20.6925],[73.8546,20.6927],[73.8543,20.6929],[73.8384,20.6211],[73.7612,20.5738],[73.6282,20.5831],[73.5997,20.6369],[73.4663,20.7218],[73.4073,20.6241],[73.4732,20.5848],[73.4673,20.4966],[73.3804,20.3869],[73.4136,20.3563],[73.4135,20.3562],[73.4135,20.3561],[73.4127,20.1974],[73.412,20.1971],[73.4113,20.1969],[73.2834,20.1986],[73.2494,20.1225],[73.261,20.0636],[73.4154,20.012],[73.449,19.7668],[73.4943,19.7199],[73.616,19.5854],[73.7291,19.619],[73.837,19.7403],[73.9259,19.6724],[74.1207,19.6437],[74.1672,19.7304],[74.3094,19.7677],[74.3631,19.8712],[74.2747,19.9063],[74.2478,19.9631],[74.3186,19.9853],[74.6707,19.9471],[74.7365,20.0812],[74.7149,20.1807],[74.8173,20.2502],[74.8544,20.1793],[74.923,20.1551],[74.9345,20.2702],[74.8565,20.294],[74.8367,20.4168],[74.7834,20.5],[74.8124,20.6323],[74.7885,20.6609],[74.65,20.6942],[74.6652,20.7752],[74.5647,20.8236],[74.4764,20.8296],[74.4006,20.825],[74.35,20.852],[74.1578,20.8621],[74.0013,20.8345],[73.9666,20.8523],[73.9403,20.8395]]]},"properties":{"district":"NASHIK"}},
{"type":"Feature","geometry":{"type":"Polygon","coordinates":[[[80.3168,20.7714],[80.2422,20.6548],[80.0577,20.7127],[79.964,20.6928],[79.9311,20.6688],[79.9313,20.5652],[79.9644,20.3384],[79.9919,20.217],[79.9695,20.117],[79.9889,20.0406],[79.9263,19.9698],[79.8553,20.029],[79.7835,20.0081],[79.803,19.8926],[79.7458,19.7828],[79.7824,19.7275],[79.8065,19.579],[79.8312,19.5403],[79.9448,19.47],[79.9659,19.3032],[79.9145,19.1456],[79.8691,19.0434],[79.9371,19.0429],[79.9631,18.866],[79.9154,18.8254],[80.1161,18.6811],[80.2717,18.7233],[80.3502,18.8149],[80.2703,18.9399],[80.2735,18.9932],[80.3867,19.1799],[80.3919,19.2429],[80.4862,19.3411],[80.5805,19.3983],[80.6123,19.3097],[80.6804,19.3301],[80.7559,19.2892],[80.8328,19.3494],[80.8118,19.4328],[80.8811,19.4509],[80.8949,19.5196],[80.7754,19.5625],[80.6732,19.6929],[80.4688,19.8265],[80.5433,20.0122],[80.5521,20.1181],[80.4338,20.1353],[80.4244,20.2527],[80.6257,20.3305],[80.612,20.6006],[80.5521,20.7808],[80.5611,20.8228],[80.5181,20.8344],[80.3218,20.7996],[80.3168,20.7714]]]},"properties":{"district":"GADCHIROLI"}},
{"type":"Feature","geometry":{"type":"Polygon","coordinates":[[[77.6147,20.7605],[77.5235,20.7322],[77.454,20.6619],[77.4657,20.6108],[77.3398,20.5752],[77.3654,20.5182],[77.3209,20.4503],[77.186,20.4476],[77.1433,20.3809],[77.0224,20.4497],[76.9782,20.3709],[76.8196,20.281],[76.7468,20.207],[76.7566,20.1278],[76.6583,20.1131],[76.647,19.8679],[76.6787,19.8474],[76.7723,19.9361],[77.0009,20.0124],[77.1034,19.932],[77.2025,19.9905],[77.2395,19.8908],[77.2837,19.9145],[77.3721,20.0463],[77.3658,20.0991],[77.4638,20.0698],[77.5243,20.0969],[77.6284,20.037],[77.6693,20.1023],[77.666,20.2473],[77.5941,20.2808],[77.5734,20.4001],[77.6431,20.4509],[77.6501,20.5641],[77.6147,20.7605]]]},"properties":{"district":"WASHIM"}},
{"type":"Feature","geometry":{"type":"Polygon","coordinates":[[[75.5363,20.6067],[75.5269,20.5553],[75.3961,20.5208],[75.389,20.5774],[75.2403,20.551],[75.227,20.4941],[75.1592,20.4756],[75.126,20.3503],[74.9992,20.3369],[74.9345,20.2702],[74.923,20.1551],[74.8544,20.1793],[74.8173,20.2502],[74.7149,20.1807],[74.7365,20.0812],[74.6707,19.9471],[74.6519,19.778],[74.7446,19.6904],[74.8296,19.6662],[74.9917,19.6288],[75.2056,19.579],[75.2125,19.5591],[75.3013,19.511],[75.3643,19.3983],[75.4744,19.4241],[75.6064,19.3847],[75.6436,19.5369],[75.626,19.6563],[75.6337,19.8076],[75.6548,19.908],[75.5998,20.001],[75.5862,20.0977],[75.6382,20.1437],[75.6794,20.2021],[75.6818,20.3065],[75.7455,20.3708],[75.7643,20.452],[75.8478,20.4871],[75.8849,20.5601],[75.7589,20.5749],[75.66,20.6245],[75.5363,20.6067]]]},"properties":{"district":"CHHATRAPATI SAMBHAJINAGAR"}},
{"type":"Feature","geometry":{"type":"Polygon","coordinates":[[[75.8849,20.5601],[75.8478,20.4871],[75.7643,20.452],[75.7455,20.3708],[75.6818,20.3065],[75.6794,20.2021],[75.6382,20.1437],[75.5862,20.0977],[75.5998,20.001],[75.6548,19.908],[75.6337,19.8076],[75.626,19.6563],[75.6436,19.5369],[75.6064,19.3847],[75.7514,19.3578],[75.7876,19.3996],[75.9435,19.2916],[76.1166,19.2968],[76.1394,19.2901],[76.208,19.2751],[76.2873,19.3819],[76.3133,19.4658],[76.4422,19.5416],[76.4859,19.8004],[76.535,19.8508],[76.4934,19.9197],[76.4206,19.92],[76.296,19.8692],[76.1755,19.8512],[76.0976,19.8574],[76.0403,19.9516],[75.9659,19.9952],[76.0694,20.0724],[76.1784,20.2651],[76.1083,20.3541],[75.9296,20.3014],[75.9557,20.4648],[76.0358,20.5553],[76.0077,20.6458],[75.8849,20.5601]]]},"properties":{"district":"JALNA"}},
{"type":"Feature","geometry":{"type":"Polygon","coordinates":[[[79.507,20.71],[79.4363,20.662],[79.3488,20.6762],[79.3215,20.584],[79.2207,20.5834],[79.1652,20.4909],[79.118,20.4503],[79.0234,20.4828],[78.9539,20.4284],[78.8176,20.3975],[78.7996,20.2994],[78.9621,20.2104],[78.9695,20.1285],[79.047,20.0864],[79.1104,19.9896],[79.147,19.8933],[79.0719,19.8182],[78.9723,19.8072],[78.9001,19.7377],[78.8408,19.762],[78.8576,19.6581],[78.9529,19.6585],[78.9405,19.5521],[79.0461,19.5485],[79.2039,19.4943],[79.273,19.599],[79.4146,19.5327],[79.5942,19.5071],[79.6322,19.5753],[79.7441,19.6089],[79.8065,19.579],[79.7824,19.7275],[79.7458,19.7828],[79.803,19.8926],[79.7835,20.0081],[79.8553,20.029],[79.9263,19.9698],[79.9889,20.0406],[79.9695,20.117],[79.9919,20.217],[79.9644,20.3384],[79.9313,20.5652],[79.9311,20.6688],[79.7564,20.731],[79.6595,20.6674],[79.507,20.71]]]},"properties":{"district":"CHANDRAPUR"}},
{"type":"Feature","geometry":{"type":"Polygon","coordinates":[[[77.9772,20.6044],[77.8111,20.5844],[77.7789,20.54],[77.6501,20.5641],[77.6431,20.4509],[77.5734,20.4001],[77.5941,20.2808],[77.666,20.2473],[77.6693,20.1023],[77.6284,20.037],[77.5243,20.0969],[77.4638,20.0698],[77.3658,20.0991],[77.3721,20.0463],[77.2837,19.9145],[77.389,19.8202],[77.4583,19.6825],[77.5011,19.6786],[77.6258,19.6255],[77.6504,19.5495],[77.7282,19.5327],[77.7484,19.4301],[77.9078,19.5346],[77.9903,19.4561],[78.1123,19.4817],[78.1216,19.541],[78.1972,19.6162],[78.131,19.6645],[77.8578,19.75],[77.8491,19.8007],[77.9244,19.8904],[78.0526,19.9246],[78.0804,19.8942],[78.3065,19.9143],[78.4909,19.7928],[78.5955,19.8177],[78.8408,19.762],[78.9001,19.7377],[78.9723,19.8072],[79.0719,19.8182],[79.147,19.8933],[79.1104,19.9896],[79.047,20.0864],[78.9695,20.1285],[78.9621,20.2104],[78.7996,20.2994],[78.7832,20.2984],[78.6471,20.4294],[78.5625,20.4404],[78.5088,20.5244],[78.4098,20.512],[78.2787,20.5613],[78.2775,20.6946],[78.1261,20.6619],[78.0658,20.6722],[77.9772,20.6044]]]},"properties":{"district":"YAVATMAL"}},
{"type":"Feature","geometry":{"type":"Polygon","coordinates":[[[72.7729,19.9083],[72.6637,19.9342],[72.6547,19.8353],[72.7294,19.6016],[72.7854,19.6045],[72.7678,19.5074],[72.8795,19.5265],[72.8128,19.4857],[72.7729,19.4862],[72.7577,19.3759],[72.799,19.3305],[72.8928,19.2999],[72.9515,19.3033],[72.9914,19.4185],[73.0241,19.4605],[73.003,19.5779],[73.0582,19.5867],[73.0619,19.7102],[73.1716,19.7458],[73.233,19.8026],[73.3576,19.6815],[73.4943,19.7199],[73.449,19.7668],[73.4154,20.012],[73.261,20.0636],[73.2494,20.1225],[73.2106,20.1207],[73.179,20.0476],[73.0983,20.0894],[72.961,20.1344],[72.9624,20.2102],[72.8587,20.2245],[72.7391,20.1347],[72.7381,20.1348],[72.7375,20.1348],[72.7081,20.0711],[72.7729,19.9083]]]},"properties":{"district":"PALGHAR"}},
{"type":"Feature","geometry":{"type":"Polygon","coordinates":[[[74.6707,19.9471],[74.3186,19.9853],[74.2478,19.9631],[74.2747,19.9063],[74.3631,19.8712],[74.3094,19.7677],[74.1672,19.7304],[74.1207,19.6437],[73.9259,19.6724],[73.837,19.7403],[73.7291,19.619],[73.616,19.5854],[73.7061,19.4973],[73.6855,19.444],[73.7795,19.3868],[73.9275,19.3385],[73.9954,19.3528],[74.0511,19.2435],[74.172,19.2219],[74.2104,19.1285],[74.1892,19.0189],[74.3069,18.8545],[74.3412,18.8384],[74.3896,18.8325],[74.4738,18.6923],[74.5513,18.6097],[74.5471,18.509],[74.6421,18.4503],[74.7196,18.4923],[74.8342,18.3347],[74.9144,18.3785],[75.0908,18.4312],[75.1344,18.5264],[75.3133,18.5204],[75.4146,18.5313],[75.4615,18.6055],[75.5836,18.6982],[75.3447,18.7833],[75.2539,18.7204],[75.1719,18.7366],[75.1168,18.6797],[75.0314,18.7695],[74.9375,18.8277],[74.8281,18.9623],[74.9146,19.0377],[74.946,19.1308],[75.0582,19.0978],[75.0916,19.126],[75.1362,19.036],[75.4078,19.0801],[75.4855,19.1061],[75.4369,19.2206],[75.5392,19.3074],[75.4744,19.4241],[75.3643,19.3983],[75.3013,19.511],[75.2125,19.5591],[75.2056,19.579],[74.9917,19.6288],[74.8296,19.6662],[74.7446,19.6904],[74.6519,19.778],[74.6707,19.9471]]]},"properties":{"district":"AHMEDNAGAR"}},
{"type":"Feature","geometry":{"type":"Polygon","coordinates":[[[76.6787,19.8474],[76.7614,19.6858],[76.8498,19.707],[76.8926,19.6409],[76.97,19.5466],[76.922,19.4413],[76.8884,19.3538],[76.9261,19.25],[77.012,19.2528],[77.098,19.1735],[77.1006,19.1085],[77.1419,19.0722],[77.1919,19.1474],[77.1793,19.2287],[77.2304,19.2758],[77.3123,19.3556],[77.385,19.3417],[77.4689,19.4961],[77.4583,19.6825],[77.389,19.8202],[77.2837,19.9145],[77.2395,19.8908],[77.2025,19.9905],[77.1034,19.932],[77.0009,20.0124],[76.7723,19.9361],[76.6787,19.8474]]]},"properties":{"district":"HINGOLI"}},
{"type":"Feature","geometry":{"type":"Polygon","coordinates":[[[73.4943,19.7199],[73.3576,19.6815],[73.233,19.8026],[73.1716,19.7458],[73.0619,19.7102],[73.0582,19.5867],[73.003,19.5779],[73.0241,19.4605],[72.9914,19.4185],[72.9515,19.3033],[72.8928,19.2999],[72.8681,19.3077],[72.786,19.3056],[72.7842,19.2637],[72.8247,19.2455],[72.872,19.2602],[72.8922,19.2505],[72.9157,19.2311],[72.9232,19.2151],[72.9678,19.1705],[72.9805,19.1853],[72.9864,19.187],[72.998,19.1115],[73.0414,19.0065],[73.0468,19.016],[73.0466,19.085],[73.0539,19.1005],[73.1092,19.1099],[73.198,19.1229],[73.2632,19.0659],[73.3544,19.1307],[73.5258,19.1296],[73.5352,19.178],[73.6435,19.2185],[73.7068,19.3243],[73.7795,19.3868],[73.6855,19.444],[73.7061,19.4973],[73.616,19.5854],[73.4943,19.7199]]]},"properties":{"district":"THANE"}},
{"type":"Feature","geometry":{"type":"Polygon","coordinates":[[[77.9244,19.8904],[77.8491,19.8007],[77.8578,19.75],[78.131,19.6645],[78.1972,19.6162],[78.1216,19.541],[78.1123,19.4817],[77.9903,19.4561],[77.9078,19.5346],[77.7484,19.4301],[77.7282,19.5327],[77.6504,19.5495],[77.6258,19.6255],[77.5011,19.6786],[77.4583,19.6825],[77.4689,19.4961],[77.385,19.3417],[77.3123,19.3556],[77.2304,19.2758],[77.1793,19.2287],[77.1919,19.1474],[77.1419,19.0722],[77.1006,19.1085],[77.0606,19.0629],[76.9907,18.829],[77.0561,18.7542],[77.0542,18.682],[77.2679,18.6122],[77.2754,18.4776],[77.2673,18.4546],[77.2653,18.4224],[77.3352,18.4507],[77.4132,18.3914],[77.4099,18.3018],[77.4651,18.2633],[77.5516,18.2921],[77.5259,18.3422],[77.5965,18.5492],[77.7398,18.5688],[77.7311,18.6443],[77.7874,18.6828],[77.8444,18.8073],[77.9484,18.8447],[77.8431,18.9099],[77.7619,19.0332],[77.8067,19.1025],[77.8526,19.1549],[77.8635,19.3037],[77.9517,19.3404],[77.9538,19.3397],[78.0555,19.2374],[78.18,19.2456],[78.1924,19.3261],[78.203,19.4196],[78.3045,19.4563],[78.2744,19.5542],[78.3057,19.6072],[78.2763,19.6926],[78.3648,19.7814],[78.301,19.8407],[78.3065,19.9143],[78.0804,19.8942],[78.0526,19.9246],[77.9244,19.8904]]]},"properties":{"district":"NANDED"}},
{"type":"Feature","geometry":{"type":"Polygon","coordinates":[[[76.535,19.8508],[76.4859,19.8004],[76.4422,19.5416],[76.3133,19.4658],[76.2873,19.3819],[76.208,19.2751],[76.3631,19.237],[76.3389,19.0985],[76.3904,19.125],[76.4525,19.0499],[76.4736,18.9633],[76.5818,18.9435],[76.6255,18.8515],[76.7217,18.7499],[76.8817,18.8353],[76.9907,18.829],[77.0606,19.0629],[77.1006,19.1085],[77.098,19.1735],[77.012,19.2528],[76.9261,19.25],[76.8884,19.3538],[76.922,19.4413],[76.97,19.5466],[76.8926,19.6409],[76.8498,19.707],[76.7614,19.6858],[76.6787,19.8474],[76.647,19.8679],[76.535,19.8508]]]},"properties":{"district":"PARBHANI"}},
{"type":"Feature","geometry":{"type":"Polygon","coordinates":[[[73.7795,19.3868],[73.7068,19.3243],[73.6435,19.2185],[73.5352,19.178],[73.5258,19.1296],[73.5213,19.0706],[73.5224,18.9783],[73.4607,18.965],[73.3891,18.8534],[73.3324,18.7016],[73.3863,18.6784],[73.3233,18.5582],[73.3644,18.4704],[73.4438,18.3596],[73.419,18.3061],[73.5411,18.2079],[73.665,18.1629],[73.5942,18.1089],[73.6584,18.0296],[73.7924,18.0205],[73.87,18.0475],[73.9432,18.1807],[74.0507,18.1402],[74.2187,18.0965],[74.32,18.0729],[74.6411,18.0441],[74.6646,18.0701],[74.7113,18.0291],[74.863,17.9918],[74.8943,17.9371],[75.0182,17.9091],[75.136,17.9712],[75.0483,18.0198],[75.1604,18.1053],[75.0923,18.1231],[74.9493,18.2663],[74.8394,18.2449],[74.8033,18.3017],[74.8342,18.3347],[74.7196,18.4923],[74.6421,18.4503],[74.5471,18.509],[74.5513,18.6097],[74.4738,18.6923],[74.3896,18.8325],[74.3412,18.8384],[74.3069,18.8545],[74.1892,19.0189],[74.2104,19.1285],[74.172,19.2219],[74.0511,19.2435],[73.9954,19.3528],[73.9275,19.3385],[73.7795,19.3868]]]},"properties":{"district":"PUNE"}},
{"type":"Feature","geometry":{"type":"Polygon","coordinates":[[[76.1166,19.2968],[75.9435,19.2916],[75.7876,19.3996],[75.7514,19.3578],[75.6064,19.3847],[75.4744,19.4241],[75.5392,19.3074],[75.4369,19.2206],[75.4855,19.1061],[75.4078,19.0801],[75.1362,19.036],[75.0916,19.126],[75.0582,19.0978],[74.946,19.1308],[74.9146,19.0377],[74.8281,18.9623],[74.9375,18.8277],[75.0314,18.7695],[75.1168,18.6797],[75.1719,18.7366],[75.2539,18.7204],[75.3447,18.7833],[75.5836,18.6982],[75.6064,18.6845],[75.6687,18.6921],[75.9236,18.6437],[76.055,18.5726],[76.1021,18.5884],[76.2759,18.5584],[76.3509,18.5632],[76.4681,18.633],[76.5766,18.622],[76.7321,18.7],[76.7217,18.7499],[76.6255,18.8515],[76.5818,18.9435],[76.4736,18.9633],[76.4525,19.0499],[76.3904,19.125],[76.3389,19.0985],[76.3631,19.237],[76.208,19.2751],[76.1394,19.2901],[76.1166,19.2968]]]},"properties":{"district":"BEED"}},
{"type":"Feature","geometry":{"type":"Polygon","coordinates":[[[72.8247,19.2455],[72.7842,19.2637],[72.793,19.1938],[72.7963,19.1924],[72.8024,19.139],[72.8217,19.1227],[72.8217,19.073],[72.8391,19.048],[72.8437,19.0505],[72.8627,19.0526],[72.8754,19.0498],[72.8808,19.0417],[72.8788,19.0212],[72.9063,18.9963],[72.9504,19.0388],[72.9348,19.0617],[72.9113,19.0605],[72.9058,19.0608],[72.9252,19.0887],[72.9344,19.0993],[72.9375,19.1154],[72.9533,19.1503],[72.9678,19.1705],[72.9232,19.2151],[72.9157,19.2311],[72.8922,19.2505],[72.872,19.2602],[72.8247,19.2455]]]},"properties":{"district":"MUMBAI SUBURBAN"}},
{"type":"Feature","geometry":{"type":"Polygon","coordinates":[[[73.198,19.1229],[73.1092,19.1099],[73.0539,19.1005],[73.0466,19.085],[73.0468,19.016],[73.0414,19.0065],[73.034,19.0015],[72.9572,18.8796],[72.9994,18.8076],[72.9938,18.7757],[72.8684,18.7996],[72.8557,18.6993],[72.9237,18.5457],[72.895,18.4633],[72.912,18.3683],[72.9701,18.3],[73.0399,18.2917],[72.9455,18.223],[73.0394,17.9803],[73.1147,17.98],[73.1756,18.0603],[73.2876,18.0714],[73.3919,17.8808],[73.4388,17.8599],[73.5701,17.8791],[73.6584,18.0296],[73.5942,18.1089],[73.665,18.1629],[73.5411,18.2079],[73.419,18.3061],[73.4438,18.3596],[73.3644,18.4704],[73.3233,18.5582],[73.3863,18.6784],[73.3324,18.7016],[73.3891,18.8534],[73.4607,18.965],[73.5224,18.9783],[73.5213,19.0706],[73.5258,19.1296],[73.3544,19.1307],[73.2632,19.0659],[73.198,19.1229]]]},"properties":{"district":"RAIGARH"}},
{"type":"Feature","geometry":{"type":"Polygon","coordinates":[[[72.8627,19.0526],[72.8437,19.0505],[72.8391,19.048],[72.8393,19.0439],[72.8195,19.0188],[72.8058,18.9775],[72.818,18.9508],[72.8093,18.8947],[72.8456,18.9458],[72.8489,18.9635],[72.8496,18.9799],[72.8563,18.9983],[72.8758,19.0184],[72.8788,19.0212],[72.8808,19.0417],[72.8754,19.0498],[72.8627,19.0526]]]},"properties":{"district":"MUMBAI"}},
{"type":"Feature","geometry":{"type":"Polygon","coordinates":[[[76.7217,18.7499],[76.7321,18.7],[76.5766,18.622],[76.4681,18.633],[76.3509,18.5632],[76.2759,18.5584],[76.2535,18.5211],[76.2573,18.3641],[76.3171,18.3303],[76.2915,18.1955],[76.3046,18.0969],[76.3729,18.0905],[76.4259,18.0292],[76.6786,17.9961],[76.7368,17.9063],[76.7398,17.9001],[76.7746,17.8782],[76.919,17.9167],[76.9528,18.0409],[76.9219,18.1147],[76.9516,18.1883],[77.0636,18.1508],[77.1335,18.2063],[77.1621,18.2572],[77.2119,18.316],[77.2297,18.3481],[77.2653,18.4224],[77.2673,18.4546],[77.2754,18.4776],[77.2679,18.6122],[77.0542,18.682],[77.0561,18.7542],[76.9907,18.829],[76.8817,18.8353],[76.7217,18.7499]],[[76.9393,18.4212],[76.9289,18.391],[76.9306,18.416],[76.9393,18.4212]]]},"properties":{"district":"LATUR"}},
{"type":"Feature","geometry":{"type":"Polygon","coordinates":[[[75.5836,18.6982],[75.4615,18.6055],[75.4146,18.5313],[75.3133,18.5204],[75.2853,18.4058],[75.3824,18.3431],[75.4249,18.1824],[75.5379,18.1446],[75.5687,18.2354],[75.6471,18.3297],[75.8123,18.3794],[75.8959,18.3578],[75.9959,18.0696],[75.9796,17.9731],[75.8567,18.012],[75.8384,17.9318],[75.857,17.8655],[75.9661,17.8191],[76.028,17.7661],[76.1288,17.7676],[76.1862,17.6832],[76.2692,17.729],[76.4038,17.6565],[76.4278,17.6446],[76.6319,17.7549],[76.6913,17.6814],[76.7808,17.8034],[76.7398,17.9001],[76.7368,17.9063],[76.6786,17.9961],[76.4259,18.0292],[76.3729,18.0905],[76.3046,18.0969],[76.2915,18.1955],[76.3171,18.3303],[76.2573,18.3641],[76.2535,18.5211],[76.2759,18.5584],[76.1021,18.5884],[76.055,18.5726],[75.9236,18.6437],[75.6687,18.6921],[75.6064,18.6845],[75.5836,18.6982]]]},"properties":{"district":"DHARASHIV"}},
{"type":"Feature","geometry":{"type":"Polygon","coordinates":[[[74.8342,18.3347],[74.8033,18.3017],[74.8394,18.2449],[74.9493,18.2663],[75.0923,18.1231],[75.1604,18.1053],[75.0483,18.0198],[75.136,17.9712],[75.0182,17.9091],[74.8943,17.9371],[74.863,17.9918],[74.7113,18.0291],[74.6082,17.8473],[74.6984,17.7888],[74.8725,17.7217],[74.9059,17.629],[74.9235,17.6175],[74.9361,17.5123],[75.0354,17.4181],[74.849,17.2044],[74.9161,17.1636],[75.0084,17.2086],[75.0795,17.2469],[75.3331,17.2333],[75.4213,17.2656],[75.5173,17.2407],[75.6038,17.3063],[75.6342,17.478],[75.683,17.4181],[75.8066,17.368],[75.8942,17.3792],[75.8966,17.3503],[75.9283,17.3227],[76.0726,17.3349],[76.1197,17.3706],[76.2719,17.3609],[76.3822,17.3144],[76.4089,17.3712],[76.3635,17.3774],[76.3308,17.5958],[76.4278,17.6446],[76.4038,17.6565],[76.2692,17.729],[76.1862,17.6832],[76.1288,17.7676],[76.028,17.7661],[75.9661,17.8191],[75.857,17.8655],[75.8384,17.9318],[75.8567,18.012],[75.9796,17.9731],[75.9959,18.0696],[75.8959,18.3578],[75.8123,18.3794],[75.6471,18.3297],[75.5687,18.2354],[75.5379,18.1446],[75.4249,18.1824],[75.3824,18.3431],[75.2853,18.4058],[75.3133,18.5204],[75.1344,18.5264],[75.0908,18.4312],[74.9144,18.3785],[74.8342,18.3347]]]},"properties":{"district":"SOLAPUR"}},
{"type":"Feature","geometry":{"type":"Polygon","coordinates":[[[73.6584,18.0296],[73.5701,17.8791],[73.5922,17.8453],[73.5805,17.7094],[73.6876,17.6868],[73.6906,17.6292],[73.7449,17.557],[73.6668,17.3913],[73.6948,17.2619],[73.8339,17.2264],[73.8825,17.1688],[74.0315,17.0909],[74.1189,17.1218],[74.2383,17.1409],[74.2816,17.1839],[74.2649,17.2608],[74.2575,17.3561],[74.2966,17.4256],[74.4725,17.3909],[74.5032,17.3891],[74.5315,17.4202],[74.6895,17.4036],[74.7008,17.4883],[74.808,17.4538],[74.8602,17.5113],[74.9059,17.629],[74.8725,17.7217],[74.6984,17.7888],[74.6082,17.8473],[74.7113,18.0291],[74.6646,18.0701],[74.6411,18.0441],[74.32,18.0729],[74.2187,18.0965],[74.0507,18.1402],[73.9432,18.1807],[73.87,18.0475],[73.7924,18.0205],[73.6584,18.0296]]]},"properties":{"district":"SATARA"}},
{"type":"Feature","geometry":{"type":"Polygon","coordinates":[[[73.2876,18.0714],[73.1756,18.0603],[73.1147,17.98],[73.0394,17.9803],[73.1755,17.5842],[73.1944,17.4648],[73.1764,17.3891],[73.2494,17.2956],[73.2448,17.2225],[73.2911,17.0783],[73.2768,16.892],[73.3176,16.8063],[73.3055,16.7302],[73.3511,16.6127],[73.3322,16.565],[73.4661,16.4936],[73.8509,16.6494],[73.835,16.7421],[73.7374,16.8223],[73.796,16.9288],[73.7849,16.9898],[73.8334,17.0552],[73.7073,17.1704],[73.6948,17.2619],[73.6668,17.3913],[73.7449,17.557],[73.6906,17.6292],[73.6876,17.6868],[73.5805,17.7094],[73.5922,17.8453],[73.5701,17.8791],[73.4388,17.8599],[73.3919,17.8808],[73.2876,18.0714]]]},"properties":{"district":"RATNAGIRI"}},
{"type":"Feature","geometry":{"type":"Polygon","coordinates":[[[74.9059,17.629],[74.8602,17.5113],[74.808,17.4538],[74.7008,17.4883],[74.6895,17.4036],[74.5315,17.4202],[74.5032,17.3891],[74.4725,17.3909],[74.2966,17.4256],[74.2575,17.3561],[74.2649,17.2608],[74.2816,17.1839],[74.2383,17.1409],[74.1189,17.1218],[74.0315,17.0909],[73.8825,17.1688],[73.8339,17.2264],[73.6948,17.2619],[73.7073,17.1704],[73.8471,17.1527],[74.0235,16.9857],[74.0388,16.9234],[74.2343,16.8882],[74.3168,16.8896],[74.4635,16.8565],[74.5237,16.8503],[74.5864,16.8018],[74.6914,16.7163],[74.9197,16.7726],[74.9554,16.907],[75.0258,16.9441],[75.09,16.9518],[75.1817,16.8446],[75.2802,16.8783],[75.3417,16.9581],[75.4644,16.9909],[75.6766,16.9694],[75.6725,17.1153],[75.6282,17.162],[75.6546,17.2727],[75.6038,17.3063],[75.5173,17.2407],[75.4213,17.2656],[75.3331,17.2333],[75.0795,17.2469],[75.0084,17.2086],[74.9161,17.1636],[74.849,17.2044],[75.0354,17.4181],[74.9361,17.5123],[74.9235,17.6175],[74.9059,17.629]]]},"properties":{"district":"SANGLI"}},
{"type":"Feature","geometry":{"type":"Polygon","coordinates":[[[73.7849,16.9898],[73.796,16.9288],[73.7374,16.8223],[73.835,16.7421],[73.8509,16.6494],[73.8295,16.5343],[73.8842,16.4743],[73.8374,16.3429],[73.9465,16.178],[73.875,16.0977],[73.9955,16.0593],[74.0908,16.0074],[74.0946,15.8986],[74.2091,15.7812],[74.2416,15.7431],[74.3405,15.7648],[74.3867,15.9044],[74.4305,15.9582],[74.4623,16.0372],[74.3721,16.0782],[74.4845,16.1426],[74.4966,16.2335],[74.3518,16.2794],[74.329,16.3245],[74.3327,16.4555],[74.2643,16.5401],[74.3953,16.5772],[74.459,16.6567],[74.4718,16.6638],[74.5432,16.5951],[74.5721,16.5534],[74.6854,16.6067],[74.6914,16.7163],[74.5864,16.8018],[74.5237,16.8503],[74.4635,16.8565],[74.3168,16.8896],[74.2343,16.8882],[74.0388,16.9234],[74.0235,16.9857],[73.8471,17.1527],[73.7073,17.1704],[73.8334,17.0552],[73.7849,16.9898]]]},"properties":{"district":"KOLHAPUR"}},
{"type":"Feature","geometry":{"type":"Polygon","coordinates":[[[73.3322,16.565],[73.3144,16.541],[73.4363,16.1998],[73.4905,16.0062],[73.5104,15.9373],[73.5887,15.9098],[73.6754,15.727],[73.7319,15.7228],[73.8757,15.7511],[73.945,15.6994],[73.9726,15.628],[74.0172,15.6076],[74.1176,15.6517],[74.1217,15.7205],[74.2091,15.7812],[74.0946,15.8986],[74.0908,16.0074],[73.9955,16.0593],[73.875,16.0977],[73.9465,16.178],[73.8374,16.3429],[73.8842,16.4743],[73.8295,16.5343],[73.8509,16.6494],[73.4661,16.4936],[73.3322,16.565]]]},"properties":{"district":"SINDHUDURG"}}
]}